{"type":"FeatureCollection","features":[{"type":"Feature","properties":{"c":"N.01","n":"Titi Tinggi","w":"PN","p":"BERSATU","cand":"Izizam bin Ibrahim","pct":58.4,"maj":3785,"nc":6,"tv":9587,"unc":false,"rw":"BN","rp":"MCA","rcand":"Teh Chai Aan","rpct":18.9},"geometry":{"type":"Polygon","coordinates":[[[100.3055,6.6066],[100.3059,6.6111],[100.3166,6.6137],[100.3259,6.6227],[100.321,6.6359],[100.3165,6.6348],[100.3162,6.6366],[100.3172,6.6398],[100.3217,6.6421],[100.3223,6.6491],[100.3197,6.6547],[100.3237,6.6568],[100.3273,6.6643],[100.3189,6.6644],[100.3158,6.6677],[100.3089,6.6666],[100.3057,6.6684],[100.3018,6.6799],[100.2973,6.6779],[100.2943,6.6798],[100.29,6.6906],[100.2914,6.6991],[100.2951,6.7044],[100.2927,6.708],[100.2903,6.7099],[100.2866,6.7075],[100.2843,6.7087],[100.265,6.6989],[100.2575,6.7111],[100.2566,6.7082],[100.2528,6.7079],[100.2533,6.7038],[100.2492,6.6976],[100.2406,6.6921],[100.2317,6.6949],[100.2288,6.6934],[100.2214,6.6996],[100.2149,6.6807],[100.2075,6.6817],[100.2069,6.6723],[100.2094,6.6684],[100.2083,6.6525],[100.212,6.6478],[100.2104,6.6447],[100.2135,6.6425],[100.211,6.6413],[100.2104,6.6347],[100.2124,6.6333],[100.2085,6.6314],[100.2048,6.6326],[100.203,6.6292],[100.2122,6.6275],[100.2239,6.6298],[100.2312,6.628],[100.2338,6.6218],[100.2284,6.6056],[100.2349,6.6004],[100.2481,6.5974],[100.2532,6.5921],[100.252,6.5826],[100.2556,6.5756],[100.2592,6.5735],[100.2625,6.5911],[100.2814,6.5928],[100.2886,6.6095],[100.2959,6.6064],[100.3055,6.6066]]]}},{"type":"Feature","properties":{"c":"N.02","n":"Beseri","w":"PN","p":"PAS","cand":"Haziq Asyraf bin Dun","pct":45.8,"maj":1047,"nc":4,"tv":8813,"unc":false,"rw":"BN","rp":"UMNO","rcand":"Ruzaini bin Rais","rpct":34.0},"geometry":{"type":"Polygon","coordinates":[[[100.2214,6.6996],[100.2179,6.7036],[100.2182,6.7099],[100.2152,6.7129],[100.2145,6.719],[100.2056,6.721],[100.2045,6.7258],[100.1858,6.7168],[100.1862,6.7133],[100.1786,6.6965],[100.1715,6.6934],[100.1752,6.6829],[100.1792,6.6827],[100.1798,6.6804],[100.1786,6.6677],[100.1813,6.6556],[100.1684,6.6476],[100.169,6.6326],[100.1661,6.6316],[100.1684,6.6272],[100.1671,6.6235],[100.1695,6.6092],[100.181,6.6017],[100.1784,6.5915],[100.1851,6.5782],[100.1835,6.5727],[100.179,6.5733],[100.177,6.5711],[100.1763,6.5662],[100.1835,6.5144],[100.1946,6.5237],[100.1998,6.5338],[100.2041,6.5281],[100.205,6.5299],[100.2167,6.5272],[100.2177,6.5366],[100.2279,6.5353],[100.2288,6.5139],[100.2433,6.5132],[100.2547,6.5155],[100.2565,6.5235],[100.2595,6.5423],[100.2592,6.5735],[100.2556,6.5756],[100.252,6.5826],[100.2532,6.5921],[100.2481,6.5974],[100.2349,6.6004],[100.2284,6.6056],[100.2338,6.6218],[100.2312,6.628],[100.2239,6.6298],[100.2122,6.6275],[100.203,6.6292],[100.2048,6.6326],[100.2085,6.6314],[100.2124,6.6333],[100.2104,6.6347],[100.211,6.6413],[100.2135,6.6425],[100.2104,6.6447],[100.212,6.6478],[100.2083,6.6525],[100.2094,6.6684],[100.2069,6.6723],[100.2075,6.6817],[100.2149,6.6807],[100.2214,6.6996]]]}},{"type":"Feature","properties":{"c":"N.03","n":"Chuping","w":"PN","p":"PAS","cand":"Saad bin Seman","pct":53.7,"maj":2420,"nc":3,"tv":10928,"unc":false,"rw":"BN","rp":"UMNO","rcand":"Asmaiza binti Ahmad","rpct":31.6},"geometry":{"type":"Polygon","coordinates":[[[100.2592,6.5735],[100.2592,6.5373],[100.2547,6.5155],[100.2489,6.5137],[100.25,6.5111],[100.254,6.5114],[100.253,6.5052],[100.2595,6.5084],[100.258,6.4971],[100.2603,6.4921],[100.2665,6.4911],[100.2707,6.4829],[100.282,6.4808],[100.2813,6.4687],[100.2891,6.4671],[100.2891,6.4631],[100.2862,6.4605],[100.2795,6.463],[100.2776,6.4593],[100.2883,6.4562],[100.2998,6.4611],[100.3053,6.4617],[100.306,6.4596],[100.3117,6.4617],[100.3222,6.4726],[100.3298,6.4714],[100.3336,6.4764],[100.3565,6.4794],[100.366,6.483],[100.3707,6.5322],[100.3596,6.5481],[100.3595,6.557],[100.3535,6.5614],[100.3539,6.5683],[100.3512,6.5729],[100.3452,6.5712],[100.3415,6.5751],[100.3415,6.5803],[100.3346,6.5849],[100.3255,6.5855],[100.3249,6.5885],[100.3202,6.5917],[100.3159,6.6041],[100.2959,6.6064],[100.2886,6.6095],[100.2814,6.5928],[100.2625,6.5911],[100.2592,6.5735]]]}},{"type":"Feature","properties":{"c":"N.04","n":"Mata Ayer","w":"PN","p":"PAS","cand":"Wan Badariah binti Wan Saad","pct":58.1,"maj":2021,"nc":3,"tv":7611,"unc":false,"rw":"BN","rp":"UMNO","rcand":"Siti Berenee binti Yahaya","rpct":31.5},"geometry":{"type":"Polygon","coordinates":[[[100.25,6.5111],[100.2476,6.503],[100.245,6.5019],[100.2442,6.4979],[100.2411,6.4972],[100.2415,6.4923],[100.2353,6.4919],[100.2326,6.4831],[100.2343,6.4823],[100.2326,6.478],[100.2345,6.4771],[100.2326,6.4757],[100.2372,6.4728],[100.2325,6.4581],[100.2342,6.4565],[100.2411,6.4646],[100.2508,6.4592],[100.255,6.4661],[100.2579,6.4578],[100.2618,6.4597],[100.2649,6.4571],[100.2663,6.461],[100.2776,6.4593],[100.2795,6.463],[100.2881,6.4612],[100.2891,6.4671],[100.2813,6.4687],[100.282,6.4808],[100.2707,6.4829],[100.2665,6.4911],[100.2603,6.4921],[100.258,6.4971],[100.2595,6.5084],[100.253,6.5052],[100.254,6.5114],[100.25,6.5111]]]}},{"type":"Feature","properties":{"c":"N.05","n":"Santan","w":"PN","p":"PAS","cand":"Muhammad Azmir bin Azizan","pct":56.4,"maj":2108,"nc":3,"tv":8426,"unc":false,"rw":"BN","rp":"UMNO","rcand":"Azizan bin Sulaiman","rpct":31.4},"geometry":{"type":"Polygon","coordinates":[[[100.1835,6.5144],[100.1842,6.509],[100.2138,6.5005],[100.2108,6.4732],[100.2201,6.4697],[100.2205,6.466],[100.2302,6.4594],[100.2333,6.4612],[100.2372,6.4728],[100.2331,6.4741],[100.2343,6.4823],[100.2326,6.4831],[100.2353,6.4919],[100.2415,6.4923],[100.2411,6.4972],[100.2442,6.4979],[100.245,6.5019],[100.2476,6.503],[100.2504,6.5096],[100.2489,6.5137],[100.2288,6.5139],[100.2279,6.5353],[100.2177,6.5366],[100.2167,6.5272],[100.205,6.5299],[100.2041,6.5281],[100.1998,6.5338],[100.1946,6.5237],[100.1835,6.5144]]]}},{"type":"Feature","properties":{"c":"N.06","n":"Bintong","w":"PN","p":"PAS","cand":"Fakhrul Anwar bin Ismail","pct":57.6,"maj":4329,"nc":6,"tv":12721,"unc":false,"rw":"BN","rp":"UMNO","rcand":"Azlan bin Man","rpct":23.6},"geometry":{"type":"MultiPolygon","coordinates":[[[[100.1763,6.5662],[100.1722,6.5735],[100.1699,6.5746],[100.1661,6.5697],[100.1632,6.5716],[100.1624,6.5762],[100.1568,6.5793],[100.1597,6.5626],[100.1538,6.5574],[100.1575,6.5229],[100.1546,6.5218],[100.1606,6.5033],[100.1604,6.4895],[100.1592,6.4871],[100.1546,6.4867],[100.1549,6.4832],[100.159,6.481],[100.1582,6.4789],[100.1513,6.4758],[100.1515,6.4719],[100.1456,6.4687],[100.1445,6.463],[100.148,6.4526],[100.1466,6.4511],[100.1513,6.4499],[100.1534,6.4357],[100.1545,6.4339],[100.1624,6.4344],[100.1644,6.4302],[100.1653,6.4325],[100.1714,6.4311],[100.1825,6.4337],[100.1807,6.444],[100.1849,6.4472],[100.1867,6.4469],[100.1879,6.442],[100.1948,6.4454],[100.1957,6.4435],[100.1988,6.4447],[100.2108,6.4732],[100.2139,6.4898],[100.2138,6.5005],[100.1842,6.509],[100.1763,6.5662]]]]}},{"type":"Feature","properties":{"c":"N.07","n":"Sena","w":"PN","p":"BERSATU","cand":"Marzita binti Mansor","pct":47.3,"maj":2200,"nc":4,"tv":11753,"unc":false,"rw":"PH","rp":"PKR","rcand":"Asrul Nizan bin Abd Jalil","rpct":28.6},"geometry":{"type":"Polygon","coordinates":[[[100.2319,6.4605],[100.2302,6.4594],[100.225,6.4625],[100.2242,6.4652],[100.2205,6.466],[100.2201,6.4697],[100.2108,6.4732],[100.1942,6.437],[100.2102,6.4241],[100.2157,6.4237],[100.219,6.4209],[100.2241,6.4219],[100.2283,6.4182],[100.2384,6.4222],[100.2418,6.426],[100.2409,6.4288],[100.2314,6.4303],[100.2317,6.4354],[100.234,6.447],[100.2373,6.4488],[100.241,6.4463],[100.2441,6.4531],[100.2414,6.4547],[100.2362,6.453],[100.2319,6.4605]]]}},{"type":"Feature","properties":{"c":"N.08","n":"Indera Kayangan","w":"PH","p":"PKR","cand":"Gan Ay Ling","pct":46.4,"maj":1873,"nc":4,"tv":10405,"unc":false,"rw":"PN","rp":"BERSATU","rcand":"Pramoot a/l Puan","rpct":28.4},"geometry":{"type":"Polygon","coordinates":[[[100.1825,6.4337],[100.1846,6.4307],[100.1886,6.4302],[100.1888,6.4353],[100.1901,6.4336],[100.1936,6.4218],[100.192,6.4058],[100.2042,6.4046],[100.2062,6.4143],[100.2022,6.4178],[100.204,6.4202],[100.2018,6.4235],[100.2026,6.4302],[100.1942,6.437],[100.1967,6.4426],[100.1952,6.4452],[100.1879,6.442],[100.1867,6.4469],[100.1822,6.4457],[100.1807,6.444],[100.1825,6.4337]]]}},{"type":"Feature","properties":{"c":"N.09","n":"Kuala Perlis","w":"PN","p":"BERSATU","cand":"Abu Bakar bin Hamzah","pct":30.1,"maj":154,"nc":5,"tv":10670,"unc":false,"rw":"PH","rp":"PKR","rcand":"Nor Azam bin Karap","rpct":28.6},"geometry":{"type":"Polygon","coordinates":[[[100.145,6.4511],[100.1427,6.4475],[100.1396,6.4481],[100.1358,6.4445],[100.1336,6.4293],[100.1204,6.4226],[100.1245,6.4046],[100.1298,6.3994],[100.1271,6.3971],[100.1327,6.3923],[100.1413,6.3701],[100.1466,6.3694],[100.1583,6.3754],[100.1495,6.3915],[100.1515,6.396],[100.1494,6.3965],[100.1468,6.4047],[100.1484,6.4157],[100.1554,6.4266],[100.1551,6.4318],[100.1513,6.4499],[100.145,6.4511]]]}},{"type":"Feature","properties":{"c":"N.10","n":"Kayang","w":"PN","p":"PAS","cand":"Asrul Aimran bin Abdul Jalil","pct":58.3,"maj":3261,"nc":4,"tv":10596,"unc":false,"rw":"BN","rp":"UMNO","rcand":"Hamizan bin Hassan","rpct":27.5},"geometry":{"type":"Polygon","coordinates":[[[100.1545,6.4339],[100.1554,6.4266],[100.1484,6.4157],[100.1468,6.4047],[100.1494,6.3965],[100.1515,6.396],[100.1495,6.3915],[100.1574,6.3749],[100.1752,6.3853],[100.1739,6.3884],[100.1778,6.389],[100.1811,6.3875],[100.1814,6.3767],[100.1849,6.3788],[100.1869,6.3765],[100.1858,6.3706],[100.1972,6.3699],[100.1971,6.3772],[100.2032,6.3782],[100.1994,6.3807],[100.2005,6.3859],[100.197,6.3898],[100.1987,6.3993],[100.192,6.4058],[100.1936,6.4218],[100.1901,6.4336],[100.1888,6.4353],[100.1886,6.4302],[100.1846,6.4307],[100.1829,6.4341],[100.1714,6.4311],[100.1653,6.4325],[100.1644,6.4302],[100.1624,6.4344],[100.1545,6.4339]]]}},{"type":"Feature","properties":{"c":"N.11","n":"Pauh","w":"PN","p":"BERSATU","cand":"Megat Hashirat bin Hassan","pct":44.2,"maj":2229,"nc":4,"tv":11145,"unc":false,"rw":"BN","rp":"UMNO","rcand":"Syed Atif bin Syed Abu Bakar","rpct":24.2},"geometry":{"type":"Polygon","coordinates":[[[100.2776,6.4593],[100.2663,6.461],[100.2649,6.4571],[100.2618,6.4597],[100.2579,6.4578],[100.2676,6.4258],[100.2718,6.423],[100.2734,6.4253],[100.2843,6.4278],[100.2835,6.4207],[100.2942,6.4179],[100.2938,6.414],[100.2984,6.4154],[100.3031,6.4121],[100.3051,6.4071],[100.3084,6.4105],[100.312,6.4104],[100.363,6.4533],[100.366,6.483],[100.3565,6.4794],[100.3336,6.4764],[100.3298,6.4714],[100.3222,6.4726],[100.3117,6.4617],[100.306,6.4596],[100.3053,6.4617],[100.2998,6.4611],[100.2883,6.4562],[100.2776,6.4593]]]}},{"type":"Feature","properties":{"c":"N.12","n":"Tambun Tulang","w":"PN","p":"BERSATU","cand":"Wan Zikri bin Afthar Ishak","pct":53.7,"maj":2485,"nc":4,"tv":10163,"unc":false,"rw":"BN","rp":"UMNO","rcand":"Ismail bin Kasim (Chu)","rpct":29.2},"geometry":{"type":"Polygon","coordinates":[[[100.2352,6.4577],[100.2362,6.453],[100.2425,6.4546],[100.2442,6.4509],[100.241,6.4463],[100.2373,6.4488],[100.234,6.447],[100.2314,6.4303],[100.2409,6.4288],[100.2418,6.426],[100.2384,6.4222],[100.2283,6.4182],[100.2241,6.4219],[100.2215,6.4201],[100.2102,6.4241],[100.2026,6.4302],[100.2018,6.4235],[100.204,6.4202],[100.2022,6.4178],[100.2063,6.4132],[100.2042,6.4046],[100.1941,6.4055],[100.1987,6.3993],[100.197,6.3898],[100.2005,6.3859],[100.1994,6.3807],[100.2032,6.3782],[100.1971,6.3772],[100.1972,6.3699],[100.2137,6.3694],[100.2141,6.3568],[100.2554,6.3943],[100.2588,6.3901],[100.2716,6.3973],[100.2755,6.403],[100.2698,6.4146],[100.2677,6.4217],[100.2708,6.4233],[100.2676,6.4258],[100.255,6.4661],[100.2508,6.4592],[100.2411,6.4646],[100.2352,6.4577]]]}},{"type":"Feature","properties":{"c":"N.13","n":"Guar Sanji","w":"PN","p":"PAS","cand":"Mohd Ridzuan bin Hashim","pct":74.2,"maj":5101,"nc":4,"tv":9053,"unc":false,"rw":"BN","rp":"UMNO","rcand":"Rozieana binti Ahmad","rpct":17.9},"geometry":{"type":"Polygon","coordinates":[[[100.2708,6.4233],[100.2677,6.4217],[100.2755,6.403],[100.2716,6.3973],[100.2588,6.3901],[100.2554,6.3943],[100.2086,6.3526],[100.2179,6.3331],[100.2222,6.33],[100.22,6.3283],[100.2264,6.3156],[100.2432,6.3321],[100.2496,6.3351],[100.2545,6.3484],[100.2668,6.3576],[100.2736,6.3668],[100.2795,6.3695],[100.3022,6.4037],[100.3052,6.4043],[100.3031,6.4121],[100.297,6.4159],[100.2966,6.4139],[100.2938,6.414],[100.2942,6.4179],[100.2835,6.4207],[100.2843,6.4278],[100.2708,6.4233]]]}},{"type":"Feature","properties":{"c":"N.14","n":"Simpang Empat","w":"PN","p":"PAS","cand":"Razali bin Saad","pct":66.4,"maj":4008,"nc":6,"tv":8115,"unc":false,"rw":"BN","rp":"UMNO","rcand":"Nurulhisham bin Yaakob","rpct":17.0},"geometry":{"type":"Polygon","coordinates":[[[100.1583,6.3739],[100.1466,6.3694],[100.1413,6.3701],[100.1632,6.3096],[100.1701,6.3184],[100.173,6.3135],[100.1857,6.3222],[100.1814,6.3371],[100.1855,6.3384],[100.1883,6.3329],[100.1918,6.3354],[100.19,6.3411],[100.2141,6.3568],[100.2137,6.3694],[100.1858,6.3706],[100.1869,6.3765],[100.1849,6.3788],[100.1814,6.3767],[100.1811,6.3875],[100.1778,6.389],[100.1739,6.3884],[100.1752,6.3853],[100.1583,6.3739]]]}},{"type":"Feature","properties":{"c":"N.15","n":"Sanglang","w":"PN","p":"PAS","cand":"Mohd Shukri bin Ramli","pct":62.1,"maj":3335,"nc":4,"tv":8226,"unc":false,"rw":"BN","rp":"UMNO","rcand":"Sharifudin bin Ahmad","rpct":21.6},"geometry":{"type":"MultiPolygon","coordinates":[[[[100.2086,6.3526],[100.19,6.3411],[100.1918,6.3354],[100.1883,6.3329],[100.1855,6.3384],[100.1814,6.3371],[100.1857,6.3222],[100.173,6.3135],[100.1701,6.3184],[100.1632,6.3096],[100.1817,6.2683],[100.1925,6.2533],[100.196,6.254],[100.2018,6.2659],[100.2039,6.2759],[100.2012,6.2816],[100.2043,6.2852],[100.2041,6.289],[100.218,6.2995],[100.2201,6.3072],[100.2264,6.3156],[100.22,6.3283],[100.2222,6.33],[100.2179,6.3331],[100.2086,6.3526]]]]}}]}