{"type":"FeatureCollection","features":[{"type":"Feature","properties":{"c":"N.01","n":"Penaga","w":"PN","p":"PAS","cand":"Mohd Yusni bin Mat Piah","pct":63.2,"maj":5537,"nc":2,"tv":20909,"unc":false,"rw":"BN","rp":"UMNO","rcand":"Mohd Naim bin Salleh","rpct":36.8},"geometry":{"type":"Polygon","coordinates":[[[100.34,5.5774],[100.3405,5.5697],[100.3476,5.5689],[100.3553,5.5616],[100.3613,5.5601],[100.3733,5.5343],[100.3751,5.5227],[100.3834,5.5264],[100.3825,5.5322],[100.3855,5.535],[100.4047,5.5371],[100.4063,5.5266],[100.4166,5.5226],[100.4201,5.524],[100.4197,5.5265],[100.4245,5.5324],[100.4226,5.5333],[100.4304,5.531],[100.4361,5.5506],[100.4361,5.5594],[100.4317,5.5654],[100.4248,5.5625],[100.4098,5.5663],[100.4042,5.5739],[100.3936,5.5795],[100.3874,5.5775],[100.3837,5.5849],[100.3793,5.5796],[100.3749,5.5804],[100.3725,5.5852],[100.3702,5.5852],[100.3664,5.5755],[100.3612,5.5735],[100.34,5.5774]]]}},{"type":"Feature","properties":{"c":"N.02","n":"Bertam","w":"BN","p":"UMNO","cand":"Reezal Merican bin Naina Merican","pct":56.2,"maj":2321,"nc":2,"tv":18585,"unc":false,"rw":"PN","rp":"BERSATU","rcand":"Khaliq Mehtab bin Mohd Ishaq","rpct":43.8},"geometry":{"type":"Polygon","coordinates":[[[100.3751,5.5227],[100.3775,5.4966],[100.3851,5.4965],[100.3991,5.5066],[100.4039,5.5022],[100.4114,5.5058],[100.43,5.504],[100.4351,5.5017],[100.435,5.4991],[100.4289,5.4977],[100.4315,5.496],[100.4414,5.4968],[100.4484,5.4941],[100.4502,5.5175],[100.4329,5.5164],[100.4343,5.5301],[100.4244,5.5342],[100.4178,5.5227],[100.4063,5.5266],[100.4047,5.5371],[100.3855,5.535],[100.3825,5.5322],[100.3834,5.5264],[100.3751,5.5227]]]}},{"type":"Feature","properties":{"c":"N.03","n":"Pinang Tunggal","w":"PN","p":"PAS","cand":"Bukhori bin Ghazali","pct":62.7,"maj":6928,"nc":2,"tv":27192,"unc":false,"rw":"PH","rp":"PKR","rcand":"Zainuddin bin Mohamed","rpct":37.3},"geometry":{"type":"Polygon","coordinates":[[[100.4348,5.5609],[100.4352,5.5427],[100.4304,5.531],[100.4345,5.5293],[100.4329,5.5164],[100.4502,5.5175],[100.4484,5.4941],[100.4517,5.4932],[100.4517,5.4971],[100.4574,5.4972],[100.4577,5.4884],[100.4776,5.4875],[100.4832,5.4952],[100.4896,5.4978],[100.4869,5.5019],[100.4917,5.5093],[100.504,5.5029],[100.499,5.485],[100.5041,5.4843],[100.5087,5.4929],[100.5214,5.4989],[100.5275,5.4943],[100.5292,5.5562],[100.5257,5.5494],[100.5223,5.559],[100.5144,5.5613],[100.509,5.559],[100.5048,5.5671],[100.4916,5.5667],[100.4871,5.5701],[100.4871,5.5614],[100.4853,5.5609],[100.4785,5.5652],[100.4743,5.5618],[100.4693,5.5654],[100.4597,5.5635],[100.4539,5.5677],[100.4518,5.5676],[100.4479,5.5608],[100.443,5.5672],[100.436,5.5647],[100.4348,5.5609]]]}},{"type":"Feature","properties":{"c":"N.04","n":"Permatang Berangan","w":"PN","p":"PAS","cand":"Mohd Sobri bin Saleh","pct":69.5,"maj":8949,"nc":2,"tv":22951,"unc":false,"rw":"BN","rp":"UMNO","rcand":"Nor Hafizah binti Othman","rpct":30.5},"geometry":{"type":"Polygon","coordinates":[[[100.5275,5.4943],[100.5214,5.4989],[100.5087,5.4929],[100.5041,5.4843],[100.499,5.485],[100.504,5.5029],[100.4917,5.5093],[100.4869,5.5019],[100.4896,5.4978],[100.4832,5.4952],[100.4776,5.4875],[100.4577,5.4884],[100.4574,5.4972],[100.4517,5.4971],[100.4514,5.4931],[100.4437,5.4965],[100.437,5.4965],[100.4379,5.4813],[100.4343,5.4746],[100.4366,5.4707],[100.4409,5.4708],[100.4412,5.4797],[100.4438,5.4802],[100.4475,5.476],[100.4528,5.4796],[100.4516,5.4739],[100.454,5.4724],[100.4538,5.4682],[100.4573,5.4692],[100.4712,5.4595],[100.4675,5.4573],[100.4613,5.4592],[100.4554,5.4522],[100.4531,5.4541],[100.4535,5.4514],[100.4561,5.451],[100.4526,5.4486],[100.453,5.4429],[100.4557,5.4422],[100.4568,5.4454],[100.4606,5.4456],[100.462,5.4395],[100.4663,5.438],[100.4693,5.4396],[100.4776,5.4325],[100.4834,5.4319],[100.488,5.4284],[100.4928,5.4295],[100.4985,5.4363],[100.5034,5.4333],[100.5122,5.4352],[100.5142,5.432],[100.5205,5.4333],[100.5224,5.4289],[100.5255,5.4279],[100.5275,5.4943]]]}},{"type":"Feature","properties":{"c":"N.05","n":"Sungai Dua","w":"PN","p":"PAS","cand":"Muhammad Fauzi bin Yusoff","pct":62.3,"maj":5509,"nc":2,"tv":22467,"unc":false,"rw":"BN","rp":"UMNO","rcand":"Shaik Hussein bin Mydin","rpct":37.7},"geometry":{"type":"Polygon","coordinates":[[[100.4039,5.5022],[100.4051,5.4979],[100.4082,5.4965],[100.4079,5.4938],[100.4139,5.4927],[100.4149,5.4855],[100.4192,5.4827],[100.4064,5.4744],[100.395,5.4723],[100.4,5.4498],[100.4054,5.4464],[100.4038,5.4432],[100.4053,5.439],[100.4095,5.4373],[100.41,5.435],[100.4078,5.4356],[100.4061,5.4329],[100.4092,5.4274],[100.4152,5.4346],[100.4207,5.4335],[100.4248,5.4295],[100.4283,5.4371],[100.4294,5.4318],[100.4325,5.4321],[100.435,5.4376],[100.4373,5.437],[100.4351,5.4321],[100.4379,5.4321],[100.4389,5.4381],[100.4427,5.4357],[100.4468,5.441],[100.4444,5.444],[100.4441,5.4394],[100.4405,5.4411],[100.4375,5.4396],[100.4372,5.4457],[100.4404,5.4442],[100.4391,5.4518],[100.4427,5.4532],[100.4451,5.4514],[100.443,5.4489],[100.4468,5.4496],[100.4482,5.4456],[100.4509,5.4471],[100.4528,5.4455],[100.4529,5.4491],[100.4561,5.451],[100.4535,5.4514],[100.4531,5.4541],[100.4554,5.4522],[100.4613,5.4592],[100.4709,5.4584],[100.4573,5.4692],[100.4538,5.4682],[100.454,5.4724],[100.4516,5.4739],[100.4528,5.4796],[100.4475,5.476],[100.4438,5.4802],[100.4412,5.4797],[100.442,5.472],[100.4366,5.4707],[100.4342,5.4755],[100.4379,5.4813],[100.437,5.4965],[100.4289,5.4974],[100.435,5.4991],[100.4351,5.5017],[100.4167,5.5059],[100.4039,5.5022]]]}},{"type":"Feature","properties":{"c":"N.06","n":"Telok Ayer Tawar","w":"PN","p":"BERSATU","cand":"Azmi bin Alang","pct":55.3,"maj":1947,"nc":2,"tv":18499,"unc":false,"rw":"PH","rp":"PKR","rcand":"Abdul Mohsein bin Mohd Shariff","rpct":44.7},"geometry":{"type":"Polygon","coordinates":[[[100.3775,5.4966],[100.3808,5.4609],[100.3796,5.4448],[100.3827,5.4429],[100.3941,5.4467],[100.3901,5.4515],[100.3933,5.4523],[100.394,5.4558],[100.3989,5.4565],[100.395,5.4723],[100.4064,5.4744],[100.4192,5.4827],[100.4149,5.4855],[100.4139,5.4927],[100.4079,5.4938],[100.4082,5.4965],[100.3991,5.5066],[100.3851,5.4965],[100.3775,5.4966]]]}},{"type":"Feature","properties":{"c":"N.07","n":"Sungai Puyu","w":"PH","p":"DAP","cand":"Phee Syn Tze","pct":90.5,"maj":21330,"nc":2,"tv":26346,"unc":false,"rw":"PN","rp":"PAS","rcand":"Teow Chin Siang (Andrew Teow)","rpct":9.5},"geometry":{"type":"Polygon","coordinates":[[[100.3989,5.4565],[100.394,5.4558],[100.3933,5.4523],[100.3901,5.4515],[100.3941,5.4467],[100.3827,5.4429],[100.3796,5.4448],[100.3779,5.4355],[100.3872,5.4353],[100.3835,5.4268],[100.3946,5.4258],[100.3966,5.4192],[100.4027,5.4184],[100.3997,5.4239],[100.4002,5.4286],[100.4092,5.4274],[100.4061,5.4329],[100.4078,5.4356],[100.41,5.435],[100.4042,5.441],[100.4054,5.4464],[100.4,5.4498],[100.3989,5.4565]]]}},{"type":"Feature","properties":{"c":"N.08","n":"Bagan Jermal","w":"PH","p":"DAP","cand":"Chee Yeeh Keen","pct":84.8,"maj":16149,"nc":2,"tv":23225,"unc":false,"rw":"PN","rp":"BERSATU","rcand":"Ong Chuan Jin (Cj Ong)","rpct":15.2},"geometry":{"type":"Polygon","coordinates":[[[100.3779,5.4355],[100.3703,5.413],[100.3928,5.4141],[100.3978,5.4058],[100.4029,5.4063],[100.404,5.4104],[100.3986,5.4142],[100.4027,5.4184],[100.3966,5.4192],[100.3946,5.4258],[100.3835,5.4268],[100.3872,5.4353],[100.3779,5.4355]]]}},{"type":"Feature","properties":{"c":"N.09","n":"Bagan Dalam","w":"PH","p":"DAP","cand":"Kumaran a/l Krishnan (Calvin)","pct":71.5,"maj":7542,"nc":4,"tv":14696,"unc":false,"rw":"PN","rp":"PAS","rcand":"Jayaraman a/l K Kunchu Kannu","rpct":20.2},"geometry":{"type":"Polygon","coordinates":[[[100.3703,5.413],[100.3636,5.3996],[100.3637,5.3946],[100.3688,5.39],[100.3694,5.3844],[100.375,5.388],[100.3777,5.396],[100.3911,5.3985],[100.3862,5.408],[100.3929,5.4133],[100.3847,5.4148],[100.3703,5.413]]]}},{"type":"Feature","properties":{"c":"N.10","n":"Seberang Jaya","w":"PN","p":"BERSATU","cand":"Izhar Shah bin Arif Shah","pct":56.7,"maj":4926,"nc":2,"tv":36828,"unc":false,"rw":"PH","rp":"PKR","rcand":"Johari bin Kassim","rpct":43.3},"geometry":{"type":"Polygon","coordinates":[[[100.3929,5.4133],[100.3877,5.4101],[100.3865,5.4057],[100.3909,5.4],[100.3905,5.397],[100.393,5.3978],[100.3944,5.3917],[100.3986,5.3889],[100.3945,5.3809],[100.4082,5.3737],[100.4057,5.3708],[100.4276,5.3624],[100.4407,5.3669],[100.4497,5.3659],[100.4481,5.3793],[100.4415,5.3855],[100.4442,5.3887],[100.4441,5.3929],[100.4398,5.3918],[100.436,5.4025],[100.4153,5.399],[100.4067,5.4036],[100.407,5.4103],[100.404,5.4104],[100.4029,5.4063],[100.3978,5.4058],[100.3929,5.4133]]]}},{"type":"Feature","properties":{"c":"N.11","n":"Permatang Pasir","w":"PN","p":"PAS","cand":"Amir Hamzah B Abdul Hashim @ Md Hashim","pct":56.5,"maj":3108,"nc":2,"tv":23944,"unc":false,"rw":"PH","rp":"AMANAH","rcand":"Muhammad Faiz bin Fadzil","rpct":43.5},"geometry":{"type":"Polygon","coordinates":[[[100.4092,5.4274],[100.4002,5.4286],[100.3997,5.4239],[100.4027,5.4179],[100.3987,5.4127],[100.407,5.4103],[100.4067,5.4036],[100.4097,5.4029],[100.4097,5.4005],[100.4183,5.3991],[100.436,5.4025],[100.4398,5.3918],[100.4441,5.3929],[100.4442,5.3887],[100.4415,5.3855],[100.4481,5.3793],[100.4495,5.3673],[100.4577,5.3683],[100.4602,5.3655],[100.4646,5.3757],[100.4626,5.387],[100.4655,5.4051],[100.4632,5.4078],[100.464,5.4118],[100.4615,5.4134],[100.4659,5.4235],[100.4616,5.4222],[100.4618,5.4204],[100.4576,5.4211],[100.4549,5.4177],[100.448,5.4199],[100.445,5.4216],[100.4449,5.4303],[100.4392,5.433],[100.4351,5.4321],[100.4373,5.437],[100.435,5.4376],[100.4307,5.4314],[100.4289,5.4366],[100.4268,5.4364],[100.4248,5.4295],[100.4207,5.4335],[100.4152,5.4346],[100.4092,5.4274]]]}},{"type":"Feature","properties":{"c":"N.12","n":"Penanti","w":"PN","p":"BERSATU","cand":"Zulkefli bin Bakar","pct":58.3,"maj":3575,"nc":2,"tv":21597,"unc":false,"rw":"PH","rp":"PKR","rcand":"Rosidi bin Hussain","rpct":41.7},"geometry":{"type":"Polygon","coordinates":[[[100.5255,5.4279],[100.5224,5.4289],[100.5205,5.4333],[100.5142,5.432],[100.5122,5.4352],[100.5034,5.4333],[100.4985,5.4363],[100.4928,5.4295],[100.487,5.4287],[100.4834,5.4319],[100.4776,5.4325],[100.4693,5.4396],[100.4663,5.438],[100.462,5.4395],[100.4606,5.4456],[100.4568,5.4454],[100.4557,5.4422],[100.453,5.4429],[100.4509,5.4471],[100.4485,5.4454],[100.4463,5.4475],[100.4468,5.4496],[100.443,5.4489],[100.4451,5.4514],[100.4427,5.4532],[100.4388,5.4511],[100.4404,5.4442],[100.4368,5.4451],[100.4375,5.4396],[100.4405,5.4411],[100.4441,5.4394],[100.4444,5.444],[100.4468,5.4419],[100.4427,5.4357],[100.4389,5.4381],[100.4395,5.4325],[100.4451,5.4297],[100.4451,5.4214],[100.4549,5.4177],[100.4576,5.4211],[100.4668,5.4224],[100.4615,5.4134],[100.464,5.4118],[100.4632,5.4078],[100.4655,5.4051],[100.4626,5.387],[100.4646,5.3779],[100.4628,5.367],[100.4675,5.3675],[100.4701,5.386],[100.4788,5.3843],[100.4882,5.3882],[100.5034,5.3772],[100.513,5.3768],[100.5154,5.3786],[100.5245,5.3743],[100.5255,5.4279]]]}},{"type":"Feature","properties":{"c":"N.13","n":"Berapit","w":"PH","p":"DAP","cand":"Heng Lee Lee","pct":94.4,"maj":18053,"nc":2,"tv":20313,"unc":false,"rw":"PN","rp":"GERAKAN","rcand":"Lee Kok Keong","rpct":5.6},"geometry":{"type":"Polygon","coordinates":[[[100.4602,5.3655],[100.4645,5.3624],[100.4661,5.3578],[100.4634,5.3571],[100.4635,5.3538],[100.4671,5.3455],[100.4681,5.3348],[100.476,5.3302],[100.4776,5.3346],[100.4821,5.3366],[100.4797,5.3424],[100.4823,5.3449],[100.4797,5.3486],[100.482,5.3551],[100.4738,5.3543],[100.4747,5.3583],[100.4724,5.356],[100.4675,5.3608],[100.4721,5.3653],[100.4719,5.3707],[100.4759,5.3741],[100.4738,5.3794],[100.4788,5.3843],[100.4701,5.386],[100.4675,5.3675],[100.4602,5.3655]]]}},{"type":"Feature","properties":{"c":"N.14","n":"Machang Bubuk","w":"PH","p":"PKR","cand":"Lee Khai Loon","pct":69.1,"maj":15922,"nc":2,"tv":41632,"unc":false,"rw":"PN","rp":"GERAKAN","rcand":"Andy Tan Hum Wei","rpct":30.9},"geometry":{"type":"Polygon","coordinates":[[[100.5245,5.3743],[100.5154,5.3786],[100.513,5.3768],[100.5034,5.3772],[100.4893,5.388],[100.4809,5.3859],[100.4738,5.3794],[100.4759,5.3741],[100.4719,5.3707],[100.4721,5.3653],[100.4675,5.3608],[100.4724,5.356],[100.4747,5.3583],[100.4738,5.3543],[100.482,5.3551],[100.4797,5.3486],[100.4822,5.3456],[100.4797,5.3424],[100.4818,5.3361],[100.4776,5.3346],[100.476,5.3302],[100.4681,5.3348],[100.4529,5.3377],[100.4478,5.3357],[100.4466,5.3425],[100.444,5.3365],[100.4464,5.3341],[100.4481,5.3238],[100.4557,5.3203],[100.4563,5.3171],[100.4615,5.3158],[100.4759,5.3015],[100.479,5.2925],[100.4904,5.2911],[100.5029,5.299],[100.5107,5.2966],[100.5177,5.299],[100.5228,5.2978],[100.5307,5.2911],[100.534,5.285],[100.5245,5.3743]]]}},{"type":"Feature","properties":{"c":"N.15","n":"Padang Lalang","w":"PH","p":"DAP","cand":"Daniel Gooi Zi Sen","pct":87.9,"maj":19448,"nc":3,"tv":25400,"unc":false,"rw":"PN","rp":"BERSATU","rcand":"Suresh a/l Devaraj Naidu","rpct":11.3},"geometry":{"type":"Polygon","coordinates":[[[100.4393,5.3663],[100.4382,5.357],[100.4354,5.3535],[100.4436,5.3502],[100.4394,5.3395],[100.446,5.333],[100.444,5.3365],[100.4466,5.3425],[100.4478,5.3357],[100.4529,5.3377],[100.4681,5.3348],[100.4671,5.3455],[100.4635,5.3538],[100.4634,5.3571],[100.4661,5.3578],[100.4645,5.3624],[100.4577,5.3683],[100.4393,5.3663]]]}},{"type":"Feature","properties":{"c":"N.16","n":"Perai","w":"PH","p":"DAP","cand":"Sundarajoo a/l Somu","pct":76.8,"maj":9139,"nc":4,"tv":13913,"unc":false,"rw":"PN","rp":"GERAKAN","rcand":"Sivasuntaram a/l Rajalinggam","rpct":11.1},"geometry":{"type":"Polygon","coordinates":[[[100.3694,5.3844],[100.3701,5.3824],[100.3727,5.3836],[100.3698,5.3808],[100.377,5.3736],[100.3812,5.3627],[100.3886,5.354],[100.3915,5.355],[100.4031,5.3756],[100.3945,5.3809],[100.3986,5.3889],[100.3944,5.3917],[100.393,5.3978],[100.3777,5.396],[100.375,5.388],[100.3694,5.3844]]]}},{"type":"Feature","properties":{"c":"N.17","n":"Bukit Tengah","w":"PH","p":"PKR","cand":"Gooi Hsiao Leung","pct":68.6,"maj":8697,"nc":2,"tv":23403,"unc":false,"rw":"PN","rp":"GERAKAN","rcand":"Baljit Singh a/l Jigiri Singh","rpct":31.4},"geometry":{"type":"Polygon","coordinates":[[[100.4031,5.3764],[100.3957,5.3613],[100.3886,5.354],[100.4058,5.34],[100.4034,5.3207],[100.4106,5.3129],[100.4181,5.2849],[100.43,5.2859],[100.436,5.276],[100.4422,5.2777],[100.4422,5.2844],[100.4488,5.2851],[100.4514,5.2891],[100.4546,5.2834],[100.4597,5.2867],[100.4685,5.2859],[100.4645,5.2918],[100.4679,5.2895],[100.4709,5.2931],[100.4708,5.2869],[100.4732,5.2898],[100.477,5.2894],[100.4787,5.2938],[100.4759,5.3015],[100.4615,5.3158],[100.4563,5.3171],[100.4557,5.3203],[100.4481,5.3238],[100.447,5.3315],[100.4394,5.3395],[100.4436,5.3502],[100.4354,5.3535],[100.4382,5.357],[100.4393,5.3663],[100.4276,5.3624],[100.4064,5.3704],[100.4082,5.3737],[100.4031,5.3764]]]}},{"type":"Feature","properties":{"c":"N.18","n":"Bukit Tambun","w":"PH","p":"PKR","cand":"Goh Choon Aik","pct":80.6,"maj":17175,"nc":3,"tv":27263,"unc":false,"rw":"PN","rp":"GERAKAN","rcand":"Tan Gia Wei","rpct":17.6},"geometry":{"type":"MultiPolygon","coordinates":[[[[100.4787,5.2938],[100.477,5.2894],[100.4732,5.2898],[100.4708,5.2869],[100.4709,5.2931],[100.4679,5.2895],[100.4645,5.2918],[100.4689,5.2872],[100.4679,5.2854],[100.4597,5.2867],[100.4536,5.2835],[100.4523,5.2891],[100.4488,5.2851],[100.4444,5.286],[100.4407,5.2768],[100.4342,5.2763],[100.4331,5.2831],[100.43,5.2859],[100.4194,5.2839],[100.4203,5.2806],[100.4061,5.2658],[100.4067,5.2627],[100.4117,5.2611],[100.4209,5.2384],[100.4249,5.2228],[100.4242,5.2165],[100.4306,5.2107],[100.4445,5.2138],[100.4531,5.2232],[100.4576,5.2238],[100.4583,5.2293],[100.4633,5.2322],[100.4665,5.2289],[100.4706,5.2292],[100.4691,5.2253],[100.4725,5.2248],[100.4697,5.2222],[100.4738,5.2223],[100.4724,5.2195],[100.4759,5.219],[100.4758,5.2158],[100.4784,5.2141],[100.4792,5.2175],[100.4835,5.2189],[100.4862,5.2171],[100.4869,5.2211],[100.4904,5.2203],[100.491,5.2237],[100.4985,5.2253],[100.5051,5.2226],[100.5024,5.2198],[100.5077,5.2169],[100.5155,5.2253],[100.5155,5.2311],[100.5185,5.2353],[100.515,5.2381],[100.5167,5.2425],[100.4969,5.2407],[100.4951,5.243],[100.501,5.25],[100.4816,5.2604],[100.4777,5.2805],[100.482,5.2916],[100.4787,5.2938]]],[[[100.3879,5.2646],[100.3844,5.2618],[100.3843,5.2567],[100.3909,5.262],[100.3914,5.2687],[100.3886,5.2695],[100.3879,5.2646]]],[[[100.3856,5.2802],[100.3859,5.267],[100.3883,5.2711],[100.3875,5.2861],[100.3856,5.2802]]]]}},{"type":"Feature","properties":{"c":"N.19","n":"Jawi","w":"PH","p":"DAP","cand":"H'ng Mooi Lye","pct":79.5,"maj":15319,"nc":2,"tv":25963,"unc":false,"rw":"PN","rp":"PAS","rcand":"Koh Tien Yew (Steven Koh)","rpct":20.5},"geometry":{"type":"Polygon","coordinates":[[[100.4306,5.2107],[100.4291,5.2069],[100.4232,5.2067],[100.4186,5.1803],[100.4201,5.1753],[100.4275,5.1689],[100.4299,5.1676],[100.4369,5.1741],[100.4461,5.1712],[100.4476,5.167],[100.4434,5.158],[100.4617,5.1596],[100.462,5.151],[100.465,5.1474],[100.4766,5.165],[100.4808,5.164],[100.4846,5.159],[100.4923,5.1608],[100.4991,5.153],[100.5003,5.1541],[100.5015,5.1588],[100.4991,5.1597],[100.5033,5.1645],[100.5059,5.1729],[100.5052,5.1769],[100.4997,5.1804],[100.496,5.1867],[100.4962,5.1964],[100.4992,5.1991],[100.4957,5.2035],[100.4971,5.2206],[100.4953,5.2239],[100.4898,5.2229],[100.4904,5.2203],[100.4869,5.2211],[100.4862,5.2171],[100.4835,5.2189],[100.4792,5.2175],[100.4784,5.2141],[100.4758,5.2158],[100.4759,5.219],[100.4724,5.2195],[100.4738,5.2223],[100.4697,5.2222],[100.4725,5.2248],[100.4691,5.2253],[100.4706,5.2292],[100.4665,5.2289],[100.4633,5.2322],[100.4583,5.2293],[100.4576,5.2238],[100.4531,5.2232],[100.4445,5.2138],[100.4306,5.2107]]]}},{"type":"Feature","properties":{"c":"N.20","n":"Sungai Bakap","w":"PN","p":"PAS","cand":"Nor Zamri bin Latiff (Abang Zam)","pct":52.7,"maj":1563,"nc":2,"tv":29303,"unc":false,"rw":"PH","rp":"PKR","rcand":"Nurhidayah binti Che Rose","rpct":47.3},"geometry":{"type":"Polygon","coordinates":[[[100.534,5.285],[100.5307,5.2911],[100.5228,5.2978],[100.5177,5.299],[100.5107,5.2966],[100.5029,5.299],[100.4904,5.2911],[100.482,5.2916],[100.4777,5.2805],[100.4816,5.2604],[100.501,5.25],[100.4951,5.243],[100.4969,5.2407],[100.5167,5.2425],[100.515,5.2381],[100.5185,5.2353],[100.5155,5.2311],[100.5155,5.2253],[100.5088,5.2174],[100.5024,5.2198],[100.5053,5.2214],[100.5043,5.2231],[100.4987,5.2253],[100.4953,5.2239],[100.4971,5.2206],[100.4957,5.2035],[100.4992,5.1991],[100.4962,5.1964],[100.496,5.1867],[100.4997,5.1804],[100.5052,5.1769],[100.5059,5.1729],[100.5033,5.1645],[100.4991,5.1597],[100.5015,5.1588],[100.4991,5.153],[100.5007,5.1481],[100.4973,5.1435],[100.5001,5.141],[100.5072,5.1451],[100.5391,5.1377],[100.5507,5.1428],[100.534,5.285]]]}},{"type":"Feature","properties":{"c":"N.21","n":"Sungai Acheh","w":"BN","p":"UMNO","cand":"Rashidi bin Zinol","pct":50.3,"maj":124,"nc":2,"tv":18988,"unc":false,"rw":"PN","rp":"BERSATU","rcand":"Zulkifli bin Ibrahim","rpct":49.7},"geometry":{"type":"Polygon","coordinates":[[[100.4984,5.1423],[100.5001,5.1511],[100.4923,5.1608],[100.4846,5.159],[100.4791,5.165],[100.475,5.1644],[100.465,5.1474],[100.462,5.151],[100.4617,5.1596],[100.4434,5.158],[100.4472,5.1706],[100.4369,5.1741],[100.4295,5.1655],[100.4231,5.1683],[100.4177,5.163],[100.4004,5.127],[100.4079,5.1228],[100.4921,5.1328],[100.4984,5.1423]]]}},{"type":"Feature","properties":{"c":"N.22","n":"Tanjong Bunga","w":"PH","p":"DAP","cand":"Zairil Khir Johari","pct":72.8,"maj":8827,"nc":3,"tv":18205,"unc":false,"rw":"PN","rp":"GERAKAN","rcand":"Hng Chee Wey","rpct":24.3},"geometry":{"type":"MultiPolygon","coordinates":[[[[100.3066,5.4508],[100.3094,5.4498],[100.3095,5.4452],[100.3139,5.4522],[100.314,5.4616],[100.3088,5.4621],[100.3084,5.4644],[100.2954,5.4653],[100.2916,5.4687],[100.2794,5.4672],[100.275,5.4776],[100.2624,5.4789],[100.2596,5.4819],[100.2546,5.4818],[100.2379,5.4653],[100.2427,5.4628],[100.2419,5.4569],[100.2398,5.4561],[100.2418,5.4517],[100.246,5.4492],[100.2516,5.4514],[100.2584,5.4488],[100.259,5.439],[100.2644,5.4418],[100.2763,5.4569],[100.2749,5.4513],[100.2772,5.4491],[100.2821,5.4509],[100.282,5.4537],[100.29,5.4532],[100.294,5.4581],[100.299,5.4578],[100.2993,5.4597],[100.307,5.4563],[100.3066,5.4508]]]]}},{"type":"Feature","properties":{"c":"N.23","n":"Air Putih","w":"PH","p":"DAP","cand":"Lim Guan Eng","pct":85.6,"maj":12668,"nc":5,"tv":43506,"unc":false,"rw":"PH","rp":"DAP","rcand":"Lim Guan Eng","rpct":85.6},"geometry":{"type":"Polygon","coordinates":[[[100.2418,5.4517],[100.2384,5.4449],[100.2438,5.427],[100.242,5.4197],[100.2427,5.4172],[100.2475,5.4186],[100.2478,5.4164],[100.2417,5.4146],[100.2431,5.4071],[100.2351,5.3958],[100.2409,5.3891],[100.2422,5.3818],[100.2443,5.3865],[100.2496,5.3829],[100.2481,5.3816],[100.2507,5.3784],[100.2539,5.3782],[100.257,5.381],[100.2536,5.3822],[100.2533,5.3862],[100.2618,5.3963],[100.2723,5.3992],[100.2833,5.4065],[100.2918,5.4054],[100.2983,5.4084],[100.2975,5.4102],[100.2938,5.4086],[100.2844,5.4158],[100.2857,5.4261],[100.2832,5.4297],[100.2803,5.4296],[100.2811,5.4398],[100.2776,5.4382],[100.2731,5.4419],[100.2762,5.4447],[100.2772,5.4491],[100.2749,5.4513],[100.2773,5.4571],[100.2613,5.439],[100.2588,5.4396],[100.2584,5.4488],[100.2516,5.4514],[100.246,5.4492],[100.2418,5.4517]]]}},{"type":"Feature","properties":{"c":"N.24","n":"Kebun Bunga","w":"PH","p":"PKR","cand":"Lee Boon Heng","pct":87.8,"maj":12955,"nc":3,"tv":16120,"unc":false,"rw":"PN","rp":"GERAKAN","rcand":"Tan Zhen Zune","rpct":7.5},"geometry":{"type":"Polygon","coordinates":[[[100.2772,5.4491],[100.2731,5.4419],[100.2776,5.4382],[100.2811,5.4398],[100.2803,5.4296],[100.2832,5.4297],[100.2857,5.4261],[100.2844,5.4158],[100.2938,5.4086],[100.2975,5.4102],[100.2983,5.4084],[100.3027,5.4087],[100.301,5.4205],[100.3034,5.4242],[100.298,5.4335],[100.2979,5.44],[100.3005,5.4418],[100.2999,5.4456],[100.303,5.4458],[100.3025,5.4531],[100.306,5.4517],[100.307,5.4563],[100.2993,5.4597],[100.299,5.4578],[100.294,5.4581],[100.29,5.4532],[100.282,5.4537],[100.2821,5.4509],[100.2772,5.4491]]]}},{"type":"Feature","properties":{"c":"N.25","n":"Pulau Tikus","w":"PH","p":"DAP","cand":"Joshua Woo Sze Zeng","pct":85.1,"maj":9769,"nc":3,"tv":13605,"unc":false,"rw":"PN","rp":"GERAKAN","rcand":"Dave Tang Ching Sern","rpct":13.3},"geometry":{"type":"Polygon","coordinates":[[[100.3064,5.4521],[100.3025,5.4531],[100.303,5.4458],[100.2999,5.4456],[100.298,5.4335],[100.3054,5.4192],[100.3162,5.4133],[100.3169,5.425],[100.3213,5.4299],[100.3093,5.4407],[100.3064,5.4521]]]}},{"type":"Feature","properties":{"c":"N.26","n":"Padang Kota","w":"PH","p":"DAP","cand":"Chow Kon Yeow","pct":87.8,"maj":7116,"nc":2,"tv":9406,"unc":false,"rw":"PN","rp":"GERAKAN","rcand":"H'ng Khoon Leng","rpct":12.2},"geometry":{"type":"Polygon","coordinates":[[[100.3173,5.4203],[100.3249,5.4164],[100.3305,5.4205],[100.3385,5.4151],[100.3415,5.4171],[100.3434,5.4146],[100.3454,5.4186],[100.3466,5.4173],[100.3447,5.4215],[100.331,5.4243],[100.3213,5.4299],[100.3169,5.425],[100.3173,5.4203]]]}},{"type":"Feature","properties":{"c":"N.27","n":"Pengkalan Kota","w":"PH","p":"DAP","cand":"Wong Yuee Harng","pct":94.6,"maj":14076,"nc":2,"tv":15766,"unc":false,"rw":"PN","rp":"GERAKAN","rcand":"Suthakaran a/l Subramaniam (S. Karan Mayan)","rpct":5.4},"geometry":{"type":"Polygon","coordinates":[[[100.3385,5.4151],[100.336,5.4132],[100.3286,5.4144],[100.3265,5.4049],[100.3342,5.4017],[100.3381,5.4057],[100.3363,5.407],[100.3376,5.4108],[100.3438,5.4135],[100.3415,5.4171],[100.3385,5.4151]]]}},{"type":"Feature","properties":{"c":"N.28","n":"Komtar","w":"PH","p":"DAP","cand":"Teh Lai Heng","pct":86.6,"maj":7844,"nc":2,"tv":10714,"unc":false,"rw":"PN","rp":"BERSATU","rcand":"Cheah Kim Huat","rpct":13.4},"geometry":{"type":"Polygon","coordinates":[[[100.3162,5.4133],[100.324,5.4129],[100.3261,5.4048],[100.3286,5.4144],[100.336,5.4132],[100.3385,5.4151],[100.3305,5.4205],[100.3249,5.4164],[100.3173,5.4203],[100.3162,5.4133]]]}},{"type":"Feature","properties":{"c":"N.29","n":"Datok Keramat","w":"PH","p":"DAP","cand":"Jagdeep Singh Deo a/l Karpal Singh","pct":72.6,"maj":8344,"nc":2,"tv":18452,"unc":false,"rw":"PN","rp":"GERAKAN","rcand":"Heng See Lin","rpct":27.4},"geometry":{"type":"Polygon","coordinates":[[[100.3027,5.4087],[100.3042,5.4026],[100.3157,5.4042],[100.3186,5.4023],[100.3222,5.4041],[100.3161,5.4107],[100.3237,5.4086],[100.3245,5.4114],[100.3133,5.414],[100.3037,5.4222],[100.301,5.4205],[100.3027,5.4087]]]}},{"type":"Feature","properties":{"c":"N.30","n":"Sungai Pinang","w":"PH","p":"DAP","cand":"Lim Siew Khim","pct":65.1,"maj":8288,"nc":4,"tv":24608,"unc":false,"rw":"PN","rp":"GERAKAN","rcand":"Ng Fook On","rpct":31.4},"geometry":{"type":"Polygon","coordinates":[[[100.3265,5.4049],[100.3256,5.4087],[100.3161,5.4107],[100.3222,5.4041],[100.3186,5.4023],[100.3157,5.4042],[100.315,5.4001],[100.3192,5.3978],[100.3133,5.392],[100.3079,5.3807],[100.3178,5.3796],[100.317,5.3835],[100.3203,5.3906],[100.322,5.3888],[100.3331,5.401],[100.3265,5.4049]]]}},{"type":"Feature","properties":{"c":"N.31","n":"Batu Lancang","w":"PH","p":"DAP","cand":"Ong Ah Teong","pct":92.1,"maj":19931,"nc":2,"tv":23661,"unc":false,"rw":"PN","rp":"GERAKAN","rcand":"Mohd Aswaad bin Jaafar","rpct":7.9},"geometry":{"type":"Polygon","coordinates":[[[100.3042,5.4026],[100.3025,5.3916],[100.3079,5.3802],[100.3133,5.392],[100.3192,5.3978],[100.315,5.4001],[100.3154,5.4038],[100.3042,5.4026]]]}},{"type":"Feature","properties":{"c":"N.32","n":"Seri Delima","w":"PH","p":"DAP","cand":"Connie Tan Hooi Peng","pct":80.6,"maj":12434,"nc":2,"tv":20334,"unc":false,"rw":"PN","rp":"BERSATU","rcand":"Mohan a/l Apparoo","rpct":19.4},"geometry":{"type":"Polygon","coordinates":[[[100.3079,5.3807],[100.3025,5.3916],[100.3038,5.3993],[100.297,5.4013],[100.2923,5.3984],[100.2909,5.3962],[100.2929,5.3926],[100.2884,5.3871],[100.2981,5.3867],[100.2986,5.3744],[100.303,5.3693],[100.31,5.3696],[100.3109,5.3636],[100.3137,5.3623],[100.3132,5.3573],[100.3169,5.3618],[100.3142,5.366],[100.3158,5.3791],[100.3178,5.3796],[100.3079,5.3807]]]}},{"type":"Feature","properties":{"c":"N.33","n":"Air Itam","w":"PH","p":"DAP","cand":"Joseph Ng Soon Siang","pct":79.2,"maj":9189,"nc":2,"tv":15723,"unc":false,"rw":"PN","rp":"GERAKAN","rcand":"Cheang Chee Gooi","rpct":20.8},"geometry":{"type":"Polygon","coordinates":[[[100.2747,5.4011],[100.2727,5.3961],[100.2884,5.3945],[100.297,5.4013],[100.3038,5.3993],[100.3042,5.4026],[100.3027,5.4087],[100.2996,5.4086],[100.2918,5.4054],[100.2833,5.4065],[100.2747,5.4011]]]}},{"type":"Feature","properties":{"c":"N.34","n":"Paya Terubong","w":"PH","p":"DAP","cand":"Wong Hon Wai","pct":91.6,"maj":36802,"nc":2,"tv":44258,"unc":false,"rw":"PN","rp":"GERAKAN","rcand":"Andrew Ooi Ghee Oon","rpct":8.4},"geometry":{"type":"Polygon","coordinates":[[[100.2553,5.3824],[100.2583,5.3822],[100.257,5.3794],[100.2589,5.3777],[100.2553,5.3695],[100.2586,5.3675],[100.2588,5.3536],[100.2631,5.352],[100.2638,5.347],[100.2702,5.3387],[100.2747,5.3368],[100.2769,5.3314],[100.2794,5.3319],[100.2792,5.3374],[100.2828,5.3413],[100.2817,5.3438],[100.2879,5.3409],[100.2923,5.3459],[100.2928,5.3576],[100.2883,5.3586],[100.292,5.3629],[100.2924,5.3671],[100.296,5.3663],[100.2968,5.3721],[100.2934,5.3734],[100.2949,5.3772],[100.2982,5.3779],[100.297,5.3812],[100.2988,5.3858],[100.2884,5.3871],[100.2929,5.3926],[100.2919,5.3962],[100.2856,5.3944],[100.277,5.3969],[100.2756,5.395],[100.2727,5.3961],[100.2739,5.4011],[100.2618,5.3963],[100.2533,5.3862],[100.2536,5.3822],[100.2553,5.3824]]]}},{"type":"Feature","properties":{"c":"N.35","n":"Batu Uban","w":"PH","p":"PKR","cand":"Kumaresan a/l Aramugam","pct":76.8,"maj":16708,"nc":3,"tv":29641,"unc":false,"rw":"PN","rp":"GERAKAN","rcand":"Mok Kok On","rpct":20.5},"geometry":{"type":"Polygon","coordinates":[[[100.2982,5.3779],[100.2949,5.3772],[100.2934,5.3734],[100.2968,5.3721],[100.296,5.3663],[100.2924,5.3671],[100.292,5.3629],[100.2883,5.3586],[100.2928,5.3576],[100.2923,5.3459],[100.2879,5.3409],[100.2817,5.3438],[100.2828,5.3413],[100.2792,5.3374],[100.2794,5.3319],[100.295,5.3337],[100.2981,5.3385],[100.2983,5.3441],[100.3002,5.3431],[100.3039,5.348],[100.3087,5.347],[100.3073,5.3434],[100.3122,5.3423],[100.3167,5.3594],[100.3154,5.3606],[100.3127,5.3577],[100.3137,5.3623],[100.3109,5.3636],[100.31,5.3696],[100.303,5.3693],[100.2982,5.3779]]]}},{"type":"Feature","properties":{"c":"N.36","n":"Pantai Jerejak","w":"PH","p":"PKR","cand":"Fahmi bin Zainol","pct":69.9,"maj":8597,"nc":4,"tv":20183,"unc":false,"rw":"PN","rp":"GERAKAN","rcand":"Oh Tong Keong","rpct":27.3},"geometry":{"type":"MultiPolygon","coordinates":[[[[100.3134,5.3257],[100.3071,5.3121],[100.3095,5.301],[100.3136,5.3054],[100.3132,5.3122],[100.3252,5.3178],[100.3271,5.3261],[100.3237,5.3358],[100.3134,5.3257]]],[[[100.2794,5.3319],[100.2779,5.3292],[100.2814,5.3286],[100.2811,5.322],[100.2777,5.3211],[100.2926,5.3157],[100.2976,5.3046],[100.3003,5.316],[100.3101,5.3329],[100.3114,5.3412],[100.3073,5.3434],[100.3087,5.347],[100.3039,5.348],[100.3002,5.3431],[100.2983,5.3441],[100.2981,5.3385],[100.295,5.3337],[100.2794,5.3319]]]]}},{"type":"Feature","properties":{"c":"N.37","n":"Batu Maung","w":"PH","p":"PKR","cand":"Mohamad bin Abdul Hamid","pct":54.6,"maj":3221,"nc":2,"tv":34657,"unc":false,"rw":"PN","rp":"BERSATU","rcand":"Azahari bin Aris","rpct":45.4},"geometry":{"type":"Polygon","coordinates":[[[100.2769,5.3314],[100.2729,5.33],[100.2715,5.324],[100.2666,5.3266],[100.2581,5.3245],[100.2596,5.3227],[100.2554,5.3145],[100.2634,5.3133],[100.2641,5.3085],[100.2687,5.3061],[100.2693,5.303],[100.2749,5.3012],[100.2713,5.297],[100.2655,5.2965],[100.2549,5.2819],[100.2689,5.2725],[100.2754,5.2577],[100.2808,5.2572],[100.2838,5.2598],[100.283,5.2706],[100.2909,5.2794],[100.2907,5.2866],[100.2976,5.3046],[100.2926,5.3157],[100.2777,5.3211],[100.2811,5.322],[100.2814,5.3286],[100.2779,5.3292],[100.2794,5.3319],[100.2769,5.3314]]]}},{"type":"Feature","properties":{"c":"N.38","n":"Bayan Lepas","w":"PH","p":"AMANAH","cand":"Azrul Mahathir bin Aziz","pct":53.3,"maj":1889,"nc":2,"tv":29035,"unc":false,"rw":"PN","rp":"GERAKAN","rcand":"Dominic Lau Hoe Chai","rpct":46.7},"geometry":{"type":"Polygon","coordinates":[[[100.2588,5.3536],[100.2508,5.3515],[100.2485,5.3416],[100.2505,5.3402],[100.2469,5.3392],[100.2392,5.326],[100.2338,5.324],[100.2354,5.3206],[100.2326,5.317],[100.2272,5.3165],[100.2262,5.313],[100.2211,5.3118],[100.2159,5.3016],[100.2086,5.2994],[100.201,5.2919],[100.1938,5.2936],[100.1947,5.2984],[100.1894,5.3001],[100.1888,5.3051],[100.1828,5.3046],[100.1857,5.2968],[100.1777,5.2827],[100.185,5.2668],[100.1882,5.2804],[100.1982,5.2819],[100.2068,5.2787],[100.2097,5.2817],[100.2164,5.2827],[100.2216,5.2801],[100.2253,5.2876],[100.2379,5.2838],[100.2448,5.2734],[100.2474,5.275],[100.2479,5.2792],[100.2555,5.2806],[100.2655,5.2965],[100.2713,5.297],[100.2749,5.3012],[100.2693,5.303],[100.2687,5.3061],[100.2641,5.3085],[100.2634,5.3133],[100.2554,5.3145],[100.2596,5.3227],[100.2581,5.3245],[100.2666,5.3266],[100.2715,5.324],[100.2729,5.33],[100.2769,5.3314],[100.2747,5.3368],[100.2702,5.3387],[100.2638,5.347],[100.2631,5.352],[100.2588,5.3536]]]}},{"type":"Feature","properties":{"c":"N.39","n":"Pulau Betong","w":"PN","p":"PAS","cand":"Mohamad Shukor bin Zakariah","pct":52.9,"maj":1051,"nc":2,"tv":18017,"unc":false,"rw":"PH","rp":"PKR","rcand":"Mohd Tuah bin Ismail","rpct":47.1},"geometry":{"type":"Polygon","coordinates":[[[100.2351,5.3958],[100.228,5.3896],[100.2286,5.385],[100.2254,5.3797],[100.2161,5.374],[100.2168,5.3693],[100.2209,5.3689],[100.2182,5.365],[100.2165,5.3665],[100.2126,5.3645],[100.215,5.3616],[100.2108,5.3448],[100.202,5.347],[100.193,5.3455],[100.1948,5.3385],[100.1961,5.3392],[100.1974,5.311],[100.1946,5.3068],[100.1888,5.3088],[100.185,5.3063],[100.1888,5.3051],[100.1894,5.3001],[100.1942,5.2991],[100.1933,5.2942],[100.1984,5.2911],[100.2086,5.2994],[100.2159,5.3016],[100.217,5.3067],[100.2234,5.3136],[100.2262,5.313],[100.2272,5.3165],[100.2326,5.317],[100.2354,5.3206],[100.2338,5.324],[100.2392,5.326],[100.2469,5.3392],[100.2505,5.3402],[100.2485,5.3416],[100.2508,5.3515],[100.2588,5.3536],[100.2586,5.3675],[100.2553,5.3695],[100.259,5.3757],[100.257,5.3794],[100.2583,5.3822],[100.2553,5.3824],[100.257,5.381],[100.2549,5.3784],[100.2507,5.3784],[100.2488,5.3838],[100.2439,5.3865],[100.2422,5.3818],[100.2409,5.3891],[100.2351,5.3958]]]}},{"type":"Feature","properties":{"c":"N.40","n":"Telok Bahang","w":"PN","p":"BERSATU","cand":"Muhamad bin Kasim","pct":53.5,"maj":944,"nc":2,"tv":13546,"unc":false,"rw":"BN","rp":"UMNO","rcand":"Ahmad Zaki Shah bin Shah Headan","rpct":46.5},"geometry":{"type":"Polygon","coordinates":[[[100.2379,5.4653],[100.2313,5.4632],[100.2222,5.4651],[100.218,5.4612],[100.2091,5.4588],[100.2026,5.463],[100.204,5.4674],[100.1982,5.4677],[100.1958,5.4727],[100.1895,5.47],[100.1865,5.4712],[100.1854,5.4783],[100.1757,5.4738],[100.1759,5.4703],[100.182,5.4651],[100.184,5.4543],[100.1778,5.4444],[100.1807,5.4427],[100.1808,5.4383],[100.177,5.4337],[100.188,5.4311],[100.1886,5.4244],[100.1968,5.4197],[100.1939,5.4051],[100.1915,5.4031],[100.1925,5.392],[100.1882,5.373],[100.193,5.3455],[100.202,5.347],[100.2108,5.3448],[100.215,5.3616],[100.2126,5.3645],[100.2165,5.3665],[100.2182,5.365],[100.2209,5.3689],[100.2168,5.3693],[100.2161,5.374],[100.2254,5.3797],[100.2303,5.3931],[100.2351,5.3958],[100.2425,5.4055],[100.2417,5.4146],[100.2478,5.4164],[100.2475,5.4186],[100.2427,5.4172],[100.242,5.4197],[100.2438,5.427],[100.2384,5.4449],[100.2423,5.4527],[100.2398,5.4561],[100.2419,5.4569],[100.2427,5.4628],[100.2379,5.4653]]]}}]}