{"type":"FeatureCollection","features":[{"type":"Feature","properties":{"c":"N.01","n":"Chennah","w":"BN","p":"MCA","cand":"Siow Kong Choon","pct":53.2,"maj":688,"nc":2,"tv":10764,"unc":false,"rw":"PH","rp":"DAP","rcand":"Anthony Loke Siew Fook","rpct":46.8},"geometry":{"type":"Polygon","coordinates":[[[101.97,3.2735],[101.9613,3.2752],[101.9488,3.2721],[101.9435,3.2844],[101.936,3.2884],[101.9323,3.2878],[101.9293,3.2725],[101.9095,3.2594],[101.9258,3.2596],[101.9278,3.2538],[101.9316,3.254],[101.934,3.2503],[101.9314,3.244],[101.9346,3.2382],[101.9392,3.2363],[101.9473,3.2188],[101.9476,3.2074],[101.945,3.2041],[101.9473,3.1912],[101.9404,3.1857],[101.9504,3.16],[101.9564,3.1563],[101.9572,3.1457],[101.9641,3.1395],[101.9625,3.1248],[101.9588,3.1167],[101.9548,3.1131],[101.9482,3.1122],[101.9488,3.102],[101.9553,3.095],[101.9579,3.0808],[101.9622,3.078],[101.9588,3.0614],[101.9656,3.0558],[101.9641,3.0509],[101.9674,3.0439],[101.9682,3.0259],[101.9601,3.0245],[101.9551,3.0261],[101.9445,3.0161],[101.9396,3.0155],[101.9398,3.0101],[101.9433,3.0064],[101.939,2.9985],[101.9308,2.9985],[101.9282,2.9778],[101.9243,2.9745],[101.9234,2.9676],[101.9247,2.9655],[101.9361,2.9638],[101.9384,2.9586],[101.9437,2.9603],[101.9499,2.9586],[101.9484,2.9486],[101.9652,2.946],[101.9755,2.9401],[101.9861,2.9284],[101.9983,2.9255],[102.012,2.9308],[102.0243,2.93],[102.0254,2.9331],[102.0268,2.9299],[102.032,2.9277],[102.0372,2.9291],[102.0367,2.9339],[102.0466,2.9414],[102.0615,2.9433],[102.0587,2.9498],[102.0627,2.9654],[102.0609,2.9668],[102.057,2.9642],[102.0593,2.9696],[102.0516,2.975],[102.0497,2.982],[102.0549,2.9841],[102.0572,2.9899],[102.0842,2.9976],[102.0904,2.9937],[102.0961,2.9943],[102.1022,2.9917],[102.1043,2.9934],[102.1032,2.9959],[102.1056,2.9946],[102.1061,2.9977],[102.1088,2.9972],[102.1154,3.019],[102.1175,3.0176],[102.1181,3.0207],[102.1246,3.026],[102.1302,3.026],[102.1316,3.0283],[102.1371,3.026],[102.1416,3.0285],[102.1458,3.0251],[102.1482,3.0316],[102.1558,3.0388],[102.1618,3.0364],[102.1636,3.0391],[102.1618,3.0413],[102.1704,3.0502],[102.1713,3.0546],[102.1664,3.0595],[102.1678,3.0677],[102.1721,3.0679],[102.171,3.0717],[102.1765,3.0733],[102.1767,3.0764],[102.1835,3.0765],[102.195,3.0817],[102.1954,3.0798],[102.1977,3.081],[102.1999,3.0783],[102.204,3.0787],[102.2052,3.076],[102.2092,3.0779],[102.2136,3.0731],[102.2179,3.0744],[102.2228,3.0659],[102.2304,3.0671],[102.2314,3.0696],[102.2395,3.0698],[102.241,3.0723],[102.2389,3.0801],[102.241,3.0793],[102.2431,3.0847],[102.2422,3.0865],[102.2368,3.0863],[102.2343,3.0949],[102.2459,3.1079],[102.2422,3.1203],[102.2436,3.124],[102.2487,3.1257],[102.2466,3.1424],[102.2481,3.1499],[102.1546,3.1781],[102.1408,3.1964],[102.1269,3.1927],[102.1217,3.1983],[102.1154,3.1979],[102.1139,3.1882],[102.0963,3.1919],[102.0754,3.1766],[102.0758,3.1647],[102.0552,3.1669],[102.0522,3.1983],[102.0429,3.2248],[102.0089,3.2262],[101.973,3.243],[101.9771,3.2524],[101.97,3.2735]]]}},{"type":"Feature","properties":{"c":"N.02","n":"Pertang","w":"BN","p":"UMNO","cand":"Jalaluddin bin Alias","pct":68.1,"maj":3719,"nc":3,"tv":9272,"unc":false,"rw":"PH","rp":"PKR","rcand":"Mohd Umry bin Abdul Khois","rpct":28.0},"geometry":{"type":"Polygon","coordinates":[[[102.2481,3.1499],[102.2466,3.1424],[102.2487,3.1257],[102.2436,3.124],[102.2422,3.1203],[102.2459,3.1079],[102.2343,3.0949],[102.2368,3.0863],[102.2422,3.0865],[102.2431,3.0847],[102.241,3.0793],[102.2389,3.0801],[102.241,3.0723],[102.2395,3.0698],[102.2314,3.0696],[102.2304,3.0671],[102.2228,3.0659],[102.2179,3.0744],[102.2136,3.0731],[102.2092,3.0779],[102.2052,3.076],[102.204,3.0787],[102.1999,3.0783],[102.1977,3.081],[102.1954,3.0798],[102.195,3.0817],[102.1835,3.0765],[102.1767,3.0764],[102.1765,3.0733],[102.171,3.0717],[102.1721,3.0679],[102.1678,3.0677],[102.1664,3.0595],[102.1713,3.0546],[102.1704,3.0502],[102.1618,3.0413],[102.1636,3.0391],[102.1618,3.0364],[102.1558,3.0388],[102.1482,3.0316],[102.1458,3.0251],[102.1416,3.0285],[102.1383,3.0274],[102.1376,2.9776],[102.1418,2.966],[102.1497,2.9669],[102.1532,2.9702],[102.1555,2.9662],[102.1525,2.9637],[102.1491,2.9381],[102.1361,2.9302],[102.1361,2.9273],[102.1373,2.9219],[102.1477,2.9107],[102.1538,2.8954],[102.1706,2.9018],[102.1732,2.8988],[102.1892,2.8929],[102.197,2.9021],[102.1979,2.9079],[102.2085,2.9102],[102.2248,2.9022],[102.2318,2.9063],[102.2373,2.9024],[102.2418,2.9027],[102.2378,2.9169],[102.2397,2.9242],[102.2486,2.9233],[102.2495,2.9279],[102.2626,2.9424],[102.2621,2.9457],[102.2722,2.954],[102.3531,2.9588],[102.3441,2.9753],[102.3448,2.981],[102.3391,3.0031],[102.34,3.0185],[102.3445,3.0239],[102.3449,3.034],[102.3381,3.0363],[102.3368,3.0498],[102.3282,3.0558],[102.3286,3.0658],[102.323,3.0811],[102.3089,3.0873],[102.3175,3.1019],[102.3089,3.1086],[102.3074,3.1133],[102.3017,3.1138],[102.2925,3.1332],[102.2863,3.1382],[102.2481,3.1499]]]}},{"type":"Feature","properties":{"c":"N.03","n":"Sungai Lui","w":"BN","p":"UMNO","cand":"Mohd Razi bin Mohd Ali","pct":78.3,"maj":8466,"nc":3,"tv":14397,"unc":false,"rw":"PH","rp":"PKR","rcand":"Zainal Fikri bin Abd Kadir","rpct":19.5},"geometry":{"type":"Polygon","coordinates":[[[102.323,3.1314],[102.2863,3.1382],[102.2925,3.1332],[102.3017,3.1138],[102.3074,3.1133],[102.3089,3.1086],[102.3175,3.1019],[102.3089,3.0873],[102.323,3.0811],[102.3286,3.0658],[102.3282,3.0558],[102.3368,3.0498],[102.3381,3.0363],[102.3449,3.034],[102.3445,3.0239],[102.34,3.0185],[102.3391,3.0031],[102.3448,2.981],[102.3441,2.9753],[102.3531,2.9588],[102.2722,2.954],[102.2621,2.9457],[102.2626,2.9424],[102.2675,2.9352],[102.2718,2.9405],[102.2795,2.9318],[102.2954,2.9228],[102.2974,2.9288],[102.3176,2.9241],[102.3138,2.9081],[102.3377,2.908],[102.3587,2.9186],[102.3857,2.905],[102.3851,2.9106],[102.3913,2.9146],[102.3947,2.9224],[102.4098,2.92],[102.41,2.9064],[102.4056,2.9062],[102.4056,2.8977],[102.4098,2.896],[102.4097,2.8906],[102.4056,2.8924],[102.4021,2.8892],[102.4021,2.8873],[102.4097,2.8867],[102.4089,2.8468],[102.4234,2.8466],[102.4264,2.852],[102.4293,2.852],[102.4449,2.8651],[102.4518,2.8622],[102.4578,2.8772],[102.4557,2.8815],[102.4563,2.8924],[102.4609,2.8955],[102.4603,2.9028],[102.4627,2.9061],[102.4606,2.9074],[102.4625,2.9104],[102.4548,2.9159],[102.4557,2.9177],[102.4521,2.9177],[102.4516,2.925],[102.4562,2.9284],[102.4558,2.9352],[102.468,2.9366],[102.468,2.9388],[102.4765,2.9369],[102.4783,2.9407],[102.4836,2.9432],[102.4824,2.9454],[102.4851,2.9509],[102.4833,2.9525],[102.4881,2.96],[102.4857,2.9608],[102.4841,2.9657],[102.4878,2.9682],[102.4855,2.9705],[102.4864,2.974],[102.4832,2.9737],[102.4803,2.9778],[102.4761,2.9787],[102.4764,2.9858],[102.4712,2.994],[102.4733,2.9962],[102.4688,2.9997],[102.4688,3.0066],[102.4705,3.0069],[102.468,3.0113],[102.4659,3.0106],[102.4683,3.0184],[102.388,3.1181],[102.323,3.1314]]]}},{"type":"Feature","properties":{"c":"N.04","n":"Klawang","w":"PN","p":"WAWASAN","cand":"Danni Rais","pct":53.9,"maj":1317,"nc":3,"tv":9852,"unc":false,"rw":"PH","rp":"AMANAH","rcand":"Bakri bin Sawir","rpct":40.5},"geometry":{"type":"Polygon","coordinates":[[[101.9823,2.931],[101.9818,2.9218],[101.9901,2.9161],[101.9813,2.9057],[101.9829,2.8981],[101.987,2.8953],[101.9866,2.8853],[101.9834,2.8801],[101.9898,2.8709],[101.989,2.8657],[101.9958,2.8504],[101.9997,2.8505],[101.9998,2.8475],[102.0031,2.8481],[102.0083,2.8424],[102.0142,2.8401],[102.0195,2.8435],[102.0224,2.8425],[102.0235,2.8336],[102.033,2.8312],[102.0356,2.8283],[102.0424,2.8366],[102.0462,2.8326],[102.052,2.8326],[102.0516,2.8348],[102.062,2.8387],[102.0651,2.8426],[102.0676,2.8409],[102.0668,2.8329],[102.0782,2.8346],[102.0844,2.8442],[102.0957,2.848],[102.0937,2.8543],[102.0984,2.8653],[102.1071,2.8684],[102.1067,2.875],[102.109,2.8782],[102.1284,2.8914],[102.128,2.8954],[102.1422,2.8978],[102.1446,2.8937],[102.1538,2.8954],[102.1477,2.9107],[102.1373,2.9219],[102.1361,2.9273],[102.1361,2.9302],[102.1491,2.9381],[102.1525,2.9637],[102.1555,2.9662],[102.1532,2.9702],[102.1497,2.9669],[102.1418,2.966],[102.1376,2.9776],[102.139,3.0266],[102.1316,3.0283],[102.1302,3.026],[102.1254,3.0265],[102.1181,3.0207],[102.1175,3.0176],[102.1154,3.019],[102.1088,2.9972],[102.1061,2.9977],[102.1056,2.9946],[102.1032,2.9959],[102.1043,2.9934],[102.1022,2.9917],[102.0961,2.9943],[102.0904,2.9937],[102.0842,2.9976],[102.0818,2.9955],[102.0752,2.996],[102.0572,2.9899],[102.0549,2.9841],[102.0497,2.982],[102.0516,2.975],[102.0593,2.9696],[102.057,2.9642],[102.0609,2.9668],[102.0627,2.9654],[102.0587,2.9498],[102.0615,2.9433],[102.0466,2.9414],[102.0367,2.9339],[102.0372,2.9291],[102.032,2.9277],[102.0268,2.9299],[102.0254,2.9331],[102.0243,2.93],[102.012,2.9308],[101.9983,2.9255],[101.9823,2.931]]]}},{"type":"Feature","properties":{"c":"N.05","n":"Serting","w":"PN","p":"PAS","cand":"Mohd Fairuz bin Mohd Isa","pct":76.1,"maj":12115,"nc":3,"tv":21837,"unc":false,"rw":"PH","rp":"AMANAH","rcand":"Yaacob bin Mahmood","rpct":20.6},"geometry":{"type":"Polygon","coordinates":[[[102.4683,3.0184],[102.4659,3.0106],[102.468,3.0113],[102.4705,3.0069],[102.4688,3.0066],[102.4688,2.9997],[102.4733,2.9962],[102.4712,2.994],[102.4764,2.9858],[102.4761,2.9787],[102.4803,2.9778],[102.4832,2.9737],[102.4864,2.974],[102.4855,2.9705],[102.4878,2.9682],[102.4841,2.9657],[102.4857,2.9608],[102.4881,2.96],[102.4833,2.9525],[102.4851,2.9509],[102.4824,2.9454],[102.4836,2.9432],[102.4783,2.9407],[102.4765,2.9369],[102.468,2.9388],[102.468,2.9366],[102.4558,2.9352],[102.4562,2.9284],[102.4516,2.925],[102.4521,2.9177],[102.4557,2.9177],[102.4548,2.9159],[102.4625,2.9104],[102.4606,2.9074],[102.4627,2.9061],[102.4603,2.9028],[102.4609,2.8955],[102.4563,2.8924],[102.4557,2.8815],[102.4578,2.8772],[102.4518,2.8622],[102.4449,2.8651],[102.4293,2.852],[102.4264,2.852],[102.4234,2.8466],[102.4089,2.8468],[102.4097,2.8867],[102.4021,2.8873],[102.404,2.892],[102.4097,2.8906],[102.4098,2.896],[102.4056,2.8977],[102.4056,2.9062],[102.41,2.9064],[102.4098,2.92],[102.4082,2.9208],[102.3947,2.9224],[102.3913,2.9146],[102.3851,2.9106],[102.3857,2.905],[102.3587,2.9186],[102.3377,2.908],[102.3138,2.9081],[102.3176,2.9241],[102.2974,2.9288],[102.2954,2.9228],[102.2795,2.9318],[102.2718,2.9405],[102.2675,2.9352],[102.2626,2.9424],[102.2495,2.9279],[102.2486,2.9233],[102.2397,2.9242],[102.2378,2.9169],[102.2418,2.9027],[102.2373,2.9024],[102.2517,2.897],[102.2521,2.8942],[102.2567,2.8928],[102.2618,2.8808],[102.2698,2.8772],[102.2772,2.8689],[102.2822,2.8705],[102.2933,2.8627],[102.2955,2.8657],[102.301,2.8614],[102.2995,2.86],[102.3204,2.8492],[102.3206,2.8428],[102.3273,2.8431],[102.3275,2.8398],[102.3342,2.8355],[102.3307,2.83],[102.3724,2.8076],[102.3709,2.8027],[102.3757,2.804],[102.375,2.8069],[102.3891,2.8075],[102.3895,2.8113],[102.3933,2.8137],[102.3936,2.8116],[102.3971,2.8111],[102.401,2.8127],[102.3963,2.8165],[102.3925,2.8285],[102.4086,2.8281],[102.4089,2.8214],[102.4131,2.8216],[102.4117,2.8273],[102.4168,2.8342],[102.4554,2.8338],[102.4586,2.8298],[102.4755,2.8303],[102.4773,2.8266],[102.5056,2.8055],[102.5179,2.8245],[102.5422,2.8255],[102.5516,2.8386],[102.5509,2.9629],[102.4683,3.0184]]]}},{"type":"Feature","properties":{"c":"N.06","n":"Palong","w":"BN","p":"UMNO","cand":"Mustapha bin Nagoor","pct":87.9,"maj":13702,"nc":3,"tv":17282,"unc":false,"rw":"PH","rp":"PKR","rcand":"Muhammad Zahin bin Zinal Abidin","rpct":8.7},"geometry":{"type":"MultiPolygon","coordinates":[[[[102.5509,2.9629],[102.5516,2.8386],[102.5422,2.8255],[102.5359,2.8238],[102.5326,2.8263],[102.5197,2.8235],[102.5334,2.8067],[102.5431,2.7992],[102.5295,2.7826],[102.5521,2.7632],[102.552,2.751],[102.5543,2.7491],[102.5579,2.7492],[102.5611,2.7538],[102.5657,2.7526],[102.578,2.7609],[102.5949,2.729],[102.5943,2.6953],[102.6023,2.6908],[102.5976,2.6857],[102.6049,2.6608],[102.6044,2.65],[102.6315,2.6478],[102.7026,2.8315],[102.6981,2.8335],[102.6917,2.8801],[102.679,2.8965],[102.6675,2.8857],[102.5509,2.9629]]]]}},{"type":"Feature","properties":{"c":"N.07","n":"Jeram Padang","w":"BN","p":"UMNO","cand":"Mohd Zaidy bin Abdul Kadir","pct":59.1,"maj":4482,"nc":4,"tv":11596,"unc":false,"rw":"PH","rp":"PKR","rcand":"G. Manivannan a/l Gowindasamy","rpct":20.5},"geometry":{"type":"Polygon","coordinates":[[[102.4131,2.8216],[102.4149,2.8218],[102.4145,2.8066],[102.4124,2.806],[102.4124,2.803],[102.4161,2.7996],[102.4106,2.7918],[102.4081,2.7925],[102.409,2.7957],[102.3944,2.7996],[102.3939,2.7898],[102.391,2.7876],[102.3924,2.7851],[102.3901,2.7845],[102.3933,2.77],[102.3972,2.7628],[102.3992,2.7632],[102.3993,2.7584],[102.3969,2.7586],[102.3974,2.7565],[102.3933,2.753],[102.3968,2.7349],[102.3938,2.7314],[102.3892,2.7308],[102.3879,2.724],[102.3803,2.7165],[102.3719,2.713],[102.3703,2.7081],[102.3647,2.7038],[102.3569,2.7035],[102.3548,2.7009],[102.3536,2.6866],[102.356,2.6851],[102.3574,2.6764],[102.355,2.6708],[102.3455,2.6635],[102.3492,2.6549],[102.3481,2.6519],[102.3344,2.6444],[102.3479,2.6436],[102.3477,2.5993],[102.4287,2.6897],[102.5512,2.6837],[102.551,2.6715],[102.5555,2.6725],[102.5552,2.6702],[102.5687,2.6558],[102.5838,2.6623],[102.5964,2.6509],[102.6008,2.6532],[102.6044,2.65],[102.6049,2.6608],[102.5976,2.6857],[102.6023,2.6908],[102.5943,2.6953],[102.5949,2.729],[102.578,2.7609],[102.5657,2.7526],[102.5611,2.7538],[102.5579,2.7492],[102.552,2.751],[102.5521,2.7632],[102.5295,2.7826],[102.5431,2.7992],[102.5299,2.8103],[102.5197,2.8235],[102.5214,2.8245],[102.5179,2.8245],[102.5056,2.8055],[102.4773,2.8266],[102.4755,2.8303],[102.4586,2.8298],[102.4554,2.8338],[102.4168,2.8342],[102.4117,2.8273],[102.4131,2.8216]]]}},{"type":"Feature","properties":{"c":"N.08","n":"Bahau","w":"PH","p":"DAP","cand":"Teo Kok Seong","pct":59.9,"maj":3307,"nc":2,"tv":16683,"unc":false,"rw":"BN","rp":"MCA","rcand":"Chong Fui Ming","rpct":40.1},"geometry":{"type":"Polygon","coordinates":[[[102.2995,2.86],[102.2959,2.8425],[102.2922,2.8394],[102.2912,2.8294],[102.3086,2.8289],[102.312,2.8233],[102.3159,2.8227],[102.3144,2.818],[102.3362,2.7926],[102.3402,2.7936],[102.3425,2.7913],[102.3402,2.7782],[102.3449,2.7752],[102.3485,2.7672],[102.3671,2.7694],[102.3675,2.7813],[102.3902,2.7815],[102.3901,2.7845],[102.3924,2.7851],[102.391,2.7876],[102.3939,2.7898],[102.3944,2.7996],[102.409,2.7957],[102.4081,2.7925],[102.4106,2.7918],[102.4161,2.7996],[102.4124,2.803],[102.4124,2.806],[102.4145,2.8066],[102.4149,2.8218],[102.4089,2.8214],[102.4086,2.8281],[102.3925,2.8285],[102.3963,2.8165],[102.401,2.8127],[102.3971,2.8111],[102.3936,2.8116],[102.3933,2.8137],[102.3895,2.8113],[102.3891,2.8075],[102.375,2.8069],[102.3757,2.804],[102.3709,2.8027],[102.3724,2.8076],[102.3307,2.83],[102.3342,2.8355],[102.3275,2.8398],[102.3273,2.8431],[102.3206,2.8428],[102.3204,2.8492],[102.2995,2.86]]]}},{"type":"Feature","properties":{"c":"N.09","n":"Lenggeng","w":"BN","p":"UMNO","cand":"Mohd Asna bin Amin","pct":71.6,"maj":9994,"nc":3,"tv":22275,"unc":false,"rw":"PH","rp":"AMANAH","rcand":"Zarinna binti Abu Zarin","rpct":26.8},"geometry":{"type":"Polygon","coordinates":[[[101.8816,2.8667],[101.8964,2.8454],[101.8923,2.8425],[101.8935,2.8405],[101.898,2.8377],[101.9055,2.838],[101.9061,2.835],[101.9145,2.8375],[101.9144,2.8288],[101.9276,2.8192],[101.9496,2.8176],[101.9582,2.8093],[101.9472,2.8007],[101.9404,2.7682],[101.9378,2.7681],[101.9382,2.7634],[101.9436,2.7645],[101.9469,2.761],[101.9565,2.7599],[101.9564,2.7637],[101.9605,2.7618],[101.9637,2.7661],[101.9731,2.7597],[101.9684,2.7498],[101.9699,2.7478],[101.9821,2.7596],[101.9899,2.7618],[101.9907,2.755],[101.9935,2.7538],[101.989,2.741],[101.9909,2.7323],[101.989,2.7228],[102.0032,2.722],[102.0052,2.719],[102.0132,2.7161],[102.0205,2.7179],[102.0244,2.7226],[102.0296,2.7242],[102.0404,2.7208],[102.0475,2.7225],[102.0497,2.7263],[102.0544,2.7251],[102.0536,2.7326],[102.0571,2.7453],[102.0492,2.757],[102.0536,2.7711],[102.0505,2.7803],[102.0527,2.7852],[102.0491,2.798],[102.0506,2.8036],[102.059,2.8085],[102.0586,2.813],[102.0644,2.8186],[102.0611,2.8267],[102.0668,2.8329],[102.0676,2.8409],[102.0651,2.8426],[102.062,2.8387],[102.0516,2.8348],[102.052,2.8326],[102.0462,2.8326],[102.0424,2.8366],[102.0356,2.8283],[102.033,2.8312],[102.0235,2.8336],[102.0224,2.8425],[102.0195,2.8435],[102.0142,2.8401],[102.0083,2.8424],[102.0031,2.8481],[101.9998,2.8475],[101.9997,2.8505],[101.9958,2.8504],[101.989,2.8657],[101.9898,2.8709],[101.9834,2.8801],[101.9866,2.8853],[101.987,2.8953],[101.9829,2.8981],[101.9813,2.9057],[101.9901,2.9161],[101.9818,2.9218],[101.9823,2.931],[101.9755,2.9401],[101.9652,2.946],[101.9484,2.9486],[101.9499,2.9586],[101.9437,2.9603],[101.9384,2.9586],[101.9361,2.9638],[101.9247,2.9655],[101.9234,2.9676],[101.8816,2.8667]]]}},{"type":"Feature","properties":{"c":"N.10","n":"Nilai","w":"PH","p":"DAP","cand":"Arul Kumar a/l Jambunathan","pct":48.8,"maj":5937,"nc":5,"tv":32386,"unc":false,"rw":"BN","rp":"MCA","rcand":"Alan Lai Chien Kong","rpct":30.4},"geometry":{"type":"Polygon","coordinates":[[[101.788,2.8697],[101.7509,2.8709],[101.7552,2.7984],[101.7593,2.799],[101.759,2.8015],[101.7773,2.8063],[101.7815,2.8057],[101.7809,2.8031],[101.7875,2.8026],[101.787,2.8002],[101.7956,2.7987],[101.7971,2.8007],[101.8083,2.7947],[101.8191,2.8008],[101.8257,2.7874],[101.8217,2.7852],[101.8258,2.7775],[101.8248,2.7723],[101.8273,2.7735],[101.8385,2.7689],[101.8424,2.7694],[101.8487,2.7859],[101.8787,2.7716],[101.891,2.7716],[101.8922,2.7745],[101.8952,2.7732],[101.8954,2.7755],[101.9081,2.7737],[101.9088,2.7762],[101.9196,2.7812],[101.9306,2.7838],[101.9319,2.7812],[101.9351,2.7894],[101.9466,2.7923],[101.9452,2.7938],[101.9477,2.7967],[101.9472,2.8007],[101.9582,2.8087],[101.9496,2.8176],[101.9276,2.8192],[101.9144,2.8288],[101.9145,2.8375],[101.9061,2.835],[101.9055,2.838],[101.898,2.8377],[101.8935,2.8405],[101.8923,2.8425],[101.8964,2.8454],[101.8816,2.8667],[101.788,2.8697]]]}},{"type":"Feature","properties":{"c":"N.11","n":"Lobak","w":"PH","p":"DAP","cand":"Chew Seh Yong","pct":86.7,"maj":11053,"nc":2,"tv":15075,"unc":false,"rw":"PN","rp":"PAS","rcand":"Kumar a/l S. Paramasivam","rpct":13.3},"geometry":{"type":"Polygon","coordinates":[[[101.9466,2.7923],[101.9351,2.7894],[101.9319,2.7812],[101.9306,2.7838],[101.9168,2.7804],[101.9088,2.7762],[101.9081,2.7737],[101.905,2.774],[101.9048,2.7701],[101.8964,2.7691],[101.8903,2.7491],[101.9059,2.7501],[101.9075,2.7476],[101.9063,2.7399],[101.9126,2.7393],[101.9129,2.7308],[101.9199,2.7307],[101.9224,2.7266],[101.9309,2.7241],[101.938,2.7347],[101.9362,2.7368],[101.9348,2.7348],[101.9327,2.7361],[101.9312,2.7416],[101.9383,2.743],[101.9383,2.7453],[101.9429,2.7481],[101.9363,2.7595],[101.9399,2.7628],[101.9378,2.7681],[101.9404,2.7682],[101.9466,2.7923]]]}},{"type":"Feature","properties":{"c":"N.12","n":"Temiang","w":"PH","p":"DAP","cand":"Ho Weng Wah","pct":57.5,"maj":1883,"nc":3,"tv":9129,"unc":false,"rw":"BN","rp":"MCA","rcand":"Leaw Kok Chan","rpct":36.9},"geometry":{"type":"Polygon","coordinates":[[[101.9399,2.7628],[101.9363,2.7595],[101.9429,2.7481],[101.9383,2.7453],[101.9383,2.743],[101.9312,2.7416],[101.9327,2.7361],[101.9379,2.7357],[101.9357,2.7327],[101.9368,2.7298],[101.9414,2.728],[101.9399,2.7224],[101.9413,2.7194],[101.9439,2.7222],[101.9439,2.7276],[101.9502,2.7318],[101.949,2.7349],[101.9424,2.7371],[101.9465,2.7428],[101.9531,2.7389],[101.9533,2.7426],[101.9562,2.7431],[101.9548,2.7487],[101.9512,2.7502],[101.9523,2.7527],[101.9486,2.7549],[101.9539,2.7571],[101.9537,2.7601],[101.9469,2.761],[101.9436,2.7645],[101.9399,2.7628]]]}},{"type":"Feature","properties":{"c":"N.13","n":"Sikamat","w":"PN","p":"WAWASAN","cand":"Razali bin Abu Samah","pct":57.4,"maj":4413,"nc":3,"tv":26239,"unc":false,"rw":"PH","rp":"PKR","rcand":"Nor Azman bin Mohamad","rpct":40.5},"geometry":{"type":"Polygon","coordinates":[[[101.9537,2.7601],[101.9539,2.7571],[101.9486,2.7549],[101.9548,2.7487],[101.9561,2.7425],[101.9533,2.7426],[101.9531,2.7389],[101.9465,2.7428],[101.9428,2.7356],[101.949,2.7349],[101.9512,2.728],[101.9556,2.7299],[101.9587,2.7243],[101.963,2.7333],[101.9746,2.7394],[101.983,2.739],[101.9827,2.7357],[101.9778,2.7376],[101.973,2.7319],[101.9792,2.7307],[101.9749,2.727],[101.989,2.7228],[101.9909,2.7323],[101.989,2.741],[101.9935,2.7538],[101.9907,2.755],[101.9899,2.7618],[101.9821,2.7596],[101.9699,2.7478],[101.9684,2.7498],[101.9731,2.7597],[101.9637,2.7661],[101.9605,2.7618],[101.9564,2.7637],[101.9565,2.7599],[101.9537,2.7601]]]}},{"type":"Feature","properties":{"c":"N.14","n":"Ampangan","w":"PN","p":"PAS","cand":"Mohamad Rafie bin Ab Malek","pct":61.4,"maj":3969,"nc":3,"tv":16166,"unc":false,"rw":"PH","rp":"PKR","rcand":"Muhammad Nazri bin Kassim","rpct":36.9},"geometry":{"type":"Polygon","coordinates":[[[101.9413,2.7194],[101.9503,2.7143],[101.9507,2.7115],[101.957,2.7116],[101.9583,2.7155],[101.9622,2.7116],[101.9669,2.7138],[101.966,2.7171],[101.9712,2.7175],[101.9709,2.7146],[101.9778,2.7125],[101.977,2.7143],[101.9806,2.7144],[101.9811,2.7221],[101.9749,2.728],[101.9792,2.7307],[101.973,2.7326],[101.9778,2.7376],[101.9827,2.7357],[101.983,2.739],[101.9746,2.7394],[101.963,2.7333],[101.9587,2.7243],[101.9556,2.7299],[101.952,2.7278],[101.9484,2.731],[101.9439,2.7276],[101.9439,2.7222],[101.9413,2.7194]]]}},{"type":"Feature","properties":{"c":"N.15","n":"Juasseh","w":"BN","p":"UMNO","cand":"Ismail bin Lasim","pct":67.5,"maj":4091,"nc":3,"tv":10229,"unc":false,"rw":"PH","rp":"PKR","rcand":"Mohd Aidil bin Abdullah","rpct":27.5},"geometry":{"type":"Polygon","coordinates":[[[102.1538,2.8954],[102.1478,2.8934],[102.1477,2.8914],[102.1569,2.8807],[102.1604,2.8723],[102.1602,2.8633],[102.1673,2.8515],[102.1767,2.8498],[102.1912,2.8394],[102.1897,2.8269],[102.1932,2.826],[102.1946,2.8175],[102.1847,2.8136],[102.1789,2.8058],[102.1833,2.7982],[102.1748,2.7952],[102.1791,2.7891],[102.1905,2.79],[102.1954,2.7826],[102.1927,2.7789],[102.2073,2.7686],[102.2115,2.7749],[102.2147,2.7749],[102.2164,2.7713],[102.2232,2.7678],[102.2252,2.7693],[102.227,2.7657],[102.2313,2.7672],[102.2369,2.7625],[102.2361,2.7564],[102.2428,2.7561],[102.2423,2.7525],[102.2447,2.7521],[102.2473,2.7556],[102.2496,2.7521],[102.2529,2.7554],[102.2534,2.7527],[102.2562,2.7525],[102.259,2.7544],[102.2573,2.7574],[102.2619,2.7639],[102.264,2.7625],[102.2635,2.7586],[102.2721,2.7599],[102.2879,2.771],[102.2999,2.7763],[102.3175,2.7805],[102.3193,2.7776],[102.3253,2.777],[102.3413,2.7819],[102.3425,2.7913],[102.3402,2.7936],[102.3362,2.7926],[102.3144,2.818],[102.3159,2.8227],[102.312,2.8233],[102.3086,2.8289],[102.2912,2.8294],[102.2922,2.8394],[102.2959,2.8425],[102.301,2.8614],[102.2955,2.8657],[102.2933,2.8627],[102.2822,2.8705],[102.2772,2.8689],[102.2698,2.8772],[102.2618,2.8808],[102.2588,2.8903],[102.2521,2.8942],[102.2517,2.897],[102.2451,2.8984],[102.2334,2.9063],[102.2248,2.9022],[102.2085,2.9102],[102.1979,2.9079],[102.197,2.9021],[102.1892,2.8929],[102.1732,2.8988],[102.1706,2.9018],[102.1538,2.8954]]]}},{"type":"Feature","properties":{"c":"N.16","n":"Seri Menanti","w":"BN","p":"UMNO","cand":"Muhammad Sufian bin Maradzi","pct":75.5,"maj":4323,"nc":3,"tv":7756,"unc":false,"rw":"PH","rp":"PKR","rcand":"Mohd Kamarul Arifin bin Mohd Wafa","rpct":19.8},"geometry":{"type":"Polygon","coordinates":[[[102.0668,2.8329],[102.0611,2.8267],[102.0644,2.8186],[102.0586,2.813],[102.059,2.8085],[102.0506,2.8036],[102.0491,2.798],[102.0527,2.7852],[102.0505,2.7803],[102.0536,2.7711],[102.0492,2.757],[102.0571,2.7453],[102.0536,2.7326],[102.0546,2.7199],[102.0509,2.7144],[102.0505,2.7066],[102.0473,2.7046],[102.0473,2.6926],[102.0523,2.6879],[102.057,2.6877],[102.0591,2.6823],[102.0638,2.6806],[102.0668,2.6858],[102.0734,2.6855],[102.0778,2.6919],[102.0778,2.7002],[102.0799,2.7025],[102.0827,2.7003],[102.0899,2.7093],[102.0955,2.7065],[102.0961,2.7082],[102.1184,2.7083],[102.1252,2.7017],[102.1153,2.6674],[102.1114,2.6651],[102.1145,2.6613],[102.1155,2.6418],[102.1183,2.6409],[102.1214,2.6333],[102.1281,2.6329],[102.131,2.6289],[102.1356,2.6297],[102.1396,2.6256],[102.1439,2.6142],[102.1493,2.6112],[102.1526,2.6133],[102.1576,2.612],[102.1602,2.6535],[102.1666,2.654],[102.1705,2.663],[102.1776,2.6676],[102.1744,2.6679],[102.1737,2.6696],[102.1764,2.6701],[102.1733,2.6719],[102.1706,2.6788],[102.184,2.686],[102.1861,2.6928],[102.2023,2.6992],[102.2086,2.7064],[102.203,2.7074],[102.2055,2.7149],[102.2055,2.7373],[102.2001,2.7366],[102.1978,2.7389],[102.182,2.7412],[102.1823,2.748],[102.1903,2.7603],[102.1937,2.7627],[102.1975,2.7597],[102.2022,2.7635],[102.1994,2.7694],[102.1907,2.7766],[102.1954,2.7826],[102.1905,2.79],[102.1791,2.7891],[102.1748,2.7952],[102.1833,2.7982],[102.1789,2.8058],[102.1847,2.8136],[102.1946,2.8175],[102.1932,2.826],[102.1897,2.8269],[102.1912,2.8394],[102.1767,2.8498],[102.1673,2.8515],[102.1602,2.8633],[102.1604,2.8723],[102.1569,2.8807],[102.1478,2.8934],[102.1446,2.8937],[102.1422,2.8978],[102.1362,2.8976],[102.1341,2.8951],[102.128,2.8954],[102.1284,2.8914],[102.109,2.8782],[102.1067,2.875],[102.1071,2.8684],[102.0984,2.8653],[102.0937,2.8543],[102.0957,2.848],[102.0844,2.8442],[102.0782,2.8346],[102.0668,2.8329]]]}},{"type":"Feature","properties":{"c":"N.17","n":"Senaling","w":"BN","p":"UMNO","cand":"Mohamad Qayyum bin Abd Jalil","pct":68.6,"maj":3157,"nc":3,"tv":7343,"unc":false,"rw":"PH","rp":"AMANAH","rcand":"Mohd Hanis bin Mohd Alimin","rpct":25.6},"geometry":{"type":"Polygon","coordinates":[[[102.3902,2.7815],[102.3675,2.7813],[102.3671,2.7694],[102.3485,2.7672],[102.3449,2.7752],[102.3402,2.7782],[102.3413,2.7819],[102.3253,2.777],[102.3193,2.7776],[102.3175,2.7805],[102.2957,2.7748],[102.2721,2.7599],[102.2635,2.7586],[102.264,2.7625],[102.2619,2.7639],[102.2573,2.7574],[102.259,2.7544],[102.2534,2.7527],[102.2529,2.7554],[102.2467,2.7477],[102.2494,2.7248],[102.2541,2.7263],[102.2548,2.7215],[102.2496,2.721],[102.2499,2.7167],[102.2473,2.7176],[102.2466,2.7152],[102.2497,2.7102],[102.2457,2.7113],[102.2434,2.7077],[102.2514,2.7037],[102.2526,2.7051],[102.2568,2.7005],[102.253,2.6952],[102.2529,2.6905],[102.2565,2.6921],[102.2599,2.6888],[102.2649,2.69],[102.2674,2.6868],[102.2779,2.6912],[102.2796,2.6961],[102.2874,2.6992],[102.2869,2.7156],[102.3139,2.7207],[102.316,2.7139],[102.3237,2.7137],[102.324,2.7217],[102.3317,2.7132],[102.3461,2.7128],[102.3531,2.7222],[102.3728,2.7136],[102.3803,2.7165],[102.3879,2.724],[102.3892,2.7308],[102.3938,2.7314],[102.3968,2.7349],[102.3933,2.753],[102.3974,2.7565],[102.3969,2.7586],[102.3993,2.7584],[102.3992,2.7632],[102.3955,2.7654],[102.3902,2.7815]]]}},{"type":"Feature","properties":{"c":"N.18","n":"Pilah","w":"BN","p":"UMNO","cand":"S Leza binti Md Yasin","pct":52.8,"maj":730,"nc":2,"tv":12930,"unc":false,"rw":"PH","rp":"PKR","rcand":"Noorzunita Begum binti Mohd Ibrahim","rpct":47.2},"geometry":{"type":"Polygon","coordinates":[[[102.1927,2.7789],[102.1907,2.7766],[102.1994,2.7694],[102.2022,2.7635],[102.1975,2.7597],[102.1937,2.7627],[102.1903,2.7603],[102.1823,2.748],[102.182,2.7412],[102.1978,2.7389],[102.2001,2.7366],[102.2055,2.7373],[102.2055,2.7149],[102.203,2.7074],[102.2086,2.7064],[102.2023,2.6992],[102.1861,2.6928],[102.184,2.686],[102.1706,2.6788],[102.1733,2.6719],[102.1764,2.6701],[102.1737,2.6696],[102.1744,2.6679],[102.1841,2.6636],[102.2026,2.6879],[102.2093,2.6765],[102.2398,2.6948],[102.2429,2.6993],[102.2473,2.697],[102.2474,2.7005],[102.2517,2.6952],[102.2544,2.6952],[102.2568,2.7005],[102.2526,2.7051],[102.2514,2.7037],[102.2434,2.7077],[102.2457,2.7113],[102.2497,2.7102],[102.2466,2.7152],[102.2473,2.7176],[102.2499,2.7167],[102.2496,2.721],[102.2548,2.7215],[102.2541,2.7263],[102.2494,2.7248],[102.2484,2.7427],[102.2467,2.7432],[102.2496,2.7521],[102.2473,2.7556],[102.2447,2.7521],[102.2423,2.7525],[102.2428,2.7561],[102.2361,2.7564],[102.2369,2.7625],[102.2313,2.7672],[102.227,2.7657],[102.2252,2.7693],[102.2232,2.7678],[102.2164,2.7713],[102.2147,2.7749],[102.2115,2.7749],[102.2073,2.7686],[102.1927,2.7789]]]}},{"type":"Feature","properties":{"c":"N.19","n":"Johol","w":"BN","p":"UMNO","cand":"Saiful Yazan bin Sulaiman","pct":74.5,"maj":4383,"nc":2,"tv":8943,"unc":false,"rw":"PH","rp":"AMANAH","rcand":"Mohd Zailan bin Mohd Munawar","rpct":25.5},"geometry":{"type":"Polygon","coordinates":[[[102.3728,2.7136],[102.3531,2.7222],[102.3461,2.7128],[102.3317,2.7132],[102.324,2.7217],[102.3237,2.7137],[102.316,2.7139],[102.3139,2.7207],[102.2869,2.7156],[102.2874,2.6992],[102.2796,2.6961],[102.2779,2.6912],[102.2674,2.6868],[102.2649,2.69],[102.2599,2.6888],[102.2565,2.6921],[102.2529,2.6905],[102.253,2.6952],[102.2474,2.7005],[102.2473,2.697],[102.2429,2.6993],[102.2398,2.6948],[102.2093,2.6765],[102.2026,2.6879],[102.1841,2.6636],[102.1776,2.6676],[102.1705,2.663],[102.1666,2.654],[102.1602,2.6535],[102.1576,2.612],[102.1632,2.616],[102.1668,2.6124],[102.1638,2.6093],[102.1711,2.5985],[102.1794,2.5923],[102.1774,2.5853],[102.1811,2.5724],[102.1905,2.5621],[102.1984,2.5594],[102.2033,2.5434],[102.21,2.5414],[102.211,2.5389],[102.2138,2.5389],[102.216,2.5422],[102.2258,2.5348],[102.2347,2.5446],[102.237,2.5412],[102.256,2.5425],[102.2692,2.5408],[102.2699,2.5386],[102.2739,2.5406],[102.3098,2.5372],[102.3258,2.5397],[102.3287,2.5506],[102.3296,2.5724],[102.3244,2.5722],[102.3477,2.5993],[102.3479,2.6436],[102.3344,2.6444],[102.3481,2.6519],[102.3492,2.6549],[102.3455,2.6635],[102.355,2.6708],[102.3574,2.6764],[102.356,2.6851],[102.3536,2.6866],[102.3548,2.7009],[102.3569,2.7035],[102.3647,2.7038],[102.3703,2.7081],[102.3728,2.7136]]]}},{"type":"Feature","properties":{"c":"N.20","n":"Labu","w":"BN","p":"UMNO","cand":"Siti Nur Umaira binti Hasim","pct":56.6,"maj":5279,"nc":3,"tv":25124,"unc":false,"rw":"PH","rp":"PKR","rcand":"Ahmad Faez bin Abdul Razak","rpct":35.5},"geometry":{"type":"Polygon","coordinates":[[[101.7601,2.7234],[101.7784,2.7231],[101.7926,2.6783],[101.7917,2.6695],[101.8267,2.6698],[101.8305,2.6856],[101.8333,2.6857],[101.8311,2.6916],[101.8377,2.6911],[101.8415,2.6934],[101.841,2.6971],[101.8569,2.6974],[101.8652,2.694],[101.8659,2.7131],[101.8677,2.7146],[101.867,2.7397],[101.87,2.7417],[101.8831,2.739],[101.8906,2.7414],[101.8912,2.756],[101.8937,2.7562],[101.8964,2.7691],[101.9048,2.7701],[101.905,2.774],[101.8954,2.7755],[101.8952,2.7732],[101.8922,2.7745],[101.891,2.7716],[101.8787,2.7716],[101.8487,2.7859],[101.8424,2.7694],[101.8385,2.7689],[101.8273,2.7735],[101.8248,2.7723],[101.8258,2.7775],[101.8217,2.7852],[101.8257,2.7874],[101.8191,2.8008],[101.8083,2.7947],[101.7971,2.8007],[101.7956,2.7987],[101.787,2.8002],[101.7875,2.8026],[101.7809,2.8031],[101.7815,2.8057],[101.7773,2.8063],[101.759,2.8015],[101.7593,2.799],[101.7552,2.7984],[101.7601,2.7234]]]}},{"type":"Feature","properties":{"c":"N.21","n":"Bukit Kepayang","w":"PH","p":"DAP","cand":"Nicole Tan Lee Koon","pct":73.1,"maj":15207,"nc":2,"tv":32985,"unc":false,"rw":"PN","rp":"GERAKAN","rcand":"Lee Boon Shian","rpct":26.9},"geometry":{"type":"Polygon","coordinates":[[[101.8903,2.7491],[101.8906,2.7414],[101.8831,2.739],[101.87,2.7417],[101.867,2.7397],[101.8665,2.6897],[101.863,2.6834],[101.8723,2.6802],[101.8736,2.6764],[101.8864,2.6784],[101.9077,2.6752],[101.9078,2.6789],[101.9128,2.6785],[101.9152,2.6815],[101.9197,2.6767],[101.9273,2.6883],[101.9199,2.6915],[101.9199,2.6967],[101.9238,2.6967],[101.9239,2.7005],[101.9282,2.7035],[101.9321,2.7026],[101.9307,2.7093],[101.9397,2.7077],[101.9414,2.728],[101.9368,2.7298],[101.9357,2.7327],[101.9346,2.7274],[101.9309,2.7241],[101.9224,2.7266],[101.9199,2.7307],[101.9129,2.7308],[101.9126,2.7393],[101.9063,2.7399],[101.9075,2.7476],[101.9059,2.7501],[101.8903,2.7491]]]}},{"type":"Feature","properties":{"c":"N.22","n":"Rahang","w":"PH","p":"DAP","cand":"Desmond Siau Meow Kong","pct":59.0,"maj":2975,"nc":4,"tv":13377,"unc":false,"rw":"BN","rp":"MCA","rcand":"Yap Siok Moy","rpct":36.8},"geometry":{"type":"Polygon","coordinates":[[[101.94,2.7204],[101.9418,2.7174],[101.9397,2.7077],[101.9307,2.7093],[101.9321,2.7026],[101.9282,2.7035],[101.9239,2.7005],[101.9238,2.6967],[101.9199,2.6967],[101.9199,2.6915],[101.9273,2.6883],[101.926,2.6817],[101.9332,2.6902],[101.9441,2.6919],[101.9472,2.6939],[101.9441,2.6959],[101.9487,2.6996],[101.9505,2.6981],[101.9558,2.7004],[101.9531,2.7047],[101.955,2.7076],[101.9503,2.7143],[101.9441,2.7161],[101.94,2.7204]]]}},{"type":"Feature","properties":{"c":"N.23","n":"Mambau","w":"PH","p":"DAP","cand":"Lee Kai Yet","pct":78.0,"maj":12103,"nc":3,"tv":20199,"unc":false,"rw":"PN","rp":"WAWASAN","rcand":"Erik a/l Michael","rpct":18.1},"geometry":{"type":"Polygon","coordinates":[[[101.8736,2.6764],[101.8758,2.6742],[101.8756,2.6673],[101.8895,2.6655],[101.8895,2.6594],[101.9005,2.6595],[101.9002,2.6629],[101.9099,2.6676],[101.9178,2.6652],[101.9171,2.6592],[101.9199,2.6553],[101.9253,2.657],[101.9253,2.6628],[101.9342,2.664],[101.9325,2.6682],[101.9437,2.6683],[101.9435,2.6639],[101.9598,2.663],[101.9591,2.668],[101.9615,2.6705],[101.9683,2.666],[101.9645,2.6784],[101.9584,2.6839],[101.9596,2.689],[101.9572,2.6878],[101.9574,2.6916],[101.9602,2.6946],[101.957,2.697],[101.9594,2.7008],[101.9559,2.7027],[101.9558,2.7004],[101.9505,2.6981],[101.9487,2.6996],[101.9441,2.6959],[101.9472,2.6939],[101.9441,2.6919],[101.9332,2.6902],[101.9278,2.6858],[101.9273,2.6814],[101.9258,2.6835],[101.9197,2.6767],[101.9152,2.6815],[101.9128,2.6785],[101.9078,2.6789],[101.9077,2.6752],[101.8864,2.6784],[101.8736,2.6764]]]}},{"type":"Feature","properties":{"c":"N.24","n":"Seremban Jaya","w":"PH","p":"DAP","cand":"Mugunthan a/l Subramaniam","pct":61.7,"maj":5701,"nc":3,"tv":22968,"unc":false,"rw":"BN","rp":"MIC","rcand":"Thinalan a/l T Rajagopalu","rpct":36.9},"geometry":{"type":"Polygon","coordinates":[[[101.9507,2.7115],[101.955,2.7076],[101.9531,2.7047],[101.9594,2.7008],[101.957,2.697],[101.9602,2.6925],[101.9574,2.6916],[101.9572,2.6878],[101.9596,2.689],[101.9584,2.6839],[101.9628,2.6813],[101.9679,2.6683],[101.985,2.6661],[101.9873,2.6676],[101.9869,2.6623],[101.9916,2.6608],[101.9941,2.666],[101.9843,2.6791],[101.9864,2.6834],[101.9904,2.6836],[101.975,2.6951],[101.9741,2.7001],[101.9697,2.6993],[101.9738,2.7151],[101.9709,2.7146],[101.9712,2.7175],[101.966,2.7171],[101.9669,2.7138],[101.9622,2.7116],[101.9583,2.7155],[101.957,2.7116],[101.9507,2.7115]]]}},{"type":"Feature","properties":{"c":"N.25","n":"Paroi","w":"PN","p":"PAS","cand":"Kamarol Ridzuan bin Mohd Zain","pct":65.0,"maj":16959,"nc":3,"tv":49254,"unc":false,"rw":"PH","rp":"AMANAH","rcand":"Ahmad Shahir bin Mohd Shah","rpct":30.5},"geometry":{"type":"Polygon","coordinates":[[[101.989,2.7228],[101.9792,2.7245],[101.9811,2.7221],[101.9806,2.7144],[101.977,2.7143],[101.9765,2.7122],[101.9738,2.7134],[101.9693,2.7016],[101.9697,2.6993],[101.9741,2.7001],[101.975,2.6951],[101.9904,2.6836],[101.9864,2.6834],[101.9843,2.6791],[101.9919,2.67],[101.9939,2.6631],[101.9916,2.6608],[101.9869,2.6623],[101.9873,2.6676],[101.9857,2.668],[101.985,2.6661],[101.9679,2.6683],[101.9678,2.6657],[101.9615,2.6705],[101.9591,2.668],[101.9593,2.6492],[101.9743,2.6487],[101.9741,2.6344],[101.9817,2.6339],[101.9877,2.6219],[101.9831,2.62],[101.983,2.6053],[101.9907,2.6053],[101.9908,2.5904],[101.9829,2.5905],[101.9823,2.5719],[102.0304,2.5709],[102.0301,2.6237],[102.0265,2.6237],[102.0258,2.6529],[102.0312,2.6654],[102.036,2.6682],[102.0422,2.6784],[102.0523,2.6879],[102.0473,2.6926],[102.0473,2.7046],[102.0505,2.7066],[102.0544,2.7251],[102.0497,2.7263],[102.0475,2.7225],[102.0404,2.7208],[102.0296,2.7242],[102.0244,2.7226],[102.0205,2.7179],[102.0132,2.7161],[102.0052,2.719],[102.0032,2.722],[101.989,2.7228]]]}},{"type":"Feature","properties":{"c":"N.26","n":"Chembong","w":"BN","p":"UMNO","cand":"Zaifulbahri bin Idris","pct":83.5,"maj":13763,"nc":2,"tv":20557,"unc":false,"rw":"PH","rp":"PKR","rcand":"Danish Nazran bin Murad","rpct":16.5},"geometry":{"type":"Polygon","coordinates":[[[102.0523,2.6879],[102.0422,2.6784],[102.036,2.6682],[102.0312,2.6654],[102.0258,2.6529],[102.0265,2.6237],[102.0301,2.6237],[102.0304,2.5709],[102.011,2.5708],[102.0106,2.5432],[102.03,2.5433],[102.0299,2.5326],[102.0276,2.5325],[102.0277,2.5288],[102.03,2.5288],[102.03,2.4947],[102.0323,2.4973],[102.0386,2.4955],[102.0735,2.5035],[102.07,2.5176],[102.0928,2.5224],[102.0936,2.5299],[102.0912,2.5319],[102.095,2.542],[102.1026,2.5497],[102.1015,2.555],[102.1074,2.5561],[102.1142,2.5649],[102.1065,2.5708],[102.1098,2.5729],[102.1043,2.5802],[102.1152,2.5917],[102.1106,2.5959],[102.1184,2.609],[102.1191,2.6203],[102.1173,2.6248],[102.1224,2.633],[102.1183,2.6409],[102.1155,2.6418],[102.1145,2.6613],[102.1114,2.6651],[102.1153,2.6674],[102.1252,2.7017],[102.1184,2.7083],[102.0961,2.7082],[102.0955,2.7065],[102.0899,2.7093],[102.0827,2.7003],[102.0799,2.7025],[102.0778,2.7002],[102.0778,2.6919],[102.0734,2.6855],[102.0668,2.6858],[102.0638,2.6806],[102.0591,2.6823],[102.057,2.6877],[102.0523,2.6879]]]}},{"type":"Feature","properties":{"c":"N.27","n":"Rantau","w":"BN","p":"UMNO","cand":"Mohamad bin Hasan (Tok Mat)","pct":73.0,"maj":12018,"nc":2,"tv":26082,"unc":false,"rw":"PH","rp":"PKR","rcand":"Azizul Hakim bin Mahdi","rpct":27.0},"geometry":{"type":"Polygon","coordinates":[[[101.8267,2.6698],[101.8338,2.6526],[101.8457,2.6464],[101.8531,2.6726],[101.857,2.6695],[101.8627,2.6698],[101.8622,2.6666],[101.8696,2.664],[101.8717,2.6583],[101.8776,2.6577],[101.8755,2.6505],[101.8733,2.6505],[101.8679,2.6281],[101.8891,2.628],[101.889,2.625],[101.9088,2.6252],[101.9086,2.6053],[101.9212,2.6053],[101.9174,2.599],[101.9268,2.5985],[101.9243,2.5699],[101.9271,2.5699],[101.9358,2.5617],[101.9333,2.5517],[101.9309,2.5506],[101.9309,2.5431],[101.9386,2.5432],[101.9399,2.5413],[101.9405,2.5431],[101.9703,2.5434],[101.9701,2.5526],[101.9739,2.5539],[101.9732,2.5515],[101.9793,2.5516],[101.9745,2.5672],[101.9638,2.5719],[101.9823,2.5719],[101.9829,2.5905],[101.9908,2.5904],[101.9907,2.6053],[101.983,2.6053],[101.9831,2.62],[101.9877,2.6219],[101.9817,2.6339],[101.9741,2.6344],[101.9743,2.6487],[101.9593,2.6492],[101.9598,2.663],[101.9435,2.6639],[101.9437,2.6683],[101.9325,2.6682],[101.9342,2.664],[101.9253,2.6628],[101.9253,2.657],[101.9199,2.6553],[101.9171,2.6592],[101.9178,2.6652],[101.9099,2.6676],[101.9002,2.6629],[101.9005,2.6595],[101.8895,2.6594],[101.8895,2.6655],[101.8756,2.6673],[101.8758,2.6742],[101.8723,2.6802],[101.863,2.6834],[101.8665,2.6897],[101.8652,2.694],[101.8569,2.6974],[101.841,2.6971],[101.8415,2.6934],[101.8377,2.6911],[101.8311,2.6916],[101.8333,2.6857],[101.8305,2.6856],[101.8267,2.6698]]]}},{"type":"Feature","properties":{"c":"N.28","n":"Kota","w":"BN","p":"UMNO","cand":"Suhaimi bin Aini","pct":78.6,"maj":7693,"nc":3,"tv":12951,"unc":false,"rw":"PH","rp":"AMANAH","rcand":"Muhammad Allif bin Ibrahim","rpct":19.2},"geometry":{"type":"Polygon","coordinates":[[[102.03,2.4947],[102.0301,2.4398],[102.0382,2.4342],[102.0346,2.4262],[102.0407,2.421],[102.0473,2.4196],[102.0519,2.4234],[102.0488,2.4276],[102.0509,2.4331],[102.0625,2.4367],[102.0644,2.4442],[102.0607,2.4421],[102.0593,2.4443],[102.0626,2.4484],[102.0604,2.4509],[102.0644,2.4578],[102.0838,2.4539],[102.0885,2.4471],[102.1216,2.4627],[102.1416,2.457],[102.1762,2.4995],[102.1925,2.4905],[102.1936,2.4868],[102.2052,2.4826],[102.2093,2.4904],[102.2076,2.4958],[102.214,2.5018],[102.2124,2.5078],[102.2037,2.5123],[102.1961,2.5204],[102.1957,2.5346],[102.1983,2.5403],[102.2033,2.5434],[102.2002,2.5507],[102.2007,2.5562],[102.1984,2.5594],[102.1905,2.5621],[102.1811,2.5724],[102.1774,2.5853],[102.1794,2.5923],[102.1711,2.5985],[102.1638,2.6093],[102.1668,2.6124],[102.1632,2.616],[102.1576,2.612],[102.1526,2.6133],[102.1493,2.6112],[102.1439,2.6142],[102.1396,2.6256],[102.1356,2.6297],[102.131,2.6289],[102.1281,2.6329],[102.1224,2.633],[102.1173,2.6248],[102.1191,2.6203],[102.1184,2.609],[102.1106,2.5959],[102.1152,2.5917],[102.1043,2.5802],[102.1098,2.5729],[102.1065,2.5708],[102.1142,2.5649],[102.1074,2.5561],[102.1015,2.555],[102.1026,2.5497],[102.095,2.542],[102.0912,2.5319],[102.0936,2.5299],[102.0928,2.5224],[102.07,2.5176],[102.0735,2.5035],[102.0386,2.4955],[102.0323,2.4973],[102.03,2.4947]]]}},{"type":"Feature","properties":{"c":"N.29","n":"Chuah","w":"PH","p":"PKR","cand":"Yew Boon Lye","pct":61.8,"maj":2529,"nc":2,"tv":10713,"unc":false,"rw":"BN","rp":"MCA","rcand":"Pau Jeou Ching","rpct":38.2},"geometry":{"type":"Polygon","coordinates":[[[101.7144,2.5952],[101.7293,2.5932],[101.7341,2.5991],[101.7404,2.602],[101.7557,2.6039],[101.7782,2.5921],[101.7825,2.5873],[101.7813,2.5849],[101.7843,2.5771],[101.788,2.5791],[101.7883,2.5831],[101.7909,2.5833],[101.8011,2.5781],[101.8028,2.5829],[101.8056,2.5839],[101.8036,2.5903],[101.7982,2.5861],[101.7945,2.5869],[101.7917,2.5955],[101.7888,2.5969],[101.7895,2.5997],[101.8116,2.6006],[101.8144,2.5978],[101.8222,2.6275],[101.8313,2.6292],[101.834,2.6378],[101.8316,2.6407],[101.8373,2.6508],[101.8338,2.6526],[101.8267,2.6698],[101.7917,2.6695],[101.7926,2.6783],[101.7784,2.7231],[101.7601,2.7234],[101.7605,2.7009],[101.7543,2.6983],[101.7502,2.6884],[101.7515,2.6824],[101.7457,2.6824],[101.7388,2.6738],[101.7469,2.6558],[101.7313,2.6479],[101.7243,2.636],[101.73,2.6238],[101.7284,2.6166],[101.7215,2.6214],[101.7024,2.6085],[101.7024,2.6041],[101.7101,2.6007],[101.7144,2.5952]]]}},{"type":"Feature","properties":{"c":"N.30","n":"Lukut","w":"PH","p":"DAP","cand":"Choo Ken Hwa","pct":63.8,"maj":5717,"nc":3,"tv":18661,"unc":false,"rw":"PN","rp":"MIPP","rcand":"Sathes Kumar a/l Nilameham","rpct":33.2},"geometry":{"type":"Polygon","coordinates":[[[101.8373,2.6508],[101.8316,2.6407],[101.834,2.6378],[101.8313,2.6292],[101.8222,2.6275],[101.8156,2.5988],[101.8116,2.6006],[101.7895,2.5997],[101.7888,2.5969],[101.7917,2.5955],[101.7945,2.5869],[101.7982,2.5861],[101.8027,2.5906],[101.8056,2.5851],[101.8011,2.5781],[101.7938,2.5831],[101.7875,2.5816],[101.7957,2.5731],[101.7979,2.5605],[101.793,2.5533],[101.796,2.5516],[101.7989,2.5428],[101.8005,2.5425],[101.8067,2.5584],[101.8077,2.5563],[101.8161,2.5573],[101.8182,2.5562],[101.8172,2.5537],[101.8394,2.5526],[101.8394,2.547],[101.8422,2.5443],[101.8618,2.5442],[101.8616,2.5655],[101.8708,2.5658],[101.8703,2.5705],[101.8594,2.5718],[101.86,2.5753],[101.8533,2.5758],[101.8532,2.5854],[101.8601,2.5886],[101.8693,2.5868],[101.8845,2.6001],[101.8962,2.602],[101.9163,2.5972],[101.9212,2.6053],[101.9086,2.6053],[101.9088,2.6252],[101.889,2.625],[101.8891,2.628],[101.8679,2.6281],[101.8733,2.6505],[101.8755,2.6505],[101.8776,2.6577],[101.8717,2.6583],[101.8696,2.664],[101.8622,2.6666],[101.8627,2.6698],[101.857,2.6695],[101.8531,2.6726],[101.8457,2.6464],[101.8373,2.6508]]]}},{"type":"Feature","properties":{"c":"N.31","n":"Bagan Pinang","w":"PN","p":"PAS","cand":"Abdul Fatah bin Zakaria","pct":74.5,"maj":10137,"nc":3,"tv":19605,"unc":false,"rw":"PH","rp":"AMANAH","rcand":"Nasir bin Raman","rpct":22.8},"geometry":{"type":"Polygon","coordinates":[[[101.9174,2.599],[101.9139,2.5968],[101.8962,2.602],[101.8845,2.6001],[101.8693,2.5868],[101.8601,2.5886],[101.8532,2.5854],[101.8533,2.5758],[101.86,2.5753],[101.8594,2.5718],[101.8703,2.5705],[101.8708,2.5658],[101.8616,2.5655],[101.8616,2.5402],[101.8679,2.5494],[101.8779,2.536],[101.8796,2.5365],[101.8803,2.5196],[101.8589,2.5203],[101.8584,2.5242],[101.848,2.5151],[101.8383,2.512],[101.8354,2.5187],[101.8314,2.5206],[101.8292,2.5137],[101.8259,2.5154],[101.8265,2.5178],[101.8228,2.5174],[101.8285,2.5083],[101.836,2.5017],[101.8393,2.4956],[101.8392,2.4907],[101.8464,2.4836],[101.848,2.4631],[101.8519,2.4616],[101.8546,2.4563],[101.8558,2.4495],[101.8539,2.4451],[101.8576,2.4326],[101.8688,2.4351],[101.8687,2.4448],[101.8663,2.4444],[101.8663,2.4463],[101.8677,2.4491],[101.8733,2.4492],[101.8755,2.4593],[101.8661,2.469],[101.8684,2.4709],[101.8623,2.4788],[101.8635,2.4811],[101.8585,2.4803],[101.8558,2.4836],[101.8605,2.4897],[101.8664,2.4878],[101.867,2.4833],[101.8744,2.4833],[101.8742,2.478],[101.888,2.4882],[101.8954,2.4845],[101.8929,2.4783],[101.897,2.4763],[101.8969,2.4598],[101.9063,2.4599],[101.9085,2.4613],[101.9084,2.4662],[101.9145,2.466],[101.9145,2.474],[101.9366,2.4731],[101.937,2.4796],[101.9637,2.4798],[101.9638,2.5043],[101.9613,2.5047],[101.9627,2.5107],[101.9598,2.5157],[101.956,2.5144],[101.95,2.5178],[101.95,2.5432],[101.9405,2.5431],[101.9399,2.5413],[101.9386,2.5432],[101.9309,2.5431],[101.9309,2.5506],[101.9333,2.5517],[101.9358,2.5617],[101.9271,2.5699],[101.9243,2.5699],[101.9268,2.5985],[101.9174,2.599]]]}},{"type":"Feature","properties":{"c":"N.32","n":"Linggi","w":"BN","p":"UMNO","cand":"Mohd Faizal bin Ramli","pct":58.2,"maj":2976,"nc":3,"tv":15693,"unc":false,"rw":"PH","rp":"PKR","rcand":"Aminuddin bin Harun","rpct":39.3},"geometry":{"type":"MultiPolygon","coordinates":[[[[101.9823,2.5719],[101.9638,2.5719],[101.9745,2.5672],[101.9793,2.5516],[101.9732,2.5515],[101.9739,2.5539],[101.9701,2.5526],[101.9703,2.5434],[101.95,2.5432],[101.95,2.5178],[101.956,2.5144],[101.9598,2.5157],[101.9627,2.5107],[101.9613,2.5047],[101.9638,2.5043],[101.9637,2.4798],[101.937,2.4796],[101.9366,2.4731],[101.9145,2.474],[101.9145,2.466],[101.9084,2.4662],[101.9085,2.4613],[101.9063,2.4599],[101.8969,2.4598],[101.897,2.4763],[101.8929,2.4783],[101.8954,2.4845],[101.888,2.4882],[101.8742,2.478],[101.8744,2.4833],[101.867,2.4833],[101.8664,2.4878],[101.8613,2.4899],[101.8597,2.4866],[101.8571,2.4866],[101.8558,2.4836],[101.8585,2.4803],[101.8635,2.4811],[101.8623,2.4788],[101.8684,2.4709],[101.8661,2.469],[101.8755,2.4593],[101.8733,2.4492],[101.8677,2.4491],[101.8663,2.4463],[101.8663,2.4444],[101.8687,2.4448],[101.8688,2.4351],[101.8576,2.4326],[101.8566,2.4163],[101.8478,2.4118],[101.8535,2.4032],[101.8579,2.4044],[101.856,2.4068],[101.8594,2.4109],[101.8589,2.4143],[101.8651,2.4182],[101.8742,2.4179],[101.878,2.4202],[101.8953,2.4169],[101.9037,2.4188],[101.9031,2.422],[101.9058,2.4232],[101.9123,2.4244],[101.9174,2.4222],[101.9198,2.4253],[101.9305,2.4255],[101.9395,2.4202],[101.9441,2.4103],[101.9542,2.4031],[101.9656,2.4025],[101.972,2.3985],[101.9767,2.3897],[101.9843,2.3982],[101.994,2.3998],[102.0116,2.4087],[102.0273,2.4276],[102.0269,2.4335],[102.0301,2.4398],[102.03,2.5288],[102.0277,2.5288],[102.0276,2.5325],[102.0299,2.5326],[102.03,2.5433],[102.0106,2.5432],[102.011,2.5708],[101.9823,2.5719]]]]}},{"type":"Feature","properties":{"c":"N.33","n":"Sri Tanjung","w":"PH","p":"PKR","cand":"Rajasekaran a/l Gunnasekaran (Dr. Raja)","pct":50.4,"maj":1335,"nc":5,"tv":13289,"unc":false,"rw":"BN","rp":"MIC","rcand":"Achuthan a/l Alagan (Acu)","rpct":40.4},"geometry":{"type":"Polygon","coordinates":[[[101.7989,2.5428],[101.7943,2.5348],[101.7894,2.532],[101.7907,2.5213],[101.7931,2.5225],[101.7962,2.52],[101.796,2.5217],[101.7997,2.5205],[101.8054,2.5231],[101.8175,2.5216],[101.821,2.5179],[101.8265,2.5178],[101.8259,2.5154],[101.8292,2.5137],[101.8314,2.5206],[101.8354,2.5187],[101.8383,2.512],[101.848,2.5151],[101.8584,2.5242],[101.8589,2.5203],[101.8803,2.5196],[101.8796,2.5365],[101.8779,2.536],[101.8679,2.5494],[101.8616,2.5402],[101.8618,2.5442],[101.8422,2.5443],[101.8394,2.547],[101.8394,2.5526],[101.8172,2.5537],[101.8182,2.5562],[101.8161,2.5573],[101.8077,2.5563],[101.8067,2.5584],[101.8005,2.5425],[101.7989,2.5428]]]}},{"type":"Feature","properties":{"c":"N.34","n":"Gemas","w":"PN","p":"WAWASAN","cand":"Ridzuan bin Ahmad","pct":78.1,"maj":12624,"nc":3,"tv":20694,"unc":false,"rw":"PH","rp":"PKR","rcand":"Siti 'Aishah binti Seman @ Othman","rpct":17.1},"geometry":{"type":"Polygon","coordinates":[[[102.6044,2.65],[102.6008,2.6532],[102.5964,2.6509],[102.5838,2.6623],[102.5687,2.6558],[102.5552,2.6702],[102.5555,2.6725],[102.551,2.6715],[102.5512,2.6837],[102.4287,2.6897],[102.4215,2.6816],[102.4244,2.6794],[102.4237,2.673],[102.428,2.668],[102.428,2.6572],[102.4142,2.6484],[102.4155,2.6408],[102.4134,2.6397],[102.4134,2.6274],[102.4209,2.618],[102.4218,2.6113],[102.4526,2.5677],[102.4985,2.5975],[102.5106,2.5983],[102.5151,2.5949],[102.5255,2.5952],[102.5382,2.6025],[102.5446,2.5982],[102.5489,2.6011],[102.5485,2.5977],[102.5537,2.5992],[102.5548,2.5965],[102.5603,2.5972],[102.561,2.5798],[102.5412,2.5692],[102.5345,2.5601],[102.5248,2.5615],[102.519,2.5593],[102.5103,2.5482],[102.536,2.5265],[102.5487,2.5218],[102.5695,2.4993],[102.6082,2.4983],[102.6083,2.5086],[102.6191,2.5201],[102.6105,2.5348],[102.6109,2.5506],[102.6149,2.5563],[102.6069,2.5673],[102.6167,2.582],[102.6236,2.585],[102.6252,2.5893],[102.6327,2.5897],[102.6389,2.6025],[102.6385,2.6104],[102.6273,2.6156],[102.6254,2.6311],[102.6315,2.6478],[102.6044,2.65]]]}},{"type":"Feature","properties":{"c":"N.35","n":"Gemencheh","w":"BN","p":"UMNO","cand":"Suhaimizan bin Bizar (Hai)","pct":71.8,"maj":7393,"nc":2,"tv":16957,"unc":false,"rw":"PH","rp":"AMANAH","rcand":"Abd Latif bin A Tambi","rpct":28.2},"geometry":{"type":"Polygon","coordinates":[[[102.329,2.5563],[102.3425,2.5568],[102.3476,2.5534],[102.3486,2.5491],[102.3524,2.5527],[102.3557,2.5456],[102.361,2.5462],[102.3661,2.5436],[102.3664,2.5411],[102.363,2.5401],[102.3647,2.5378],[102.3679,2.5393],[102.3713,2.5296],[102.3863,2.5299],[102.3909,2.5208],[102.394,2.5205],[102.3949,2.5168],[102.3865,2.5079],[102.3754,2.5086],[102.3704,2.5057],[102.3648,2.4899],[102.4158,2.4748],[102.4334,2.4669],[102.4319,2.4575],[102.5101,2.4377],[102.563,2.4192],[102.5875,2.416],[102.5943,2.4097],[102.5941,2.4199],[102.5907,2.421],[102.5966,2.4547],[102.6088,2.4673],[102.6155,2.468],[102.6159,2.4765],[102.6082,2.4983],[102.5695,2.4993],[102.5487,2.5218],[102.536,2.5265],[102.5103,2.5482],[102.519,2.5593],[102.5248,2.5615],[102.5345,2.5601],[102.5412,2.5692],[102.561,2.5798],[102.5608,2.5964],[102.5548,2.5965],[102.5537,2.5992],[102.5485,2.5977],[102.5489,2.6011],[102.5453,2.5983],[102.5402,2.5993],[102.5382,2.6025],[102.5255,2.5952],[102.5151,2.5949],[102.5106,2.5983],[102.4985,2.5975],[102.4526,2.5677],[102.4218,2.6113],[102.4209,2.618],[102.4134,2.6274],[102.4134,2.6397],[102.4155,2.6408],[102.4142,2.6484],[102.428,2.6572],[102.428,2.668],[102.4237,2.673],[102.4244,2.6794],[102.4215,2.6816],[102.4287,2.6897],[102.3244,2.5722],[102.3296,2.5724],[102.329,2.5563]]]}},{"type":"Feature","properties":{"c":"N.36","n":"Repah","w":"BN","p":"MCA","cand":"Koh Kim Swee","pct":51.2,"maj":444,"nc":2,"tv":19114,"unc":false,"rw":"PH","rp":"DAP","rcand":"Veerapan a/l Superamaniam","rpct":48.8},"geometry":{"type":"Polygon","coordinates":[[[102.2033,2.5434],[102.1983,2.5403],[102.1957,2.5346],[102.1961,2.5204],[102.2037,2.5123],[102.2124,2.5078],[102.214,2.5018],[102.2076,2.4958],[102.2093,2.4904],[102.2052,2.4826],[102.2314,2.4665],[102.2763,2.4587],[102.319,2.4798],[102.3648,2.4899],[102.373,2.5082],[102.3865,2.5079],[102.3949,2.5168],[102.3863,2.5299],[102.3713,2.5296],[102.3679,2.5393],[102.3647,2.5378],[102.363,2.5401],[102.3664,2.5411],[102.3661,2.5436],[102.361,2.5462],[102.3557,2.5456],[102.3518,2.5529],[102.3486,2.5491],[102.3476,2.5534],[102.3425,2.5568],[102.329,2.5563],[102.3258,2.5397],[102.3098,2.5372],[102.2739,2.5406],[102.2699,2.5386],[102.2692,2.5408],[102.256,2.5425],[102.237,2.5412],[102.2347,2.5446],[102.2258,2.5348],[102.216,2.5422],[102.2138,2.5389],[102.211,2.5389],[102.21,2.5414],[102.2033,2.5434]]]}}]}