{"type":"FeatureCollection","features":[{"type":"Feature","properties":{"c":"N.01","n":"Buloh Kasap","w":"BN","p":"UMNO","cand":"Zahari bin Sarip","pct":72.0},"geometry":{"type":"Polygon","coordinates":[[[102.6551,2.7089],[102.6254,2.6311],[102.6273,2.6156],[102.6385,2.6104],[102.6389,2.6025],[102.6327,2.5897],[102.6252,2.5893],[102.6236,2.585],[102.6167,2.582],[102.6492,2.5854],[102.681,2.5828],[102.6904,2.5843],[102.7207,2.5789],[102.731,2.5694],[102.7578,2.5537],[102.7543,2.545],[102.7563,2.5317],[102.7576,2.5353],[102.7659,2.533],[102.7707,2.5396],[102.774,2.536],[102.7832,2.5327],[102.7931,2.5454],[102.8055,2.5465],[102.8055,2.5497],[102.8026,2.5513],[102.8044,2.5548],[102.8146,2.5496],[102.8167,2.5461],[102.8211,2.5487],[102.8265,2.5641],[102.826,2.5831],[102.8307,2.5955],[102.8345,2.5956],[102.8362,2.599],[102.8322,2.6058],[102.8344,2.611],[102.8422,2.6148],[102.8469,2.6265],[102.8924,2.6845],[102.7933,2.8055],[102.7851,2.8047],[102.7026,2.8315],[102.6551,2.7089]]]}},{"type":"Feature","properties":{"c":"N.02","n":"Jementah","w":"BN","p":"MCA","cand":"See Ann Giap","pct":46.3},"geometry":{"type":"Polygon","coordinates":[[[102.6082,2.4983],[102.6145,2.4808],[102.6318,2.4813],[102.633,2.4626],[102.6217,2.4472],[102.6295,2.4427],[102.6297,2.4318],[102.6542,2.4091],[102.6681,2.4232],[102.6719,2.42],[102.6696,2.4137],[102.6709,2.4046],[102.68,2.4005],[102.681,2.3965],[102.6878,2.3952],[102.6913,2.3975],[102.6886,2.4051],[102.6918,2.4068],[102.6901,2.4104],[102.6939,2.4142],[102.7009,2.4096],[102.6992,2.4157],[102.7065,2.4179],[102.7095,2.4245],[102.7161,2.4293],[102.7257,2.4126],[102.7297,2.4099],[102.7406,2.4109],[102.7428,2.4089],[102.7519,2.4144],[102.7688,2.4152],[102.7782,2.4081],[102.7789,2.3983],[102.7948,2.3947],[102.7991,2.3993],[102.8034,2.3924],[102.8067,2.3927],[102.8113,2.3993],[102.8089,2.4008],[102.8113,2.4042],[102.804,2.413],[102.8044,2.4157],[102.8017,2.4165],[102.8043,2.4176],[102.8007,2.4195],[102.8026,2.4208],[102.7996,2.4234],[102.7992,2.427],[102.8027,2.4281],[102.8009,2.4316],[102.8027,2.4328],[102.7987,2.4356],[102.8026,2.4405],[102.8004,2.4455],[102.7935,2.4513],[102.7956,2.4527],[102.792,2.4527],[102.7949,2.4611],[102.7851,2.4607],[102.7814,2.4657],[102.7815,2.47],[102.7786,2.4712],[102.7791,2.4774],[102.7755,2.4799],[102.7763,2.4829],[102.7872,2.4801],[102.7961,2.4856],[102.7975,2.4846],[102.8018,2.4937],[102.8097,2.499],[102.8196,2.4975],[102.824,2.5009],[102.8288,2.4987],[102.8307,2.5027],[102.8281,2.5053],[102.8344,2.5079],[102.8312,2.5079],[102.8293,2.513],[102.821,2.505],[102.8187,2.5077],[102.8213,2.5102],[102.8216,2.5171],[102.8133,2.5204],[102.8085,2.5159],[102.8007,2.5175],[102.7832,2.5327],[102.774,2.536],[102.7707,2.5396],[102.7659,2.533],[102.7576,2.5353],[102.7563,2.5317],[102.7543,2.545],[102.7578,2.5537],[102.731,2.5694],[102.7207,2.5789],[102.6904,2.5843],[102.681,2.5828],[102.6492,2.5854],[102.6167,2.582],[102.6069,2.5673],[102.6149,2.5563],[102.6109,2.5506],[102.6105,2.5348],[102.6191,2.5201],[102.6083,2.5086],[102.6082,2.4983]]]}},{"type":"Feature","properties":{"c":"N.03","n":"Pemanis","w":"BN","p":"UMNO","cand":"Anuar bin Abdul Manap","pct":68.1},"geometry":{"type":"Polygon","coordinates":[[[102.7832,2.5327],[102.8007,2.5175],[102.8085,2.5159],[102.8133,2.5204],[102.8216,2.5171],[102.8213,2.5102],[102.8187,2.5077],[102.821,2.505],[102.8271,2.5125],[102.8306,2.5123],[102.8312,2.5079],[102.8344,2.5068],[102.8281,2.5053],[102.8307,2.5027],[102.8288,2.4987],[102.8581,2.5057],[102.8705,2.5042],[102.8725,2.4992],[102.8774,2.4982],[102.8805,2.5],[102.8835,2.4961],[102.8874,2.5017],[102.9019,2.4974],[102.9154,2.4854],[102.916,2.4818],[102.918,2.4824],[102.9395,2.5221],[102.936,2.5273],[102.9236,2.5308],[102.9253,2.537],[102.9199,2.536],[102.9173,2.5422],[102.9221,2.5427],[102.9279,2.5492],[102.9266,2.5533],[102.9323,2.5613],[102.9351,2.5585],[102.9386,2.5592],[102.9418,2.5641],[102.9485,2.5654],[102.9494,2.5626],[102.954,2.5609],[102.9628,2.5641],[102.9694,2.5946],[102.8912,2.6859],[102.8924,2.6845],[102.8446,2.6231],[102.8422,2.6148],[102.8344,2.611],[102.8322,2.6058],[102.8362,2.599],[102.8345,2.5956],[102.8307,2.5955],[102.826,2.5831],[102.8265,2.5641],[102.8211,2.5487],[102.8167,2.5461],[102.8146,2.5496],[102.8044,2.5548],[102.8026,2.5513],[102.8055,2.5497],[102.8055,2.5465],[102.7931,2.5454],[102.7832,2.5327]]]}},{"type":"Feature","properties":{"c":"N.04","n":"Kemelah","w":"BN","p":"MIC","cand":"Raven Kumar a/l Krishnasamy","pct":50.6},"geometry":{"type":"Polygon","coordinates":[[[102.9694,2.5946],[102.9628,2.5641],[102.954,2.5609],[102.9494,2.5626],[102.9485,2.5654],[102.9418,2.5641],[102.9386,2.5592],[102.9351,2.5585],[102.9323,2.5613],[102.9266,2.5533],[102.9279,2.5492],[102.9221,2.5427],[102.9173,2.5422],[102.9199,2.536],[102.9253,2.537],[102.9236,2.5308],[102.936,2.5273],[102.9395,2.5221],[102.918,2.4824],[102.916,2.4818],[102.9154,2.4854],[102.9019,2.4974],[102.8874,2.5017],[102.8835,2.4961],[102.8805,2.5],[102.8774,2.4982],[102.8725,2.4992],[102.8705,2.5042],[102.8581,2.5057],[102.843,2.5007],[102.8363,2.502],[102.8305,2.4983],[102.824,2.5009],[102.8196,2.4975],[102.8097,2.499],[102.8018,2.4937],[102.7975,2.4846],[102.7915,2.4835],[102.7914,2.4812],[102.7872,2.4801],[102.7763,2.4829],[102.7755,2.4799],[102.7791,2.4774],[102.7777,2.4751],[102.7786,2.4712],[102.7815,2.47],[102.7814,2.4657],[102.7851,2.4607],[102.7949,2.4611],[102.792,2.4527],[102.7956,2.4527],[102.7935,2.4513],[102.8004,2.4455],[102.8026,2.4405],[102.7987,2.4356],[102.8027,2.4328],[102.8009,2.4316],[102.8027,2.4281],[102.7992,2.427],[102.7996,2.4234],[102.8026,2.4208],[102.8007,2.4195],[102.8043,2.4176],[102.8017,2.4165],[102.8044,2.4157],[102.804,2.413],[102.8113,2.4042],[102.8089,2.4008],[102.8113,2.3993],[102.8067,2.3927],[102.8062,2.3864],[102.8105,2.3866],[102.8077,2.3846],[102.809,2.3821],[102.8062,2.3808],[102.8032,2.3829],[102.8055,2.3786],[102.8009,2.3801],[102.8055,2.3748],[102.8141,2.3712],[102.8183,2.3731],[102.8156,2.3699],[102.8188,2.3684],[102.8199,2.3723],[102.8227,2.3689],[102.827,2.3718],[102.829,2.3802],[102.8333,2.3781],[102.8339,2.3747],[102.8408,2.3764],[102.8385,2.3837],[102.8399,2.3886],[102.8421,2.3835],[102.8451,2.3843],[102.8431,2.3881],[102.845,2.389],[102.8471,2.3862],[102.8499,2.3888],[102.8514,2.3929],[102.8485,2.3964],[102.85,2.4026],[102.854,2.4021],[102.8534,2.408],[102.8593,2.415],[102.8621,2.4127],[102.8623,2.4086],[102.8699,2.4142],[102.8831,2.4104],[102.8827,2.4023],[102.888,2.3987],[102.8906,2.3999],[102.8927,2.3947],[102.8944,2.3961],[102.9005,2.3939],[102.9002,2.3971],[102.908,2.396],[102.9226,2.3836],[102.9254,2.4349],[102.9459,2.4717],[102.9569,2.4657],[102.9575,2.4682],[102.9471,2.4786],[102.95,2.4812],[102.9477,2.4836],[102.9536,2.4853],[102.9462,2.4989],[102.9519,2.4984],[102.9542,2.4902],[102.9652,2.4943],[102.9696,2.4921],[102.9731,2.484],[102.9801,2.481],[102.989,2.482],[102.9904,2.48],[102.9969,2.4845],[103.0006,2.4839],[103.0008,2.4808],[103.0073,2.4829],[103.0125,2.4741],[103.016,2.4751],[103.0194,2.4723],[103.0274,2.4731],[103.0357,2.4778],[103.0391,2.4758],[103.0509,2.4768],[103.0554,2.4741],[103.0584,2.4835],[103.0566,2.4857],[103.0552,2.5155],[103.0551,2.5575],[102.9694,2.5946]]]}},{"type":"Feature","properties":{"c":"N.05","n":"Tenang","w":"BN","p":"UMNO","cand":"Mohd Azahar bin Ibrahim","pct":56.2},"geometry":{"type":"Polygon","coordinates":[[[103.0551,2.5575],[103.0552,2.5155],[103.0566,2.4857],[103.0584,2.4835],[103.0554,2.4741],[103.0509,2.4768],[103.0391,2.4758],[103.0357,2.4778],[103.0274,2.4731],[103.0194,2.4723],[103.016,2.4751],[103.0125,2.4741],[103.0073,2.4829],[103.0008,2.4808],[103.0006,2.4839],[102.9969,2.4845],[102.9904,2.48],[102.989,2.482],[102.9801,2.481],[102.9731,2.484],[102.9696,2.4921],[102.9652,2.4943],[102.9542,2.4902],[102.9519,2.4984],[102.9462,2.4989],[102.9536,2.4853],[102.9477,2.4836],[102.95,2.4812],[102.9471,2.4786],[102.9575,2.4682],[102.9569,2.4657],[102.9459,2.4717],[102.9254,2.4349],[102.9227,2.3739],[102.9296,2.3695],[102.9371,2.3572],[102.9472,2.349],[102.9488,2.3503],[102.9597,2.3346],[102.9692,2.3319],[102.9718,2.3342],[102.9775,2.3307],[102.981,2.3319],[102.9812,2.3349],[102.9891,2.3328],[102.9997,2.3459],[103.0017,2.3556],[102.9725,2.3761],[102.9834,2.3911],[102.9994,2.3796],[103.0057,2.3881],[103.0115,2.3846],[103.0145,2.3889],[103.013,2.3917],[103.0167,2.3934],[103.0168,2.3958],[103.0197,2.3955],[103.019,2.3844],[103.0291,2.3798],[103.0273,2.3783],[103.0298,2.3756],[103.0273,2.3726],[103.03,2.369],[103.0333,2.369],[103.0347,2.3575],[103.0413,2.3572],[103.0419,2.3538],[103.0565,2.349],[103.077,2.3778],[103.0753,2.3923],[103.146,2.5182],[103.0551,2.5575]]]}},{"type":"Feature","properties":{"c":"N.06","n":"Bekok","w":"BN","p":"MCA","cand":"Tan Chong","pct":63.2},"geometry":{"type":"Polygon","coordinates":[[[103.146,2.5182],[103.0753,2.3923],[103.077,2.3778],[103.0565,2.349],[103.0419,2.3538],[103.0413,2.3572],[103.0347,2.3575],[103.0333,2.369],[103.03,2.369],[103.0273,2.3726],[103.0298,2.3756],[103.0273,2.3783],[103.0291,2.3798],[103.019,2.3844],[103.0197,2.3955],[103.0168,2.3958],[103.0167,2.3934],[103.013,2.3917],[103.0145,2.3889],[103.0115,2.3846],[103.0057,2.3881],[102.9994,2.3796],[102.9834,2.3911],[102.9725,2.3761],[103.0017,2.3556],[102.9997,2.3459],[102.9891,2.3328],[102.9912,2.3262],[103.0252,2.3023],[102.9623,2.2031],[102.9962,2.1798],[103.0082,2.1795],[103.0398,2.1698],[103.0882,2.1698],[103.1054,2.1669],[103.1061,2.2158],[103.1511,2.2434],[103.1511,2.2505],[103.1757,2.2482],[103.1876,2.2606],[103.3022,2.3031],[103.3792,2.3787],[103.2905,2.5769],[103.146,2.5182]]]}},{"type":"Feature","properties":{"c":"N.07","n":"Bukit Kepong","w":"BN","p":"UMNO","cand":"Ahmad Syar'E bin Yusof","pct":61.4},"geometry":{"type":"Polygon","coordinates":[[[102.6542,2.4091],[102.6112,2.3715],[102.6663,2.3654],[102.6735,2.3534],[102.6698,2.3516],[102.6791,2.3325],[102.6777,2.3234],[102.672,2.3124],[102.7019,2.2906],[102.7053,2.303],[102.7174,2.2965],[102.7175,2.2943],[102.7117,2.2906],[102.711,2.2844],[102.7025,2.2719],[102.7043,2.2685],[102.7011,2.2686],[102.6902,2.2487],[102.6858,2.2265],[102.6926,2.2256],[102.692,2.2176],[102.6858,2.2174],[102.6867,2.2109],[102.6796,2.2077],[102.6791,2.2009],[102.6823,2.2],[102.6781,2.1881],[102.6816,2.1881],[102.6841,2.1845],[102.688,2.188],[102.6928,2.1997],[102.7025,2.2059],[102.7102,2.2071],[102.7156,2.1992],[102.7156,2.1951],[102.7063,2.1807],[102.7068,2.1765],[102.7126,2.1736],[102.7344,2.1814],[102.7417,2.1801],[102.7487,2.1907],[102.749,2.2003],[102.7601,2.2014],[102.7581,2.1961],[102.7615,2.1913],[102.7625,2.1828],[102.768,2.1843],[102.7669,2.1783],[102.7729,2.1706],[102.7793,2.1699],[102.7791,2.1671],[102.7693,2.1669],[102.7649,2.1589],[102.7658,2.156],[102.7696,2.155],[102.767,2.1498],[102.7682,2.1412],[102.7709,2.1425],[102.7746,2.1388],[102.7762,2.1223],[102.7712,2.1149],[102.7779,2.1124],[102.772,2.1058],[102.7741,2.0905],[102.7711,2.0866],[102.7719,2.0774],[102.7695,2.0764],[102.7637,2.0625],[102.7614,2.0629],[102.7611,2.0592],[102.7564,2.0571],[102.7718,2.0475],[102.7757,2.0478],[102.7769,2.0448],[102.8375,2.0177],[102.8532,2.0391],[102.8599,2.0423],[102.8628,2.0406],[102.8744,2.0614],[102.8675,2.0776],[102.8721,2.0863],[102.8875,2.0825],[102.8905,2.0867],[103.0252,2.3023],[102.9912,2.3262],[102.9891,2.3328],[102.9812,2.3349],[102.981,2.3319],[102.9775,2.3307],[102.9718,2.3342],[102.9692,2.3319],[102.9597,2.3346],[102.9488,2.3503],[102.9472,2.349],[102.9371,2.3572],[102.9296,2.3695],[102.9227,2.3739],[102.9226,2.3836],[102.9172,2.3891],[102.9141,2.3892],[102.908,2.396],[102.9002,2.3971],[102.9005,2.3939],[102.8944,2.3961],[102.8927,2.3947],[102.8906,2.3999],[102.888,2.3987],[102.8827,2.4023],[102.8831,2.4104],[102.8769,2.411],[102.876,2.4132],[102.8721,2.4122],[102.8699,2.4142],[102.8623,2.4086],[102.8621,2.4127],[102.8593,2.415],[102.8563,2.4127],[102.8534,2.408],[102.854,2.4021],[102.85,2.4026],[102.8485,2.3964],[102.8514,2.3929],[102.8499,2.3888],[102.8471,2.3862],[102.845,2.389],[102.8431,2.3881],[102.8451,2.3843],[102.8421,2.3835],[102.8399,2.3886],[102.8385,2.3837],[102.8408,2.3764],[102.8339,2.3747],[102.8333,2.3781],[102.829,2.3802],[102.827,2.3718],[102.8227,2.3689],[102.8199,2.3723],[102.8188,2.3684],[102.8156,2.3699],[102.8183,2.3731],[102.8141,2.3712],[102.8055,2.3748],[102.8009,2.3801],[102.8055,2.3786],[102.8032,2.3829],[102.8062,2.3808],[102.809,2.3821],[102.8077,2.3846],[102.8105,2.3866],[102.8062,2.3864],[102.8067,2.3927],[102.8034,2.3924],[102.7999,2.3962],[102.8004,2.3988],[102.7948,2.3947],[102.7789,2.3983],[102.7782,2.4081],[102.7688,2.4152],[102.7519,2.4144],[102.7428,2.4089],[102.7406,2.4109],[102.7297,2.4099],[102.7257,2.4126],[102.7161,2.4293],[102.7095,2.4245],[102.7065,2.4179],[102.6992,2.4157],[102.7009,2.4096],[102.6939,2.4142],[102.6901,2.4104],[102.6918,2.4068],[102.6886,2.4051],[102.6913,2.3975],[102.6878,2.3952],[102.681,2.3965],[102.68,2.4005],[102.6709,2.4046],[102.6696,2.4137],[102.6719,2.42],[102.6681,2.4232],[102.6542,2.4091]]]}},{"type":"Feature","properties":{"c":"N.08","n":"Bukit Pasir","w":"BN","p":"UMNO","cand":"Mohamad Fazli bin Mohamad Salleh","pct":57.5},"geometry":{"type":"Polygon","coordinates":[[[102.6841,2.1845],[102.6709,2.1763],[102.6603,2.1737],[102.6587,2.1682],[102.6592,2.1648],[102.6634,2.1612],[102.6812,2.1634],[102.682,2.1508],[102.6786,2.1439],[102.6679,2.1384],[102.6569,2.1378],[102.6535,2.1419],[102.6539,2.1591],[102.6473,2.1609],[102.6373,2.1558],[102.6327,2.1516],[102.6325,2.1477],[102.634,2.1436],[102.6467,2.1361],[102.6461,2.1303],[102.6368,2.1257],[102.6236,2.1329],[102.6213,2.1321],[102.6122,2.1128],[102.6044,2.1168],[102.6033,2.1225],[102.6064,2.1342],[102.6135,2.1386],[102.6217,2.1381],[102.6239,2.1452],[102.6145,2.1506],[102.5981,2.149],[102.5946,2.1418],[102.5971,2.1367],[102.5931,2.1309],[102.5867,2.1291],[102.5898,2.1234],[102.5885,2.1185],[102.5818,2.1111],[102.5823,2.1074],[102.5865,2.1043],[102.5972,2.1066],[102.6003,2.1051],[102.603,2.1009],[102.6015,2.095],[102.5949,2.0893],[102.5888,2.0897],[102.5767,2.1062],[102.572,2.1056],[102.5688,2.0994],[102.5669,2.0834],[102.5717,2.0785],[102.5801,2.0796],[102.5812,2.0824],[102.5901,2.0749],[102.5981,2.0741],[102.5989,2.0694],[102.6022,2.0715],[102.6072,2.0619],[102.6108,2.0607],[102.6158,2.0643],[102.6195,2.0627],[102.6225,2.0675],[102.6184,2.0723],[102.6521,2.0868],[102.6563,2.0754],[102.6603,2.0772],[102.6655,2.073],[102.6688,2.0754],[102.6764,2.0747],[102.6746,2.0712],[102.6826,2.0669],[102.6968,2.0674],[102.7007,2.0652],[102.6947,2.0533],[102.6899,2.0527],[102.6876,2.0421],[102.7004,2.0384],[102.7207,2.0411],[102.727,2.0457],[102.7611,2.0592],[102.7602,2.0614],[102.7637,2.0625],[102.7695,2.0764],[102.7719,2.0774],[102.7711,2.0866],[102.7741,2.0905],[102.772,2.1058],[102.7779,2.1124],[102.7712,2.1149],[102.7762,2.1223],[102.7746,2.1388],[102.7709,2.1425],[102.7682,2.1412],[102.767,2.1498],[102.7696,2.155],[102.7658,2.156],[102.7649,2.1589],[102.7693,2.1669],[102.7791,2.1671],[102.7793,2.1699],[102.7729,2.1706],[102.7669,2.1783],[102.768,2.1843],[102.7625,2.1828],[102.7615,2.1913],[102.7581,2.1961],[102.7601,2.2014],[102.749,2.2003],[102.7487,2.1907],[102.7417,2.1801],[102.7344,2.1814],[102.7126,2.1736],[102.7068,2.1765],[102.7063,2.1807],[102.7156,2.1951],[102.7156,2.1992],[102.7102,2.2071],[102.7068,2.2073],[102.6928,2.1997],[102.688,2.188],[102.6841,2.1845]]]}},{"type":"Feature","properties":{"c":"N.09","n":"Gambir","w":"BN","p":"UMNO","cand":"Sahrihan bin Jani","pct":61.0},"geometry":{"type":"Polygon","coordinates":[[[102.5754,2.2351],[102.5957,2.2302],[102.6161,2.2147],[102.6131,2.1694],[102.6237,2.1839],[102.6285,2.187],[102.6313,2.1816],[102.6292,2.1788],[102.6343,2.1761],[102.6376,2.1645],[102.6424,2.1584],[102.6473,2.1609],[102.6539,2.1591],[102.6535,2.1419],[102.6569,2.1378],[102.6679,2.1384],[102.6786,2.1439],[102.682,2.1508],[102.6812,2.1634],[102.6634,2.1612],[102.6592,2.1648],[102.6587,2.1682],[102.6603,2.1737],[102.6709,2.1763],[102.6841,2.1845],[102.6816,2.1881],[102.6781,2.1881],[102.6823,2.2],[102.6791,2.2009],[102.6796,2.2077],[102.6867,2.2109],[102.6858,2.2174],[102.692,2.2176],[102.6926,2.2256],[102.6858,2.2265],[102.6902,2.2487],[102.7011,2.2686],[102.7043,2.2685],[102.7025,2.2719],[102.711,2.2844],[102.7117,2.2906],[102.7175,2.2943],[102.7174,2.2965],[102.7053,2.303],[102.7019,2.2906],[102.672,2.3124],[102.6777,2.3234],[102.6791,2.3325],[102.6698,2.3516],[102.6735,2.3534],[102.6663,2.3654],[102.6112,2.3715],[102.6122,2.3399],[102.6018,2.3368],[102.5965,2.333],[102.5963,2.3303],[102.5935,2.3301],[102.5944,2.3122],[102.598,2.3062],[102.591,2.2983],[102.5963,2.2944],[102.6131,2.258],[102.6099,2.256],[102.6102,2.2536],[102.5985,2.2513],[102.5747,2.2399],[102.5754,2.2351]]]}},{"type":"Feature","properties":{"c":"N.10","n":"Tangkak","w":"BN","p":"MCA","cand":"Haw Chin Teck","pct":56.4},"geometry":{"type":"Polygon","coordinates":[[[102.5943,2.4097],[102.5657,2.3962],[102.5553,2.3963],[102.5396,2.3902],[102.5356,2.3827],[102.538,2.3776],[102.5352,2.371],[102.5242,2.3652],[102.5253,2.3594],[102.513,2.3551],[102.5087,2.3409],[102.5141,2.3295],[102.5139,2.3219],[102.51,2.3202],[102.5065,2.3105],[102.5093,2.306],[102.502,2.2941],[102.4915,2.2568],[102.4939,2.2474],[102.4874,2.2459],[102.4954,2.237],[102.4949,2.2256],[102.5,2.2251],[102.5018,2.2224],[102.5061,2.2247],[102.507,2.2217],[102.5136,2.223],[102.5131,2.2187],[102.5197,2.2169],[102.5231,2.2211],[102.5251,2.2158],[102.5278,2.2158],[102.5417,2.2214],[102.5446,2.2187],[102.5508,2.2197],[102.556,2.2269],[102.5617,2.229],[102.5615,2.2263],[102.5691,2.2167],[102.5703,2.2336],[102.5754,2.2351],[102.5747,2.2399],[102.5985,2.2513],[102.6102,2.2536],[102.6099,2.256],[102.6131,2.258],[102.5963,2.2944],[102.5913,2.2971],[102.598,2.3062],[102.5944,2.3122],[102.5935,2.3301],[102.5963,2.3303],[102.5965,2.333],[102.6018,2.3368],[102.6122,2.3399],[102.6112,2.373],[102.6542,2.4091],[102.6297,2.4318],[102.6295,2.4427],[102.6217,2.4472],[102.633,2.4626],[102.6318,2.4813],[102.6145,2.4808],[102.6155,2.468],[102.6088,2.4673],[102.5966,2.4547],[102.5907,2.421],[102.5941,2.4199],[102.5943,2.4097]]]}},{"type":"Feature","properties":{"c":"N.11","n":"Serom","w":"BN","p":"UMNO","cand":"Nadhirah Afiqah binti Abdull Rahim","pct":60.0},"geometry":{"type":"Polygon","coordinates":[[[102.4949,2.2256],[102.4947,2.2207],[102.4689,2.2039],[102.4678,2.1967],[102.4728,2.1976],[102.4773,2.1871],[102.4749,2.184],[102.4783,2.1804],[102.4855,2.1782],[102.4904,2.1806],[102.4954,2.173],[102.5025,2.1728],[102.5046,2.1679],[102.5123,2.1672],[102.5164,2.17],[102.5165,2.1648],[102.525,2.1679],[102.5248,2.1648],[102.5307,2.1683],[102.5292,2.1608],[102.5345,2.1586],[102.5309,2.1547],[102.5373,2.1446],[102.5345,2.1345],[102.5227,2.1261],[102.5223,2.1214],[102.5167,2.1198],[102.5068,2.122],[102.5044,2.1274],[102.4992,2.1261],[102.5027,2.1194],[102.4887,2.1211],[102.4812,2.1168],[102.4814,2.1119],[102.4869,2.1075],[102.4898,2.098],[102.5237,2.0777],[102.5399,2.0587],[102.5522,2.058],[102.5646,2.0488],[102.5724,2.0578],[102.5595,2.069],[102.5526,2.0821],[102.5552,2.084],[102.5644,2.0819],[102.5669,2.0834],[102.5688,2.0994],[102.572,2.1056],[102.5767,2.1062],[102.5888,2.0897],[102.5949,2.0893],[102.6015,2.095],[102.603,2.1009],[102.6003,2.1051],[102.5972,2.1066],[102.5865,2.1043],[102.5823,2.1074],[102.5818,2.1111],[102.5885,2.1185],[102.5898,2.1234],[102.5867,2.1291],[102.5931,2.1309],[102.5971,2.1367],[102.5946,2.1418],[102.5981,2.149],[102.6145,2.1506],[102.6239,2.1452],[102.6217,2.1381],[102.6135,2.1386],[102.6064,2.1342],[102.6033,2.1225],[102.6044,2.1168],[102.6122,2.1128],[102.6213,2.1321],[102.6236,2.1329],[102.6368,2.1257],[102.6461,2.1303],[102.6467,2.1361],[102.634,2.1436],[102.6325,2.1477],[102.6327,2.1516],[102.6424,2.1584],[102.6376,2.1645],[102.6343,2.1761],[102.6292,2.1788],[102.6313,2.1816],[102.6285,2.187],[102.6237,2.1839],[102.6131,2.1694],[102.6161,2.2147],[102.5957,2.2302],[102.5754,2.2351],[102.5703,2.2336],[102.5691,2.2167],[102.5615,2.2263],[102.5617,2.229],[102.556,2.2269],[102.5508,2.2197],[102.5446,2.2187],[102.5417,2.2214],[102.5278,2.2158],[102.5251,2.2158],[102.5231,2.2211],[102.5197,2.2169],[102.5131,2.2187],[102.5136,2.223],[102.507,2.2217],[102.5061,2.2247],[102.5018,2.2224],[102.5,2.2251],[102.4949,2.2256]]]}},{"type":"Feature","properties":{"c":"N.12","n":"Bentayan","w":"PH","p":"DAP","cand":"Ng Yak Howe","pct":64.1},"geometry":{"type":"Polygon","coordinates":[[[102.5669,2.0834],[102.5644,2.0819],[102.5552,2.084],[102.5526,2.0821],[102.5595,2.069],[102.5724,2.0578],[102.5676,2.0509],[102.5623,2.0487],[102.5721,2.0384],[102.5863,2.0477],[102.5807,2.0488],[102.5799,2.0528],[102.5828,2.0589],[102.5944,2.0601],[102.596,2.0578],[102.5959,2.0671],[102.5773,2.0667],[102.5782,2.0691],[102.5826,2.0693],[102.5805,2.0759],[102.5901,2.0749],[102.5812,2.0824],[102.5801,2.0796],[102.5717,2.0785],[102.5669,2.0834]]]}},{"type":"Feature","properties":{"c":"N.13","n":"Simpang Jeram","w":"PH","p":"AMANAH","cand":"Nazri bin Abdul Rahman","pct":41.0},"geometry":{"type":"Polygon","coordinates":[[[102.5901,2.0749],[102.5805,2.0759],[102.5826,2.0693],[102.5782,2.0691],[102.5773,2.0667],[102.5959,2.0671],[102.596,2.0578],[102.5944,2.0601],[102.5828,2.0589],[102.581,2.0563],[102.5807,2.0488],[102.5863,2.0477],[102.5814,2.0428],[102.5818,2.0384],[102.5843,2.0386],[102.6019,2.0201],[102.6267,2.0352],[102.6292,2.034],[102.63,2.0279],[102.6393,2.0281],[102.6421,2.0409],[102.6472,2.0439],[102.6489,2.0531],[102.644,2.0559],[102.6655,2.073],[102.6603,2.0772],[102.6563,2.0754],[102.6521,2.0868],[102.6184,2.0723],[102.6225,2.0675],[102.6195,2.0627],[102.6158,2.0643],[102.6108,2.0607],[102.6072,2.0619],[102.6022,2.0715],[102.5989,2.0694],[102.5981,2.0741],[102.5901,2.0749]]]}},{"type":"Feature","properties":{"c":"N.14","n":"Bukit Naning","w":"BN","p":"UMNO","cand":"Mohd Ghazali bin Sabari @ Atan","pct":52.9},"geometry":{"type":"Polygon","coordinates":[[[102.7564,2.0571],[102.727,2.0457],[102.7207,2.0411],[102.7004,2.0384],[102.6884,2.0406],[102.6899,2.0527],[102.6947,2.0533],[102.7007,2.0652],[102.6968,2.0674],[102.6826,2.0669],[102.6746,2.0712],[102.6764,2.0747],[102.6688,2.0754],[102.644,2.0559],[102.6489,2.0531],[102.6472,2.0439],[102.6421,2.0409],[102.6393,2.0281],[102.6453,2.025],[102.6466,2.0273],[102.6504,2.0272],[102.6539,2.0247],[102.6777,2.0205],[102.6777,2.025],[102.6798,2.0254],[102.6873,2.0191],[102.684,2.0142],[102.6732,2.0082],[102.6724,2.005],[102.6858,1.9899],[102.6831,1.9851],[102.6924,1.9819],[102.7009,1.9874],[102.7062,1.9855],[102.7117,1.9874],[102.7121,1.9834],[102.7152,1.9855],[102.7158,1.9819],[102.7223,1.9832],[102.7255,1.9891],[102.7421,1.9989],[102.7498,1.9666],[102.7559,1.9668],[102.7561,1.9618],[102.7744,1.9534],[102.7744,1.9557],[102.7863,1.961],[102.7935,1.9607],[102.7993,1.9571],[102.8375,2.0177],[102.7769,2.0448],[102.7757,2.0478],[102.7718,2.0475],[102.7564,2.0571]]]}},{"type":"Feature","properties":{"c":"N.15","n":"Maharani","w":"BN","p":"UMNO","cand":"Ashari bin Md. Sarip","pct":38.9},"geometry":{"type":"Polygon","coordinates":[[[102.5645,2.0466],[102.5474,2.046],[102.5437,2.0325],[102.5485,2.0246],[102.5856,1.9905],[102.5977,1.9824],[102.615,1.9632],[102.6353,1.978],[102.6409,1.9784],[102.6618,1.9932],[102.6732,2.0082],[102.684,2.0142],[102.6873,2.0191],[102.6798,2.0254],[102.6777,2.025],[102.6777,2.0205],[102.6539,2.0247],[102.6504,2.0272],[102.6466,2.0273],[102.6453,2.025],[102.6393,2.0281],[102.63,2.0279],[102.6292,2.034],[102.6267,2.0352],[102.6019,2.0201],[102.5843,2.0386],[102.5818,2.0384],[102.5814,2.0428],[102.5721,2.0384],[102.5645,2.0466]]]}},{"type":"Feature","properties":{"c":"N.16","n":"Sungai Balang","w":"BN","p":"UMNO","cand":"Selamat bin Takim","pct":60.8},"geometry":{"type":"Polygon","coordinates":[[[102.6724,2.005],[102.6618,1.9932],[102.6409,1.9784],[102.6353,1.978],[102.615,1.9632],[102.6286,1.9489],[102.6329,1.9497],[102.6333,1.9421],[102.6501,1.9239],[102.684,1.8727],[102.7058,1.8549],[102.7123,1.854],[102.7338,1.8673],[102.7439,1.8689],[102.7772,1.8663],[102.7782,1.8761],[102.7947,1.9235],[102.7993,1.9571],[102.7935,1.9607],[102.7863,1.961],[102.7744,1.9557],[102.7744,1.9534],[102.7561,1.9618],[102.7559,1.9668],[102.7498,1.9666],[102.7421,1.9989],[102.7255,1.9891],[102.7223,1.9832],[102.7158,1.9819],[102.7152,1.9855],[102.7121,1.9834],[102.7117,1.9874],[102.7062,1.9855],[102.7009,1.9874],[102.6924,1.9819],[102.6831,1.9851],[102.6858,1.9899],[102.6724,2.005]]]}},{"type":"Feature","properties":{"c":"N.17","n":"Semerah","w":"BN","p":"UMNO","cand":"Mohd Fared bin Mohd Khalid","pct":67.0},"geometry":{"type":"Polygon","coordinates":[[[102.8157,1.9823],[102.7993,1.9571],[102.7947,1.9235],[102.7762,1.8675],[102.7802,1.8661],[102.7818,1.8685],[102.7818,1.8661],[102.8104,1.8593],[102.8122,1.8617],[102.812,1.8588],[102.8502,1.8415],[102.8862,1.8152],[102.8952,1.8228],[102.9084,1.822],[102.9187,1.8288],[102.9214,1.8361],[102.9247,1.8362],[102.9252,1.8305],[102.927,1.8308],[102.9334,1.848],[102.9279,1.8499],[102.9305,1.8589],[102.9143,1.867],[102.9099,1.8855],[102.8952,1.8867],[102.8936,1.8959],[102.8976,1.903],[102.8815,1.9191],[102.8764,1.9187],[102.8721,1.9221],[102.8659,1.9313],[102.871,1.952],[102.8242,1.9748],[102.8157,1.9823]]]}},{"type":"Feature","properties":{"c":"N.18","n":"Sri Medan","w":"BN","p":"UMNO","cand":"Zulkurnain bin Kamisan","pct":75.6},"geometry":{"type":"Polygon","coordinates":[[[102.8375,2.0177],[102.8157,1.9823],[102.8242,1.9748],[102.871,1.952],[102.8659,1.9313],[102.8721,1.9221],[102.8764,1.9187],[102.8815,1.9191],[102.8933,1.9092],[102.9017,1.9153],[102.8964,1.9218],[102.9124,1.9413],[102.9116,1.9484],[102.9146,1.9515],[102.9201,1.9504],[102.9261,1.9624],[102.928,1.9591],[102.9329,1.9603],[102.9317,1.9658],[102.9345,1.9677],[102.9568,1.9503],[102.9567,1.9401],[102.9687,1.9371],[102.9737,1.9413],[102.972,1.9436],[102.9737,1.9482],[103.0147,1.9466],[103.01,1.9584],[103.0223,1.9667],[103.0239,1.9709],[103.022,1.974],[103.0251,1.9764],[103.02,1.9803],[103.0207,1.9845],[103.0248,1.9875],[103.022,1.9884],[103.0156,1.9993],[103.0071,1.9994],[103.0041,2.0071],[102.9964,2.0089],[102.993,2.0152],[103.0019,2.024],[103.0034,2.0323],[103.0086,2.0318],[103.0207,2.0441],[103.0174,2.0492],[103.0121,2.0491],[103.0114,2.0533],[102.9669,2.0889],[102.9574,2.0912],[102.9564,2.0959],[102.9208,2.1373],[102.8875,2.0825],[102.8721,2.0863],[102.8675,2.0776],[102.8744,2.0614],[102.8628,2.0406],[102.8599,2.0423],[102.8532,2.0391],[102.8375,2.0177]]]}},{"type":"Feature","properties":{"c":"N.19","n":"Yong Peng","w":"BN","p":"MCA","cand":"Ling Tian Soon (Ah Soon)","pct":60.2},"geometry":{"type":"Polygon","coordinates":[[[102.9623,2.2031],[102.9208,2.1373],[102.9564,2.0959],[102.9574,2.0912],[102.9669,2.0889],[103.0114,2.0533],[103.0121,2.0491],[103.0174,2.0492],[103.0207,2.0441],[103.0086,2.0318],[103.0034,2.0323],[103.0019,2.024],[102.993,2.0152],[102.9964,2.0089],[103.0041,2.0071],[103.0071,1.9994],[103.0156,1.9993],[103.022,1.9884],[103.0248,1.9875],[103.0207,1.9845],[103.0414,1.9844],[103.0438,1.9797],[103.0496,1.9771],[103.052,1.9791],[103.0539,1.9767],[103.0607,1.9762],[103.0726,1.9589],[103.0765,1.964],[103.0773,1.9786],[103.0696,1.9815],[103.068,1.9847],[103.0719,1.9933],[103.078,1.9945],[103.0794,1.9981],[103.0918,1.9938],[103.0998,1.9837],[103.1023,1.9846],[103.1119,1.9794],[103.125,1.98],[103.1298,1.9765],[103.1378,1.9633],[103.1477,1.9587],[103.1456,1.9538],[103.1422,1.9525],[103.1606,1.9388],[103.165,1.9439],[103.1664,1.9518],[103.1787,1.9556],[103.1971,1.9382],[103.208,1.9429],[103.2092,1.9599],[103.2163,1.9641],[103.2221,1.9641],[103.23,1.9742],[103.2545,1.9881],[103.2453,1.9995],[103.2398,1.9973],[103.1721,2.0977],[103.1738,2.1262],[103.1631,2.1394],[103.1653,2.1403],[103.1663,2.148],[103.1687,2.1502],[103.1054,2.1669],[103.0882,2.1698],[103.0398,2.1698],[103.0082,2.1795],[102.9962,2.1798],[102.9623,2.2031]]]}},{"type":"Feature","properties":{"c":"N.20","n":"Semarang","w":"BN","p":"UMNO","cand":"Samsolbari bin Jamali","pct":78.0},"geometry":{"type":"Polygon","coordinates":[[[103.0223,1.9667],[103.0311,1.9598],[103.0433,1.9562],[103.0514,1.9495],[103.0514,1.9454],[103.0433,1.9326],[103.0665,1.9297],[103.0732,1.9236],[103.0758,1.9098],[103.0882,1.9096],[103.0906,1.8943],[103.0953,1.8925],[103.097,1.8882],[103.0949,1.8769],[103.0972,1.8754],[103.1045,1.8771],[103.1049,1.8708],[103.1067,1.8705],[103.1128,1.8769],[103.1238,1.873],[103.1197,1.8714],[103.1226,1.8683],[103.1185,1.8673],[103.1291,1.8463],[103.1222,1.8457],[103.122,1.8333],[103.1277,1.8313],[103.1299,1.8232],[103.1401,1.8156],[103.1564,1.8228],[103.1633,1.8228],[103.1633,1.8205],[103.1892,1.8369],[103.1896,1.8601],[103.1934,1.8623],[103.1915,1.8671],[103.196,1.8651],[103.1996,1.8692],[103.1891,1.8781],[103.1974,1.8944],[103.2049,1.9008],[103.203,1.907],[103.1867,1.9143],[103.1838,1.9294],[103.1869,1.9335],[103.1912,1.9336],[103.1971,1.9382],[103.1855,1.9509],[103.1787,1.9556],[103.1696,1.9538],[103.1664,1.9518],[103.165,1.9439],[103.1606,1.9388],[103.1422,1.9525],[103.1456,1.9538],[103.1477,1.9587],[103.1378,1.9633],[103.1298,1.9765],[103.125,1.98],[103.1119,1.9794],[103.1023,1.9846],[103.0998,1.9837],[103.0918,1.9938],[103.0794,1.9981],[103.078,1.9945],[103.0719,1.9933],[103.068,1.9847],[103.0696,1.9815],[103.0773,1.9786],[103.0765,1.964],[103.0726,1.9589],[103.0607,1.9762],[103.0539,1.9767],[103.052,1.9791],[103.0496,1.9771],[103.0438,1.9797],[103.0414,1.9844],[103.0207,1.9845],[103.02,1.9803],[103.0251,1.9764],[103.022,1.974],[103.0239,1.9709],[103.0223,1.9667]]]}},{"type":"Feature","properties":{"c":"N.21","n":"Parit Yaani","w":"BN","p":"UMNO","cand":"Mohamad Najib bin Samuri","pct":62.0},"geometry":{"type":"Polygon","coordinates":[[[102.9099,1.8855],[102.9244,1.8972],[102.9454,1.9022],[102.9628,1.8996],[102.963,1.8902],[102.9576,1.883],[102.9524,1.8843],[102.9515,1.8791],[102.9481,1.8788],[102.9478,1.8743],[102.9446,1.8744],[102.9401,1.8706],[102.9505,1.8622],[102.9665,1.8641],[102.9831,1.87],[102.984,1.8675],[102.9883,1.8711],[102.9925,1.8694],[102.9979,1.8791],[103.0079,1.8828],[103.0218,1.8782],[103.0304,1.8714],[103.0534,1.8715],[103.0582,1.8816],[103.0736,1.8927],[103.0759,1.9053],[103.0732,1.9236],[103.0665,1.9297],[103.0433,1.9326],[103.0514,1.9454],[103.0514,1.9495],[103.0433,1.9562],[103.0311,1.9598],[103.0223,1.9667],[103.01,1.9584],[103.0147,1.9466],[102.9737,1.9482],[102.972,1.9471],[102.9737,1.9413],[102.9687,1.9371],[102.9567,1.9401],[102.9568,1.9503],[102.9345,1.9677],[102.9317,1.9658],[102.9329,1.9603],[102.928,1.9591],[102.9261,1.9624],[102.9201,1.9504],[102.9146,1.9515],[102.9116,1.9484],[102.9124,1.9413],[102.8964,1.9218],[102.9017,1.9153],[102.8933,1.9092],[102.8976,1.903],[102.8935,1.8909],[102.8952,1.8867],[102.9099,1.8855]]]}},{"type":"Feature","properties":{"c":"N.22","n":"Parit Raja","w":"BN","p":"UMNO","cand":"Rashidah binti Ramli","pct":69.2},"geometry":{"type":"Polygon","coordinates":[[[103.0758,1.9098],[103.0736,1.8927],[103.0582,1.8816],[103.0534,1.8715],[103.0304,1.8714],[103.0218,1.8782],[103.0079,1.8828],[102.9979,1.8791],[102.9925,1.8694],[102.9883,1.8711],[102.984,1.8675],[102.9831,1.87],[102.9602,1.8632],[102.9606,1.8518],[102.9627,1.8477],[102.977,1.8395],[102.9878,1.8077],[103.036,1.8064],[103.0413,1.8005],[103.0526,1.8005],[103.0585,1.7921],[103.0608,1.7918],[103.0619,1.7871],[103.0661,1.7951],[103.0741,1.7984],[103.078,1.7978],[103.0821,1.7922],[103.0894,1.7912],[103.0891,1.7866],[103.1049,1.7859],[103.1272,1.7946],[103.1292,1.8027],[103.138,1.8081],[103.1401,1.8156],[103.1299,1.8232],[103.1277,1.8313],[103.122,1.8333],[103.1222,1.8457],[103.1291,1.8463],[103.1185,1.8673],[103.1226,1.8683],[103.1197,1.8714],[103.1238,1.873],[103.1128,1.8769],[103.1067,1.8705],[103.1049,1.8708],[103.1045,1.8771],[103.0972,1.8754],[103.0949,1.8769],[103.097,1.8882],[103.0953,1.8925],[103.0906,1.8943],[103.0882,1.9096],[103.0758,1.9098]]]}},{"type":"Feature","properties":{"c":"N.23","n":"Penggaram","w":"PH","p":"DAP","cand":"Felicia Poh Rui Ling","pct":54.6},"geometry":{"type":"Polygon","coordinates":[[[102.927,1.8308],[102.9304,1.8293],[102.9436,1.8328],[102.9463,1.829],[102.9512,1.8318],[102.9534,1.8272],[102.9592,1.8283],[102.9584,1.833],[102.9614,1.8369],[102.96,1.8484],[102.9619,1.8493],[102.9602,1.8632],[102.9505,1.8622],[102.9401,1.8706],[102.9446,1.8744],[102.9478,1.8743],[102.9481,1.8788],[102.9515,1.8791],[102.9524,1.8843],[102.9576,1.883],[102.963,1.8902],[102.9628,1.8996],[102.9454,1.9022],[102.9314,1.9001],[102.9244,1.8972],[102.9099,1.8855],[102.9143,1.867],[102.9305,1.8589],[102.9279,1.8499],[102.9334,1.848],[102.927,1.8308]]]}},{"type":"Feature","properties":{"c":"N.24","n":"Senggarang","w":"BN","p":"UMNO","cand":"Mohd Yusla bin Ismail","pct":60.6},"geometry":{"type":"Polygon","coordinates":[[[102.8908,1.8199],[102.8937,1.8194],[102.8959,1.8023],[102.8867,1.7932],[102.8886,1.7887],[102.8912,1.789],[102.8923,1.7843],[102.9097,1.7656],[102.93,1.7529],[102.9422,1.7421],[102.9535,1.7412],[102.9607,1.744],[102.9826,1.7428],[102.9939,1.7378],[103.0013,1.7396],[103.0612,1.7131],[103.0832,1.6982],[103.086,1.7034],[103.085,1.7084],[103.1075,1.7284],[103.1115,1.7401],[103.1132,1.7618],[103.1198,1.7714],[103.1202,1.7872],[103.1277,1.7911],[103.1272,1.7946],[103.1049,1.7859],[103.0891,1.7866],[103.0894,1.7912],[103.0821,1.7922],[103.078,1.7978],[103.0741,1.7984],[103.0661,1.7951],[103.0619,1.7871],[103.0608,1.7918],[103.0585,1.7921],[103.0526,1.8005],[103.0413,1.8005],[103.036,1.8064],[102.9878,1.8077],[102.977,1.8395],[102.9619,1.8493],[102.96,1.8484],[102.9614,1.8369],[102.9584,1.833],[102.9592,1.8283],[102.9534,1.8272],[102.9512,1.8318],[102.9463,1.829],[102.9436,1.8328],[102.9304,1.8293],[102.9252,1.8305],[102.9247,1.8362],[102.9214,1.8361],[102.9187,1.8288],[102.9084,1.822],[102.8952,1.8228],[102.8908,1.8199]]]}},{"type":"Feature","properties":{"c":"N.25","n":"Rengit","w":"BN","p":"UMNO","cand":"Zaidi bin Japar","pct":72.1},"geometry":{"type":"Polygon","coordinates":[[[103.1401,1.8156],[103.138,1.8081],[103.1292,1.8027],[103.1265,1.7969],[103.1277,1.7911],[103.1202,1.7872],[103.1198,1.7714],[103.1132,1.7618],[103.1115,1.7401],[103.1075,1.7284],[103.085,1.7084],[103.086,1.7034],[103.0832,1.6982],[103.1461,1.6465],[103.187,1.6226],[103.189,1.6303],[103.1982,1.6276],[103.2029,1.6345],[103.1984,1.6481],[103.1996,1.6524],[103.1939,1.6764],[103.1972,1.7039],[103.2068,1.73],[103.2088,1.7295],[103.2147,1.7375],[103.2261,1.7668],[103.1886,1.7832],[103.1892,1.8369],[103.1633,1.8205],[103.1633,1.8228],[103.1564,1.8228],[103.1401,1.8156]]]}},{"type":"Feature","properties":{"c":"N.26","n":"Machap","w":"BN","p":"UMNO","cand":"Onn Hafiz bin Ghazi","pct":80.3},"geometry":{"type":"Polygon","coordinates":[[[103.1971,1.9382],[103.1912,1.9336],[103.1869,1.9335],[103.1838,1.9294],[103.1867,1.9143],[103.203,1.907],[103.2049,1.9008],[103.1974,1.8944],[103.1891,1.8781],[103.1996,1.8692],[103.196,1.8651],[103.1915,1.8671],[103.1934,1.8623],[103.1896,1.8601],[103.1886,1.7832],[103.2608,1.7515],[103.2793,1.7488],[103.3631,1.7096],[103.4069,1.7641],[103.3989,1.7603],[103.3986,1.7628],[103.3928,1.7654],[103.3943,1.7699],[103.3909,1.7762],[103.3957,1.7808],[103.3844,1.791],[103.3772,1.7845],[103.3735,1.7893],[103.3679,1.7903],[103.366,1.7818],[103.3634,1.7802],[103.3569,1.7831],[103.3554,1.7867],[103.35,1.7867],[103.3369,1.7933],[103.3151,1.8213],[103.3117,1.8309],[103.3091,1.8302],[103.3058,1.8347],[103.3049,1.8429],[103.3247,1.8568],[103.3267,1.863],[103.3214,1.8766],[103.3179,1.8792],[103.317,1.8862],[103.2977,1.9129],[103.3069,1.9188],[103.3014,1.932],[103.3056,1.9346],[103.3034,1.9384],[103.306,1.9408],[103.3034,1.9449],[103.3005,1.943],[103.2981,1.9458],[103.2948,1.9432],[103.2933,1.9462],[103.2907,1.9449],[103.2799,1.9611],[103.2869,1.9668],[103.2834,1.9719],[103.2782,1.9679],[103.2596,1.9918],[103.23,1.9742],[103.2221,1.9641],[103.2163,1.9641],[103.2092,1.9599],[103.208,1.9429],[103.1971,1.9382]]]}},{"type":"Feature","properties":{"c":"N.27","n":"Layang-Layang","w":"BN","p":"MCA","cand":"Chua Jian Boon","pct":67.2},"geometry":{"type":"Polygon","coordinates":[[[103.4069,1.7641],[103.4325,1.7856],[103.4344,1.7823],[103.4371,1.7832],[103.4454,1.7721],[103.4855,1.8031],[103.4921,1.8042],[103.4997,1.8035],[103.5011,1.8053],[103.517,1.8024],[103.5265,1.8044],[103.5303,1.8001],[103.5411,1.7987],[103.5425,1.7951],[103.5462,1.7956],[103.5563,1.7897],[103.5697,1.7888],[103.5753,1.7945],[103.6125,1.801],[103.6305,1.7911],[103.6378,1.7929],[103.635,1.8],[103.6318,1.8016],[103.6338,1.8048],[103.6308,1.8071],[103.631,1.8138],[103.6258,1.821],[103.6234,1.821],[103.6216,1.8289],[103.6171,1.8327],[103.6062,1.8362],[103.6014,1.8423],[103.6002,1.8496],[103.5923,1.8533],[103.5892,1.8603],[103.5816,1.8667],[103.5791,1.8752],[103.5753,1.8767],[103.5751,1.8795],[103.5679,1.8804],[103.5652,1.8861],[103.5601,1.8861],[103.5518,1.9027],[103.5186,1.8787],[103.4991,1.9048],[103.466,1.8844],[103.4532,1.894],[103.4594,1.8996],[103.4472,1.905],[103.4362,1.9243],[103.4402,1.9281],[103.4325,1.9379],[103.3448,1.875],[103.3349,1.8879],[103.3196,1.8783],[103.3267,1.863],[103.3247,1.8568],[103.3049,1.8429],[103.3058,1.8347],[103.3091,1.8302],[103.3117,1.8309],[103.3151,1.8213],[103.3369,1.7933],[103.35,1.7867],[103.3554,1.7867],[103.3569,1.7831],[103.3634,1.7802],[103.366,1.7818],[103.3679,1.7903],[103.3735,1.7893],[103.3772,1.7845],[103.3844,1.791],[103.3957,1.7808],[103.3909,1.7762],[103.3943,1.7699],[103.3928,1.7654],[103.3986,1.7628],[103.3989,1.7603],[103.4069,1.7641]]]}},{"type":"Feature","properties":{"c":"N.28","n":"Mengkibol","w":"PH","p":"DAP","cand":"Chu Poh Yee","pct":54.9},"geometry":{"type":"Polygon","coordinates":[[[103.2545,1.9881],[103.2596,1.9918],[103.2782,1.9679],[103.2834,1.9719],[103.2869,1.9668],[103.2799,1.9611],[103.2907,1.9449],[103.2933,1.9462],[103.2948,1.9432],[103.2981,1.9458],[103.3005,1.943],[103.3034,1.9449],[103.306,1.9408],[103.3034,1.9384],[103.3056,1.9346],[103.3014,1.932],[103.3069,1.9188],[103.2977,1.9129],[103.317,1.8862],[103.3179,1.8792],[103.3196,1.8783],[103.3349,1.8879],[103.3448,1.875],[103.3796,1.9006],[103.3792,1.9114],[103.3451,1.9525],[103.3869,1.9823],[103.3903,2.0114],[103.3885,2.0174],[103.3831,2.0237],[103.3792,2.0227],[103.3744,2.0267],[103.3672,2.0378],[103.3617,2.0351],[103.3519,2.0388],[103.3468,2.036],[103.3405,2.0471],[103.3371,2.0448],[103.3327,2.0462],[103.3293,2.0447],[103.3317,2.0358],[103.3285,2.033],[103.3191,2.0296],[103.3103,2.0211],[103.2884,2.0141],[103.2864,2.0233],[103.2926,2.0278],[103.2908,2.0498],[103.2938,2.0503],[103.2901,2.0632],[103.2951,2.0632],[103.2963,2.0612],[103.3004,2.0644],[103.2838,2.0874],[103.2791,2.0779],[103.2825,2.0726],[103.2686,2.0622],[103.2651,2.0668],[103.254,2.0581],[103.2588,2.0485],[103.2509,2.0438],[103.253,2.0402],[103.2457,2.0356],[103.2434,2.0384],[103.2335,2.0319],[103.2298,2.0371],[103.2184,2.029],[103.2398,1.9973],[103.2453,1.9995],[103.2545,1.9881]]]}},{"type":"Feature","properties":{"c":"N.29","n":"Mahkota","w":"BN","p":"UMNO","cand":"Syed Hussien bin Syed Abdullah","pct":66.5},"geometry":{"type":"Polygon","coordinates":[[[103.388,2.0025],[103.3983,2.002],[103.401,2.0089],[103.4006,2.0212],[103.3966,2.0273],[103.3997,2.0314],[103.3911,2.0383],[103.3846,2.0493],[103.3847,2.0528],[103.3796,2.0587],[103.3674,2.0596],[103.3663,2.0641],[103.3637,2.0638],[103.3561,2.0706],[103.3518,2.0708],[103.339,2.0817],[103.3107,2.0872],[103.307,2.0954],[103.3093,2.1081],[103.3064,2.1081],[103.3061,2.1048],[103.3021,2.1045],[103.2854,2.0873],[103.3004,2.0644],[103.2963,2.0612],[103.2951,2.0632],[103.2901,2.0632],[103.2938,2.0503],[103.2908,2.0498],[103.2926,2.0278],[103.2864,2.0233],[103.2884,2.0141],[103.3103,2.0211],[103.3191,2.0296],[103.3317,2.0358],[103.3293,2.0447],[103.3359,2.0463],[103.3371,2.0448],[103.3405,2.0471],[103.3468,2.036],[103.3519,2.0388],[103.3617,2.0351],[103.3672,2.0378],[103.3744,2.0267],[103.3792,2.0227],[103.3831,2.0237],[103.3903,2.0114],[103.388,2.0025]]]}},{"type":"Feature","properties":{"c":"N.30","n":"Paloh","w":"BN","p":"MCA","cand":"Lee Ting Han","pct":66.4},"geometry":{"type":"Polygon","coordinates":[[[103.1054,2.1669],[103.1687,2.1502],[103.1663,2.148],[103.1653,2.1403],[103.1631,2.1394],[103.1738,2.1262],[103.1721,2.0977],[103.2184,2.029],[103.2298,2.0371],[103.2335,2.0319],[103.2434,2.0384],[103.2457,2.0356],[103.253,2.0402],[103.2509,2.0438],[103.2588,2.0485],[103.254,2.0581],[103.2651,2.0668],[103.2686,2.0622],[103.2825,2.0726],[103.2791,2.0779],[103.2814,2.0852],[103.3021,2.1045],[103.3061,2.1048],[103.3082,2.1091],[103.307,2.0954],[103.3107,2.0872],[103.339,2.0817],[103.3518,2.0708],[103.3561,2.0706],[103.3637,2.0638],[103.3663,2.0641],[103.3674,2.0596],[103.3796,2.0587],[103.3847,2.0528],[103.3846,2.0493],[103.3911,2.0383],[103.3997,2.0314],[103.4018,2.0363],[103.4047,2.0362],[103.4253,2.01],[103.4765,2.0463],[103.4486,2.061],[103.4496,2.0669],[103.4454,2.0677],[103.4484,2.0872],[103.4464,2.0936],[103.4578,2.1024],[103.4531,2.1073],[103.4561,2.1098],[103.4554,2.1133],[103.4646,2.1178],[103.4653,2.1263],[103.4549,2.1245],[103.4618,2.1328],[103.4621,2.1383],[103.4735,2.1417],[103.4733,2.1457],[103.4818,2.1537],[103.4083,2.3174],[103.3947,2.3408],[103.3792,2.3787],[103.3022,2.3031],[103.1876,2.2606],[103.1757,2.2482],[103.1511,2.2505],[103.1511,2.2434],[103.1061,2.2158],[103.1054,2.1669]]]}},{"type":"Feature","properties":{"c":"N.31","n":"Kahang","w":"BN","p":"MIC","cand":"Rugendran a/l Vellayan","pct":71.7},"geometry":{"type":"Polygon","coordinates":[[[103.3792,2.3787],[103.3947,2.3408],[103.4083,2.3174],[103.4818,2.1537],[103.4733,2.1457],[103.4735,2.1417],[103.4621,2.1383],[103.4618,2.1328],[103.4549,2.1245],[103.4653,2.1263],[103.4646,2.1178],[103.4554,2.1133],[103.4561,2.1098],[103.4531,2.1073],[103.4578,2.1024],[103.4464,2.0936],[103.4484,2.0872],[103.4454,2.0677],[103.4496,2.0669],[103.4486,2.061],[103.4765,2.0463],[103.4253,2.01],[103.4047,2.0362],[103.4018,2.0363],[103.3966,2.0273],[103.4006,2.0212],[103.401,2.0089],[103.3983,2.002],[103.388,2.0025],[103.3869,1.9823],[103.3451,1.9525],[103.3792,1.9114],[103.3796,1.9006],[103.3867,1.9059],[103.39,1.9057],[103.4325,1.9379],[103.4402,1.9281],[103.4362,1.9243],[103.4472,1.905],[103.4594,1.8996],[103.4532,1.894],[103.466,1.8844],[103.4991,1.9048],[103.5186,1.8787],[103.5518,1.9027],[103.5522,1.9381],[103.5685,1.9381],[103.5609,2.0423],[103.6137,2.2525],[103.6124,2.2712],[103.6182,2.2779],[103.6313,2.2785],[103.623,2.3467],[103.6248,2.3499],[103.6216,2.3553],[103.6221,2.3657],[103.6284,2.373],[103.535,2.3386],[103.5082,2.3606],[103.4585,2.3929],[103.3792,2.3787]]]}},{"type":"Feature","properties":{"c":"N.32","n":"Endau","w":"BN","p":"UMNO","cand":"Alwiyah binti Talib (Kak Awi)","pct":51.6},"geometry":{"type":"MultiPolygon","coordinates":[[[[103.2905,2.5769],[103.3792,2.3787],[103.4585,2.3929],[103.5082,2.3606],[103.535,2.3386],[103.6284,2.373],[103.6287,2.3775],[103.633,2.3773],[103.6349,2.3797],[103.6333,2.3833],[103.6491,2.3894],[103.6473,2.392],[103.6498,2.3971],[103.649,2.4041],[103.6429,2.4082],[103.6457,2.4131],[103.6486,2.411],[103.6529,2.4121],[103.6521,2.4147],[103.6567,2.4145],[103.6602,2.4213],[103.6669,2.4258],[103.6863,2.424],[103.6962,2.4087],[103.7813,2.4441],[103.7902,2.4276],[103.7939,2.4283],[103.7959,2.4248],[103.8019,2.4249],[103.8049,2.4219],[103.8143,2.4217],[103.8134,2.4249],[103.8174,2.4244],[103.817,2.427],[103.8205,2.4277],[103.8196,2.4242],[103.8237,2.4231],[103.8246,2.4252],[103.8263,2.423],[103.8271,2.4263],[103.8342,2.4266],[103.8322,2.4308],[103.8401,2.4353],[103.8316,2.4517],[103.8296,2.4702],[103.82,2.482],[103.8173,2.4918],[103.82,2.4974],[103.8299,2.5034],[103.8355,2.5052],[103.8433,2.5029],[103.8461,2.5061],[103.8369,2.514],[103.8222,2.5396],[103.8226,2.5472],[103.8281,2.5471],[103.8192,2.5585],[103.8154,2.5724],[103.8173,2.5775],[103.8209,2.5767],[103.8237,2.579],[103.8235,2.583],[103.8171,2.5833],[103.8125,2.5791],[103.8075,2.5809],[103.7844,2.5996],[103.7801,2.6064],[103.7799,2.6127],[103.7782,2.6085],[103.7623,2.6151],[103.7578,2.6245],[103.7619,2.626],[103.7615,2.6295],[103.7664,2.631],[103.7633,2.6352],[103.7646,2.6442],[103.7618,2.6441],[103.7544,2.6502],[103.7537,2.6482],[103.7497,2.6484],[103.7467,2.6351],[103.7355,2.6324],[103.7204,2.6324],[103.7092,2.6408],[103.6789,2.6542],[103.6609,2.667],[103.6597,2.6635],[103.6516,2.6596],[103.6369,2.6644],[103.6204,2.6566],[103.6047,2.6656],[103.5946,2.6626],[103.592,2.6521],[103.5965,2.6372],[103.6051,2.6346],[103.6062,2.6506],[103.6181,2.651],[103.6163,2.6361],[103.626,2.6301],[103.6151,2.6215],[103.6308,2.6066],[103.6129,2.5984],[103.6282,2.5894],[103.6234,2.5835],[103.6103,2.5883],[103.6006,2.5801],[103.6036,2.5689],[103.6118,2.579],[103.6189,2.5756],[103.6204,2.5562],[103.6122,2.557],[103.6099,2.5655],[103.5942,2.5514],[103.598,2.5424],[103.5909,2.5357],[103.5935,2.5279],[103.6077,2.5335],[103.6159,2.5312],[103.6234,2.5346],[103.6275,2.5316],[103.6185,2.5178],[103.6323,2.5062],[103.6323,2.4909],[103.6417,2.4864],[103.6237,2.4611],[103.6136,2.4622],[103.6077,2.4566],[103.4698,2.5275],[103.4478,2.5544],[103.4142,2.5577],[103.3529,2.5913],[103.2905,2.5769]]],[[[103.8535,2.4778],[103.8476,2.4807],[103.8421,2.4878],[103.8377,2.4786],[103.8451,2.4789],[103.8531,2.4751],[103.8535,2.4778]]]]}},{"type":"Feature","properties":{"c":"N.33","n":"Tenggaroh","w":"BN","p":"UMNO","cand":"Mohd Youzaimi bin Yusof","pct":74.6},"geometry":{"type":"MultiPolygon","coordinates":[[[[103.6284,2.373],[103.6221,2.3657],[103.6216,2.3553],[103.6248,2.3499],[103.623,2.3467],[103.6313,2.2785],[103.6182,2.2779],[103.6124,2.2712],[103.6137,2.2525],[103.5609,2.0423],[104.0368,2.0416],[104.0397,2.0439],[104.0498,2.0383],[104.0536,2.0434],[104.0617,2.0404],[104.0553,2.0528],[104.0562,2.0578],[104.0465,2.0654],[104.0338,2.0869],[104.0184,2.1266],[104.0069,2.1455],[104.007,2.15],[103.9899,2.166],[103.9763,2.1828],[103.9646,2.1987],[103.9559,2.2168],[103.9587,2.2248],[103.957,2.2399],[103.96,2.2485],[103.9703,2.2521],[103.9756,2.2517],[103.9787,2.2474],[103.9813,2.2477],[103.9798,2.2573],[103.9714,2.2638],[103.9521,2.2946],[103.9506,2.3013],[103.9535,2.3026],[103.9535,2.3088],[103.9558,2.3112],[103.9609,2.3093],[103.9604,2.3128],[103.9469,2.3252],[103.9389,2.3368],[103.9388,2.3405],[103.9347,2.3428],[103.9312,2.3394],[103.9238,2.3432],[103.922,2.3421],[103.9175,2.3479],[103.9102,2.3508],[103.8847,2.3836],[103.8825,2.3859],[103.8807,2.3845],[103.8686,2.3981],[103.8538,2.4286],[103.8483,2.4296],[103.8401,2.4353],[103.8322,2.4308],[103.8342,2.4266],[103.8271,2.4263],[103.8263,2.423],[103.8246,2.4252],[103.8237,2.4231],[103.8196,2.4242],[103.8205,2.4277],[103.817,2.427],[103.8174,2.4244],[103.8134,2.4249],[103.8143,2.4217],[103.8049,2.4219],[103.8019,2.4249],[103.7959,2.4248],[103.7939,2.4283],[103.7902,2.4276],[103.7813,2.4441],[103.6962,2.4087],[103.6863,2.424],[103.6669,2.4258],[103.6602,2.4213],[103.6567,2.4145],[103.6521,2.4147],[103.6529,2.4121],[103.6486,2.411],[103.6457,2.4131],[103.6429,2.4082],[103.649,2.4041],[103.6498,2.3971],[103.6473,2.392],[103.6491,2.3894],[103.6333,2.3833],[103.6349,2.3797],[103.633,2.3773],[103.6287,2.3775],[103.6284,2.373]]],[[[104.0894,2.1951],[104.0897,2.1979],[104.0869,2.1989],[104.0867,2.203],[104.0799,2.2135],[104.076,2.2142],[104.0744,2.2194],[104.0678,2.2239],[104.0663,2.2312],[104.0617,2.2344],[104.062,2.2317],[104.0597,2.2307],[104.0512,2.2303],[104.062,2.218],[104.0639,2.2195],[104.0732,2.2152],[104.0752,2.2058],[104.0714,2.1964],[104.0784,2.2009],[104.0894,2.1951]]],[[[104.1016,2.3143],[104.0924,2.3167],[104.0951,2.2994],[104.0999,2.2943],[104.1105,2.2909],[104.1119,2.2887],[104.1101,2.2871],[104.1132,2.2849],[104.1289,2.2811],[104.1348,2.2842],[104.1355,2.2893],[104.1429,2.2895],[104.1419,2.2999],[104.1354,2.3062],[104.1359,2.3102],[104.1329,2.3094],[104.1181,2.3163],[104.1101,2.3172],[104.1044,2.3126],[104.1016,2.3143]]],[[[103.976,2.4584],[103.9725,2.4574],[103.9751,2.4542],[103.9763,2.434],[103.9813,2.4287],[103.9939,2.4247],[103.9975,2.4282],[103.9898,2.4379],[103.9903,2.4408],[103.9859,2.4441],[103.985,2.4489],[103.976,2.4584]]],[[[103.9533,2.494],[103.9482,2.4956],[103.9475,2.4941],[103.948,2.491],[103.9532,2.4875],[103.9554,2.4901],[103.9533,2.494]]],[[[104.5403,2.4453],[104.5404,2.4505],[104.5289,2.4554],[104.5262,2.4538],[104.5247,2.4601],[104.5139,2.4683],[104.4995,2.4564],[104.5037,2.4516],[104.5029,2.4412],[104.5059,2.4432],[104.5131,2.4416],[104.5199,2.426],[104.5346,2.4293],[104.5395,2.4358],[104.5403,2.4453]]],[[[104.3413,2.5799],[104.3339,2.5824],[104.3347,2.5918],[104.3299,2.5949],[104.3276,2.5934],[104.3192,2.5977],[104.3106,2.5934],[104.3124,2.5836],[104.3179,2.5802],[104.319,2.5734],[104.3338,2.5628],[104.3418,2.564],[104.3459,2.5704],[104.3413,2.5799]]]]}},{"type":"Feature","properties":{"c":"N.34","n":"Panti","w":"BN","p":"UMNO","cand":"Muhammad Naqib bin Md Ghazali","pct":76.6},"geometry":{"type":"Polygon","coordinates":[[[103.899,1.7279],[103.8993,1.7376],[103.8968,1.7441],[103.9017,1.7459],[103.9095,1.7422],[103.9205,1.7455],[103.9234,1.7582],[103.9287,1.7636],[103.9294,1.7748],[103.9399,1.785],[103.8972,1.8324],[103.8628,1.8241],[103.8436,1.8381],[103.8104,1.849],[103.8093,1.8651],[103.8066,1.8652],[103.803,1.8751],[103.805,1.8764],[103.7497,2.042],[103.5609,2.0423],[103.5685,1.9381],[103.5522,1.9381],[103.5518,1.9027],[103.5601,1.8861],[103.5652,1.8861],[103.5679,1.8804],[103.5751,1.8795],[103.5753,1.8767],[103.5791,1.8752],[103.5816,1.8667],[103.5892,1.8603],[103.5923,1.8533],[103.6002,1.8496],[103.6014,1.8423],[103.6062,1.8362],[103.6171,1.8327],[103.6216,1.8289],[103.6234,1.821],[103.6258,1.821],[103.631,1.8138],[103.6308,1.8071],[103.6338,1.8048],[103.6318,1.8016],[103.635,1.8],[103.6378,1.7929],[103.6438,1.7918],[103.6526,1.7976],[103.6565,1.7963],[103.6557,1.804],[103.6597,1.8064],[103.668,1.8027],[103.6708,1.8109],[103.679,1.8124],[103.6804,1.8088],[103.6862,1.8109],[103.6982,1.7939],[103.7128,1.7917],[103.7141,1.7875],[103.7218,1.7868],[103.7271,1.7923],[103.7271,1.7891],[103.731,1.7904],[103.7426,1.7797],[103.7481,1.7763],[103.7518,1.7773],[103.7651,1.7691],[103.7675,1.7591],[103.7721,1.7543],[103.7767,1.7544],[103.7755,1.7499],[103.7823,1.7468],[103.7844,1.7352],[103.794,1.7316],[103.8015,1.7365],[103.8058,1.7362],[103.8026,1.7394],[103.8079,1.7424],[103.8079,1.7402],[103.8102,1.7401],[103.8253,1.745],[103.8283,1.7417],[103.8395,1.7414],[103.8547,1.743],[103.857,1.746],[103.8657,1.7482],[103.8669,1.7443],[103.8727,1.7397],[103.8744,1.7318],[103.882,1.7322],[103.8821,1.7293],[103.8851,1.7277],[103.899,1.7279]]]}},{"type":"Feature","properties":{"c":"N.35","n":"Pasir Raja","w":"BN","p":"UMNO","cand":"Adham bin Baba","pct":74.9},"geometry":{"type":"Polygon","coordinates":[[[103.6438,1.7918],[103.6458,1.7886],[103.6433,1.7859],[103.6492,1.777],[103.6581,1.7546],[103.666,1.758],[103.6791,1.7329],[103.6714,1.7283],[103.7226,1.6606],[103.7397,1.6699],[103.7654,1.6659],[103.7654,1.6562],[103.7696,1.6586],[103.7766,1.6557],[103.7768,1.6514],[103.7728,1.649],[103.7751,1.644],[103.7744,1.6381],[103.781,1.6384],[103.8206,1.6229],[103.8461,1.5983],[103.852,1.6023],[103.8574,1.5981],[103.8627,1.6008],[103.8658,1.5965],[103.8757,1.6066],[103.8819,1.6002],[103.8947,1.6182],[103.8785,1.6305],[103.8907,1.6414],[103.8963,1.6504],[103.8989,1.6502],[103.9005,1.6697],[103.9068,1.6689],[103.9086,1.6724],[103.9132,1.672],[103.9197,1.6669],[103.9209,1.663],[103.9241,1.6676],[103.9283,1.6632],[103.9337,1.668],[103.9302,1.681],[103.9386,1.6874],[103.9274,1.6927],[103.9368,1.6946],[103.9356,1.6975],[103.9283,1.701],[103.9227,1.6977],[103.9134,1.7038],[103.9122,1.7071],[103.9151,1.7187],[103.9069,1.7186],[103.9111,1.7267],[103.9053,1.7266],[103.9052,1.7226],[103.9024,1.7203],[103.899,1.7279],[103.8851,1.7277],[103.8821,1.7293],[103.882,1.7322],[103.8744,1.7318],[103.8727,1.7397],[103.8669,1.7443],[103.8657,1.7482],[103.857,1.746],[103.8547,1.743],[103.8395,1.7414],[103.8283,1.7417],[103.8253,1.745],[103.8102,1.7401],[103.8079,1.7402],[103.8079,1.7424],[103.8026,1.7394],[103.8058,1.7362],[103.8015,1.7365],[103.794,1.7316],[103.7844,1.7352],[103.7823,1.7468],[103.7755,1.7499],[103.7767,1.7544],[103.7721,1.7543],[103.7675,1.7591],[103.7651,1.7691],[103.7518,1.7773],[103.7481,1.7763],[103.7426,1.7797],[103.731,1.7904],[103.7271,1.7891],[103.7271,1.7923],[103.7218,1.7868],[103.7141,1.7875],[103.7128,1.7917],[103.6982,1.7939],[103.6862,1.8109],[103.6804,1.8088],[103.679,1.8124],[103.6708,1.8109],[103.668,1.8027],[103.6597,1.8064],[103.6557,1.804],[103.6565,1.7963],[103.6526,1.7976],[103.6438,1.7918]]]}},{"type":"Feature","properties":{"c":"N.36","n":"Sedili","w":"BN","p":"UMNO","cand":"Muszaide bin Makmor","pct":85.2},"geometry":{"type":"Polygon","coordinates":[[[103.7497,2.042],[103.805,1.8764],[103.803,1.8751],[103.8066,1.8652],[103.8093,1.8651],[103.8104,1.849],[103.8436,1.8381],[103.8628,1.8241],[103.8972,1.8324],[103.9399,1.785],[103.9478,1.7912],[103.9671,1.7802],[103.9679,1.7735],[103.9761,1.7701],[103.9763,1.7681],[103.9866,1.7678],[103.9879,1.7706],[103.9931,1.7719],[103.9945,1.7797],[104.0103,1.7861],[104.0304,1.722],[104.0353,1.7244],[104.0497,1.7225],[104.067,1.7288],[104.0715,1.7349],[104.0887,1.7334],[104.0972,1.7364],[104.0995,1.7403],[104.1076,1.7413],[104.1076,1.7477],[104.1138,1.7463],[104.1158,1.7521],[104.1197,1.7527],[104.1216,1.7569],[104.1266,1.7494],[104.1327,1.7503],[104.1323,1.7458],[104.135,1.7438],[104.1379,1.7464],[104.1425,1.7375],[104.1411,1.7347],[104.1437,1.7225],[104.1416,1.7224],[104.1415,1.7196],[104.1455,1.715],[104.1429,1.6947],[104.135,1.6869],[104.1342,1.6798],[104.1386,1.6762],[104.1428,1.665],[104.145,1.6711],[104.1511,1.6715],[104.1997,1.744],[104.1974,1.7491],[104.1982,1.7595],[104.1863,1.7871],[104.1704,1.8064],[104.1578,1.8278],[104.1576,1.8432],[104.1609,1.846],[104.1591,1.8492],[104.1516,1.8546],[104.1516,1.8471],[104.1485,1.8441],[104.136,1.8452],[104.1287,1.8495],[104.1135,1.8658],[104.1055,1.8865],[104.1056,1.9102],[104.1093,1.9206],[104.1147,1.9247],[104.1165,1.93],[104.1193,1.9257],[104.1244,1.925],[104.1276,1.921],[104.1295,1.9215],[104.1293,1.9264],[104.0708,2.0294],[104.0623,2.04],[104.0536,2.0434],[104.0498,2.0383],[104.0397,2.0439],[104.0368,2.0416],[103.7497,2.042]]]}},{"type":"Feature","properties":{"c":"N.37","n":"Johor Lama","w":"BN","p":"UMNO","cand":"Norlizah binti Noh","pct":79.9},"geometry":{"type":"MultiPolygon","coordinates":[[[[103.899,1.7279],[103.9024,1.7203],[103.9052,1.7226],[103.9053,1.7266],[103.9111,1.7267],[103.9069,1.7186],[103.9151,1.7187],[103.9122,1.7071],[103.9161,1.7009],[103.9227,1.6977],[103.9283,1.701],[103.9356,1.6975],[103.9368,1.6946],[103.9274,1.6927],[103.9387,1.6857],[103.9302,1.681],[103.9337,1.668],[103.9283,1.6632],[103.9271,1.6572],[103.9313,1.6539],[103.9396,1.6542],[103.9591,1.6405],[103.9709,1.6384],[103.9739,1.63],[103.9717,1.6235],[103.9754,1.6233],[103.9917,1.601],[103.9967,1.5992],[103.9966,1.5957],[104.003,1.595],[104.0126,1.5888],[104.012,1.5853],[104.0199,1.5773],[104.0223,1.5685],[104.0334,1.5549],[104.0326,1.5467],[104.0449,1.5458],[104.0531,1.5511],[104.0516,1.5599],[104.0714,1.5619],[104.0649,1.5875],[104.0612,1.5877],[104.0527,1.6066],[104.0359,1.5984],[104.0352,1.6291],[104.0304,1.6256],[104.0265,1.6309],[104.0233,1.6306],[104.0084,1.646],[104.0085,1.6524],[104.0207,1.6637],[104.0447,1.6656],[104.0725,1.6659],[104.0771,1.6602],[104.083,1.6577],[104.0895,1.6589],[104.0968,1.6668],[104.1143,1.6583],[104.115,1.6659],[104.1123,1.6676],[104.115,1.6809],[104.1229,1.6849],[104.1264,1.694],[104.1332,1.7017],[104.141,1.6929],[104.1429,1.6947],[104.1455,1.715],[104.1415,1.7196],[104.1438,1.7268],[104.1398,1.7432],[104.1379,1.7464],[104.135,1.7438],[104.1323,1.7458],[104.1327,1.7503],[104.1266,1.7494],[104.1216,1.7569],[104.1197,1.7527],[104.1158,1.7521],[104.1138,1.7463],[104.1076,1.7477],[104.1076,1.7413],[104.0995,1.7403],[104.0972,1.7364],[104.0887,1.7334],[104.0715,1.7349],[104.067,1.7288],[104.0497,1.7225],[104.0353,1.7244],[104.0304,1.722],[104.0103,1.7861],[103.9945,1.7797],[103.9931,1.7719],[103.9846,1.767],[103.9763,1.7681],[103.9761,1.7701],[103.9679,1.7735],[103.9671,1.7802],[103.9478,1.7912],[103.9294,1.7748],[103.9287,1.7636],[103.9234,1.7582],[103.9205,1.7455],[103.9095,1.7422],[103.9017,1.7459],[103.8968,1.7441],[103.8993,1.7376],[103.899,1.7279]]]]}},{"type":"Feature","properties":{"c":"N.38","n":"Penawar","w":"BN","p":"UMNO","cand":"Fauziah binti Misri","pct":82.1},"geometry":{"type":"Polygon","coordinates":[[[104.141,1.6929],[104.1332,1.7017],[104.1264,1.694],[104.1229,1.6849],[104.115,1.6809],[104.1123,1.6676],[104.115,1.6659],[104.1143,1.6583],[104.0968,1.6668],[104.0895,1.6589],[104.083,1.6577],[104.0771,1.6602],[104.0725,1.6659],[104.0447,1.6656],[104.0207,1.6637],[104.0085,1.6524],[104.0084,1.646],[104.0233,1.6306],[104.0265,1.6309],[104.0304,1.6256],[104.0352,1.6291],[104.0359,1.5984],[104.0527,1.6066],[104.0612,1.5877],[104.0649,1.5875],[104.0714,1.5619],[104.0516,1.5599],[104.0531,1.5511],[104.0449,1.5458],[104.0328,1.5472],[104.0293,1.5339],[104.0404,1.4959],[104.0484,1.4982],[104.0505,1.5061],[104.0689,1.5186],[104.0915,1.5192],[104.108,1.5307],[104.1253,1.5366],[104.1331,1.5511],[104.1406,1.5512],[104.1447,1.5484],[104.1548,1.5505],[104.1665,1.5478],[104.1748,1.5529],[104.1801,1.5534],[104.1809,1.56],[104.1855,1.5555],[104.1879,1.5602],[104.1942,1.5569],[104.194,1.554],[104.1969,1.5534],[104.1993,1.5478],[104.1951,1.5437],[104.1945,1.5393],[104.1959,1.5126],[104.1942,1.5066],[104.1957,1.5044],[104.202,1.5047],[104.2069,1.5081],[104.2108,1.5012],[104.2138,1.5051],[104.2167,1.5051],[104.218,1.5023],[104.2147,1.5012],[104.2185,1.5009],[104.2171,1.4982],[104.2077,1.4949],[104.211,1.4929],[104.2094,1.4897],[104.2111,1.4877],[104.2179,1.4883],[104.2122,1.4842],[104.2163,1.4841],[104.2187,1.4812],[104.217,1.4806],[104.2189,1.4728],[104.2368,1.4652],[104.2412,1.4611],[104.2427,1.4549],[104.2605,1.4633],[104.2727,1.4508],[104.2772,1.4505],[104.2769,1.4538],[104.29,1.4542],[104.2777,1.4761],[104.2727,1.4931],[104.276,1.5059],[104.2798,1.5085],[104.2823,1.5057],[104.2846,1.5091],[104.2829,1.5223],[104.2775,1.533],[104.2638,1.5464],[104.2541,1.5636],[104.2567,1.5773],[104.2602,1.5805],[104.2625,1.5789],[104.2634,1.5828],[104.2596,1.583],[104.2568,1.5869],[104.2533,1.5944],[104.2536,1.5995],[104.2635,1.6103],[104.2454,1.6315],[104.2433,1.6399],[104.249,1.6481],[104.2477,1.6538],[104.2344,1.6669],[104.2159,1.6941],[104.2144,1.7034],[104.2201,1.7117],[104.2016,1.7367],[104.1997,1.744],[104.1511,1.6715],[104.145,1.6711],[104.1436,1.665],[104.1394,1.6699],[104.1386,1.6762],[104.1342,1.6798],[104.135,1.6869],[104.141,1.6929]]]}},{"type":"Feature","properties":{"c":"N.39","n":"Tanjung Surat","w":"BN","p":"UMNO","cand":"Aznan bin Tamin","pct":90.5},"geometry":{"type":"MultiPolygon","coordinates":[[[[104.0753,1.4712],[104.0681,1.4729],[104.0726,1.4657],[104.0768,1.4669],[104.0753,1.4712]]],[[[104.0642,1.4573],[104.0676,1.4644],[104.0716,1.4661],[104.0676,1.4733],[104.0737,1.4715],[104.0716,1.4778],[104.0752,1.4822],[104.0703,1.4832],[104.0723,1.4878],[104.0689,1.4899],[104.0666,1.4853],[104.0628,1.4892],[104.0566,1.4856],[104.0516,1.4779],[104.0522,1.4754],[104.0401,1.4656],[104.0449,1.4575],[104.0537,1.4532],[104.0642,1.4573]]],[[[104.0484,1.4982],[104.0565,1.5008],[104.0608,1.4906],[104.0648,1.4893],[104.066,1.4859],[104.0679,1.4906],[104.0723,1.4891],[104.0707,1.4839],[104.075,1.4844],[104.0761,1.4819],[104.0731,1.4759],[104.0794,1.4675],[104.0763,1.4641],[104.0684,1.4625],[104.0652,1.4539],[104.06,1.4504],[104.059,1.4464],[104.0725,1.4423],[104.0906,1.4302],[104.0945,1.4236],[104.1021,1.418],[104.106,1.406],[104.1132,1.4099],[104.115,1.4069],[104.1122,1.3912],[104.0968,1.381],[104.0882,1.3688],[104.1079,1.3646],[104.1299,1.3547],[104.1373,1.3416],[104.1573,1.3471],[104.1607,1.3427],[104.1647,1.3421],[104.1834,1.3483],[104.1933,1.3446],[104.2006,1.3371],[104.215,1.3495],[104.2193,1.3504],[104.2228,1.3471],[104.2261,1.3479],[104.226,1.3519],[104.2431,1.3683],[104.2515,1.369],[104.2524,1.3592],[104.2616,1.3588],[104.2687,1.3644],[104.2741,1.3639],[104.2791,1.3695],[104.283,1.3701],[104.2836,1.3804],[104.2798,1.3823],[104.2745,1.409],[104.2749,1.425],[104.2793,1.4335],[104.2882,1.4387],[104.2942,1.4338],[104.2965,1.4343],[104.2942,1.4413],[104.2952,1.4467],[104.29,1.4542],[104.2769,1.4538],[104.2772,1.4505],[104.2727,1.4508],[104.2605,1.4633],[104.2427,1.4549],[104.2412,1.4611],[104.2368,1.4652],[104.2189,1.4728],[104.217,1.4806],[104.2187,1.4812],[104.2163,1.4841],[104.2122,1.4842],[104.2179,1.4883],[104.2111,1.4877],[104.2094,1.4897],[104.211,1.4929],[104.2077,1.4949],[104.2171,1.4982],[104.2185,1.5009],[104.2147,1.5012],[104.218,1.5023],[104.2167,1.5051],[104.2138,1.5051],[104.2108,1.5012],[104.2069,1.5081],[104.202,1.5047],[104.1957,1.5044],[104.1942,1.5066],[104.1959,1.5126],[104.1945,1.5393],[104.1951,1.5437],[104.1993,1.5478],[104.1969,1.5534],[104.194,1.554],[104.1942,1.5569],[104.1879,1.5602],[104.184,1.5555],[104.1809,1.56],[104.1801,1.5534],[104.1748,1.5529],[104.1665,1.5478],[104.1548,1.5505],[104.1447,1.5484],[104.1406,1.5512],[104.1331,1.5511],[104.1253,1.5366],[104.108,1.5307],[104.0915,1.5192],[104.0689,1.5186],[104.0505,1.5061],[104.0484,1.4982]]]]}},{"type":"Feature","properties":{"c":"N.40","n":"Tiram","w":"BN","p":"UMNO","cand":"Abdul Halim bin Suleiman","pct":60.1},"geometry":{"type":"MultiPolygon","coordinates":[[[[104.0154,1.5292],[104.0104,1.5382],[104.0071,1.537],[104.0071,1.5317],[104.0022,1.5296],[104.0,1.5206],[104.0023,1.5165],[104.0083,1.5183],[104.0149,1.5244],[104.0154,1.5292]]],[[[103.7744,1.6381],[103.7675,1.6385],[103.7656,1.5956],[103.796,1.5957],[103.7982,1.6054],[103.8043,1.6037],[103.8093,1.599],[103.8154,1.5991],[103.82,1.5928],[103.8176,1.5859],[103.8191,1.5794],[103.811,1.5651],[103.8014,1.5629],[103.8017,1.5521],[103.82,1.5384],[103.8205,1.5479],[103.8271,1.5441],[103.8316,1.5497],[103.8281,1.5533],[103.8326,1.5592],[103.8612,1.544],[103.8658,1.544],[103.8698,1.5559],[103.8886,1.5606],[103.8947,1.5519],[103.9141,1.5512],[103.9139,1.5433],[103.909,1.5386],[103.9097,1.5244],[103.9192,1.5243],[103.9192,1.5222],[103.9227,1.5217],[103.922,1.4957],[103.9165,1.4869],[103.9265,1.4859],[103.9267,1.4797],[103.9296,1.4795],[103.9301,1.4509],[103.9189,1.4425],[103.9217,1.4362],[103.9368,1.4337],[103.9399,1.4309],[103.954,1.4299],[103.9575,1.4271],[103.9707,1.4275],[103.9739,1.4309],[103.9857,1.4337],[103.9887,1.4325],[104.0055,1.4473],[104.0089,1.4559],[104.0113,1.4549],[104.0121,1.4587],[104.0107,1.4558],[104.0082,1.458],[104.0115,1.4717],[104.0083,1.4734],[104.0066,1.4803],[104.0038,1.4786],[104.0028,1.4819],[104.0086,1.5023],[103.9973,1.5197],[104.0,1.5288],[103.9959,1.5378],[103.9911,1.5347],[103.9824,1.5417],[103.974,1.5369],[103.9824,1.5422],[103.9916,1.5355],[103.9967,1.5382],[103.9988,1.5317],[104.0056,1.5313],[104.006,1.5372],[104.0088,1.5391],[104.0061,1.5432],[104.0093,1.5502],[103.9977,1.5636],[103.9992,1.567],[103.9961,1.5705],[103.9832,1.5788],[103.9807,1.5767],[103.9666,1.5936],[103.9628,1.6035],[103.9638,1.6154],[103.9655,1.6222],[103.9717,1.6235],[103.9732,1.6261],[103.9709,1.6384],[103.9591,1.6405],[103.9396,1.6542],[103.9313,1.6539],[103.9271,1.6572],[103.9283,1.6632],[103.9241,1.6676],[103.9209,1.663],[103.9197,1.6669],[103.9132,1.672],[103.9086,1.6724],[103.9068,1.6689],[103.9005,1.6697],[103.8989,1.6502],[103.8963,1.6504],[103.8907,1.6414],[103.8785,1.6305],[103.8947,1.6182],[103.8819,1.6002],[103.8757,1.6066],[103.8658,1.5965],[103.8627,1.6008],[103.8574,1.5981],[103.852,1.6023],[103.8461,1.5983],[103.8206,1.6229],[103.781,1.6384],[103.7744,1.6381]]]]}},{"type":"Feature","properties":{"c":"N.41","n":"Puteri Wangsa","w":"PH","p":"PKR","cand":"Maszlee bin Malik","pct":48.4},"geometry":{"type":"Polygon","coordinates":[[[103.7226,1.6606],[103.7379,1.6395],[103.7246,1.6388],[103.6966,1.6194],[103.6975,1.6141],[103.7012,1.611],[103.6971,1.6081],[103.6892,1.6185],[103.6651,1.6009],[103.6623,1.6059],[103.6595,1.6062],[103.6478,1.5983],[103.6501,1.592],[103.6675,1.5777],[103.6732,1.5688],[103.6858,1.5652],[103.6933,1.56],[103.7012,1.5423],[103.7058,1.5399],[103.7125,1.5403],[103.726,1.5324],[103.7318,1.5317],[103.7421,1.5152],[103.7464,1.5208],[103.7585,1.5175],[103.7685,1.5241],[103.7813,1.527],[103.7813,1.5313],[103.7863,1.536],[103.7873,1.5407],[103.8005,1.5502],[103.8014,1.5629],[103.811,1.5651],[103.8174,1.5751],[103.82,1.5928],[103.8154,1.5991],[103.8093,1.599],[103.8043,1.6037],[103.7982,1.6054],[103.796,1.5957],[103.7656,1.5956],[103.7675,1.6385],[103.7744,1.6381],[103.7751,1.644],[103.7728,1.649],[103.7768,1.6514],[103.7766,1.6557],[103.7696,1.6586],[103.7654,1.6562],[103.7654,1.6659],[103.7397,1.6699],[103.7226,1.6606]]]}},{"type":"Feature","properties":{"c":"N.42","n":"Johor Jaya","w":"BN","p":"MCA","cand":"Chan San San","pct":53.8},"geometry":{"type":"Polygon","coordinates":[[[103.8017,1.5521],[103.7873,1.5407],[103.7863,1.536],[103.7813,1.5313],[103.7813,1.527],[103.7591,1.5194],[103.7572,1.5141],[103.7612,1.5097],[103.7711,1.5134],[103.7766,1.5059],[103.797,1.4992],[103.7968,1.5059],[103.8011,1.507],[103.7987,1.5129],[103.8048,1.5141],[103.8066,1.5174],[103.8148,1.5149],[103.8212,1.519],[103.8346,1.5095],[103.8651,1.4971],[103.8855,1.4804],[103.8855,1.4834],[103.8816,1.4852],[103.8795,1.4933],[103.8881,1.4937],[103.8896,1.4893],[103.8979,1.4869],[103.9021,1.4935],[103.8955,1.4979],[103.9044,1.5163],[103.9014,1.5178],[103.9037,1.5225],[103.91,1.5214],[103.909,1.5386],[103.9139,1.5433],[103.9141,1.5512],[103.8947,1.5519],[103.8886,1.5606],[103.8698,1.5559],[103.8658,1.544],[103.8612,1.544],[103.8326,1.5592],[103.8281,1.5533],[103.8316,1.5497],[103.8271,1.5441],[103.8205,1.5479],[103.82,1.5384],[103.8017,1.5521]]]}},{"type":"Feature","properties":{"c":"N.43","n":"Permas","w":"BN","p":"UMNO","cand":"Baharudin bin Mohamed Taib","pct":64.8},"geometry":{"type":"Polygon","coordinates":[[[103.9097,1.5244],[103.91,1.5214],[103.9037,1.5225],[103.9014,1.5178],[103.9044,1.5163],[103.8955,1.4979],[103.9019,1.4952],[103.8979,1.4869],[103.8896,1.4893],[103.8881,1.4937],[103.8795,1.4933],[103.8816,1.4852],[103.8867,1.4807],[103.8651,1.4971],[103.8346,1.5095],[103.8212,1.519],[103.8148,1.5149],[103.8066,1.5174],[103.8048,1.5141],[103.7987,1.5129],[103.8011,1.507],[103.7968,1.5059],[103.7975,1.4954],[103.7953,1.4938],[103.7971,1.4847],[103.8066,1.4852],[103.807,1.4825],[103.8162,1.4857],[103.8248,1.4813],[103.831,1.4829],[103.8333,1.4796],[103.8398,1.4807],[103.8491,1.4729],[103.8618,1.4683],[103.8658,1.4713],[103.8725,1.4629],[103.87,1.461],[103.8874,1.4401],[103.8865,1.4383],[103.9206,1.4312],[103.9199,1.4362],[103.9217,1.4362],[103.9189,1.4425],[103.9301,1.4509],[103.9296,1.4795],[103.9267,1.4797],[103.9265,1.4859],[103.9165,1.4869],[103.922,1.4957],[103.9227,1.5217],[103.9192,1.5222],[103.9192,1.5243],[103.9097,1.5244]]]}},{"type":"Feature","properties":{"c":"N.44","n":"Larkin","w":"BN","p":"UMNO","cand":"Mohd Hairi bin Mad Shah","pct":67.5},"geometry":{"type":"Polygon","coordinates":[[[103.7421,1.5152],[103.7365,1.5141],[103.7312,1.5096],[103.7148,1.5077],[103.7128,1.5032],[103.7088,1.5012],[103.7071,1.4923],[103.7159,1.4855],[103.7312,1.4899],[103.7394,1.4887],[103.7372,1.4813],[103.7481,1.4797],[103.75,1.4772],[103.7547,1.4768],[103.7574,1.4794],[103.7636,1.4773],[103.7667,1.4889],[103.7647,1.5035],[103.7572,1.5141],[103.7585,1.5175],[103.7464,1.5208],[103.7421,1.5152]]]}},{"type":"Feature","properties":{"c":"N.45","n":"Stulang","w":"PH","p":"DAP","cand":"Andrew Chen Kah Eng","pct":47.3},"geometry":{"type":"Polygon","coordinates":[[[103.7612,1.5097],[103.7647,1.5035],[103.7667,1.4889],[103.7636,1.4773],[103.7574,1.4794],[103.7547,1.4768],[103.7676,1.4558],[103.7895,1.4799],[103.7971,1.4847],[103.7953,1.4938],[103.7975,1.4954],[103.797,1.4992],[103.7889,1.5033],[103.7766,1.5059],[103.7711,1.5134],[103.7612,1.5097]]]}},{"type":"Feature","properties":{"c":"N.46","n":"Perling","w":"BN","p":"MIC","cand":"Pannir Selvam","pct":49.0},"geometry":{"type":"MultiPolygon","coordinates":[[[[103.7071,1.4923],[103.6912,1.5042],[103.6818,1.5144],[103.6802,1.5209],[103.6612,1.5093],[103.6563,1.5032],[103.6513,1.5027],[103.643,1.4879],[103.6405,1.4883],[103.6385,1.4813],[103.6272,1.4807],[103.6252,1.4755],[103.6299,1.4772],[103.636,1.4726],[103.6414,1.4745],[103.6445,1.4713],[103.6414,1.4679],[103.6527,1.4628],[103.6621,1.4617],[103.6639,1.4641],[103.6702,1.4639],[103.6755,1.4679],[103.6806,1.4685],[103.6913,1.4552],[103.7183,1.4651],[103.7215,1.4699],[103.7203,1.474],[103.7068,1.4744],[103.7017,1.4781],[103.705,1.4771],[103.7118,1.4814],[103.7224,1.4754],[103.7242,1.4656],[103.7284,1.4609],[103.7576,1.4537],[103.7676,1.4558],[103.7547,1.4768],[103.7372,1.4813],[103.7394,1.4887],[103.7312,1.4899],[103.7159,1.4855],[103.7071,1.4923]]]]}},{"type":"Feature","properties":{"c":"N.47","n":"Kempas","w":"BN","p":"UMNO","cand":"Ramlee bin Bohani","pct":65.2},"geometry":{"type":"Polygon","coordinates":[[[103.7004,1.5444],[103.6959,1.5429],[103.6875,1.5346],[103.6802,1.5209],[103.6818,1.5144],[103.6912,1.5042],[103.7071,1.4923],[103.7088,1.5012],[103.7128,1.5032],[103.7148,1.5077],[103.7312,1.5096],[103.7365,1.5141],[103.7421,1.5152],[103.7318,1.5317],[103.726,1.5324],[103.7125,1.5403],[103.7058,1.5399],[103.7004,1.5444]]]}},{"type":"Feature","properties":{"c":"N.48","n":"Skudai","w":"PH","p":"DAP","cand":"Kartiyaini a/p Jeyapalan","pct":58.7},"geometry":{"type":"Polygon","coordinates":[[[103.6517,1.5916],[103.6529,1.5846],[103.6611,1.5707],[103.6588,1.5533],[103.6565,1.5474],[103.6483,1.5503],[103.6444,1.5482],[103.6427,1.5421],[103.6388,1.5399],[103.6362,1.5421],[103.6313,1.5359],[103.647,1.526],[103.6574,1.5265],[103.6439,1.5114],[103.6401,1.5141],[103.617,1.4895],[103.6272,1.4807],[103.6385,1.4813],[103.6405,1.4883],[103.643,1.4879],[103.6513,1.5027],[103.6563,1.5032],[103.6612,1.5093],[103.6802,1.5209],[103.6875,1.5346],[103.6959,1.5429],[103.7004,1.5444],[103.6933,1.56],[103.6858,1.5652],[103.6732,1.5688],[103.6675,1.5777],[103.6517,1.5916]]]}},{"type":"Feature","properties":{"c":"N.49","n":"Kota Iskandar","w":"BN","p":"UMNO","cand":"Pandak bin Ahmad","pct":58.4},"geometry":{"type":"Polygon","coordinates":[[[103.6272,1.4807],[103.617,1.4895],[103.6401,1.5141],[103.6439,1.5114],[103.6574,1.5265],[103.647,1.526],[103.6313,1.5359],[103.6362,1.5421],[103.6299,1.5436],[103.6283,1.5497],[103.625,1.5507],[103.6232,1.5569],[103.6199,1.5587],[103.6231,1.5712],[103.6155,1.5712],[103.6155,1.5762],[103.6039,1.5764],[103.6088,1.5862],[103.6001,1.5877],[103.5944,1.5859],[103.5936,1.5962],[103.5868,1.6002],[103.5526,1.6017],[103.5531,1.5944],[103.5557,1.5898],[103.5581,1.5897],[103.5588,1.5831],[103.5659,1.5784],[103.5662,1.5725],[103.5719,1.5658],[103.5709,1.5589],[103.577,1.5521],[103.5748,1.4932],[103.5864,1.4802],[103.5765,1.4768],[103.5644,1.4802],[103.5593,1.4771],[103.559,1.4728],[103.5545,1.4703],[103.5545,1.4663],[103.5522,1.4663],[103.5539,1.4584],[103.548,1.444],[103.548,1.431],[103.5381,1.4048],[103.535,1.3839],[103.5395,1.3683],[103.5392,1.3593],[103.5456,1.3524],[103.6052,1.3455],[103.6373,1.3739],[103.638,1.3795],[103.641,1.3804],[103.6464,1.3888],[103.6461,1.3953],[103.6504,1.4064],[103.6579,1.4115],[103.6557,1.4124],[103.6565,1.4139],[103.6589,1.4125],[103.6609,1.4145],[103.6597,1.4175],[103.6575,1.4171],[103.6576,1.4207],[103.6614,1.4231],[103.659,1.4209],[103.6624,1.4162],[103.667,1.421],[103.6669,1.4262],[103.6747,1.4429],[103.6779,1.4399],[103.6843,1.4445],[103.6879,1.4431],[103.691,1.4483],[103.6963,1.4512],[103.6954,1.4546],[103.688,1.4573],[103.6863,1.4629],[103.6806,1.4685],[103.6755,1.4679],[103.6702,1.4639],[103.6639,1.4641],[103.6621,1.4617],[103.6527,1.4628],[103.6414,1.4679],[103.6445,1.4713],[103.6414,1.4745],[103.636,1.4726],[103.6299,1.4772],[103.6252,1.4755],[103.6272,1.4807]]]}},{"type":"Feature","properties":{"c":"N.50","n":"Bukit Permai","w":"BN","p":"UMNO","cand":"Mohd Jafni bin Md Shukor","pct":67.2},"geometry":{"type":"Polygon","coordinates":[[[103.457,1.7811],[103.4864,1.7526],[103.4969,1.7637],[103.5079,1.748],[103.5096,1.7381],[103.4973,1.7291],[103.5141,1.7056],[103.51,1.7022],[103.5133,1.6951],[103.5128,1.6908],[103.5221,1.6972],[103.5273,1.6899],[103.532,1.6889],[103.5376,1.6929],[103.5507,1.6749],[103.5447,1.6712],[103.5456,1.6676],[103.5591,1.6676],[103.5613,1.6703],[103.5862,1.6686],[103.6052,1.6606],[103.6128,1.6505],[103.6288,1.6371],[103.6588,1.66],[103.6568,1.6642],[103.6622,1.666],[103.6662,1.6555],[103.6877,1.672],[103.6833,1.6777],[103.7008,1.69],[103.6714,1.7283],[103.6791,1.7329],[103.666,1.758],[103.6581,1.7546],[103.6492,1.777],[103.6433,1.7859],[103.6458,1.7886],[103.6438,1.7918],[103.6305,1.7911],[103.6125,1.801],[103.5753,1.7945],[103.5697,1.7888],[103.5563,1.7897],[103.5462,1.7956],[103.5425,1.7951],[103.5411,1.7987],[103.5303,1.8001],[103.5265,1.8044],[103.517,1.8024],[103.5011,1.8053],[103.4997,1.8035],[103.4855,1.8031],[103.457,1.7811]]]}},{"type":"Feature","properties":{"c":"N.51","n":"Bukit Batu","w":"BN","p":"MIC","cand":"Kumaran a/l Rama Krishnan","pct":47.7},"geometry":{"type":"Polygon","coordinates":[[[103.3631,1.7096],[103.4653,1.6224],[103.5034,1.581],[103.5078,1.5823],[103.5082,1.5594],[103.5133,1.5441],[103.5194,1.5449],[103.5219,1.533],[103.525,1.5336],[103.5336,1.529],[103.5331,1.5226],[103.5759,1.5264],[103.577,1.5521],[103.5709,1.5589],[103.5719,1.5658],[103.5662,1.5725],[103.5659,1.5784],[103.5588,1.5831],[103.5581,1.5897],[103.5557,1.5898],[103.5531,1.5944],[103.5526,1.6017],[103.5908,1.5989],[103.5732,1.6215],[103.5698,1.6295],[103.5922,1.6505],[103.5892,1.6544],[103.5908,1.6665],[103.564,1.6703],[103.5591,1.6676],[103.5456,1.6676],[103.5447,1.6712],[103.5507,1.6749],[103.5376,1.6929],[103.532,1.6889],[103.5273,1.6899],[103.5221,1.6972],[103.5128,1.6908],[103.5133,1.6951],[103.51,1.7022],[103.5141,1.7056],[103.4973,1.7291],[103.5096,1.7381],[103.5079,1.748],[103.4969,1.7637],[103.4864,1.7526],[103.457,1.7811],[103.4454,1.7721],[103.4371,1.7832],[103.4344,1.7823],[103.4325,1.7856],[103.4069,1.7641],[103.3631,1.7096]]]}},{"type":"Feature","properties":{"c":"N.52","n":"Senai","w":"PH","p":"DAP","cand":"Wong Bor Yang","pct":52.1},"geometry":{"type":"Polygon","coordinates":[[[103.7226,1.6606],[103.7008,1.69],[103.6833,1.6777],[103.6877,1.672],[103.6662,1.6555],[103.6622,1.666],[103.6568,1.6642],[103.6588,1.66],[103.6288,1.6371],[103.6128,1.6505],[103.6052,1.6606],[103.5908,1.6665],[103.5892,1.6544],[103.5922,1.6505],[103.5698,1.6295],[103.5771,1.616],[103.5936,1.5962],[103.5944,1.5859],[103.6001,1.5877],[103.6088,1.5862],[103.6039,1.5764],[103.6155,1.5762],[103.6155,1.5712],[103.6231,1.5712],[103.6199,1.5587],[103.6232,1.5569],[103.625,1.5507],[103.6283,1.5497],[103.6299,1.5436],[103.6388,1.5399],[103.6483,1.5503],[103.6565,1.5474],[103.6606,1.5644],[103.6611,1.5707],[103.6478,1.5983],[103.6595,1.6062],[103.6623,1.6059],[103.6651,1.6009],[103.6892,1.6185],[103.6971,1.6081],[103.7012,1.611],[103.6975,1.6141],[103.6966,1.6194],[103.7246,1.6388],[103.7379,1.6395],[103.7226,1.6606]]]}},{"type":"Feature","properties":{"c":"N.53","n":"Benut","w":"BN","p":"UMNO","cand":"Mohd Sumali bin Reduan","pct":86.9},"geometry":{"type":"Polygon","coordinates":[[[103.187,1.6226],[103.2903,1.5834],[103.2958,1.5928],[103.2998,1.6146],[103.3212,1.6323],[103.3462,1.6468],[103.3527,1.6552],[103.3498,1.6584],[103.3527,1.6606],[103.3544,1.6854],[103.3498,1.6925],[103.3631,1.7096],[103.2793,1.7488],[103.2608,1.7515],[103.2261,1.7668],[103.2147,1.7375],[103.2088,1.7295],[103.2068,1.73],[103.1972,1.7039],[103.1939,1.6764],[103.1996,1.6524],[103.1984,1.6481],[103.2029,1.6345],[103.1982,1.6276],[103.189,1.6303],[103.187,1.6226]]]}},{"type":"Feature","properties":{"c":"N.54","n":"Pulai Sebatang","w":"BN","p":"UMNO","cand":"Hasrunizah binti Hassan","pct":70.5},"geometry":{"type":"Polygon","coordinates":[[[103.3631,1.7096],[103.3498,1.6925],[103.3544,1.6854],[103.3527,1.6606],[103.3498,1.6584],[103.3527,1.6552],[103.3462,1.6468],[103.3212,1.6323],[103.2998,1.6146],[103.2958,1.5928],[103.2903,1.5834],[103.2879,1.583],[103.3352,1.5555],[103.3554,1.5382],[103.3599,1.5376],[103.3778,1.512],[103.3805,1.5003],[103.3886,1.4841],[103.3853,1.4834],[103.3881,1.4772],[103.3962,1.4781],[103.3946,1.4849],[103.3983,1.485],[103.3992,1.4873],[103.4027,1.4864],[103.412,1.4918],[103.4035,1.5071],[103.4052,1.5136],[103.4002,1.5229],[103.3929,1.5261],[103.3954,1.5352],[103.402,1.5461],[103.4061,1.5486],[103.4136,1.565],[103.4179,1.5955],[103.4253,1.6125],[103.4325,1.6206],[103.4471,1.6255],[103.4496,1.6361],[103.3631,1.7096]]]}},{"type":"Feature","properties":{"c":"N.55","n":"Pekan Nanas","w":"BN","p":"MCA","cand":"Tan Eng Meng","pct":72.2},"geometry":{"type":"Polygon","coordinates":[[[103.5759,1.5264],[103.5331,1.5226],[103.5336,1.529],[103.525,1.5336],[103.5219,1.533],[103.5194,1.5449],[103.5133,1.5441],[103.5082,1.5594],[103.5078,1.5823],[103.5034,1.581],[103.4653,1.6224],[103.4496,1.6361],[103.4471,1.6255],[103.4325,1.6206],[103.4253,1.6125],[103.4179,1.5955],[103.4136,1.565],[103.4061,1.5486],[103.402,1.5461],[103.3954,1.5352],[103.3929,1.5261],[103.4002,1.5229],[103.4052,1.5136],[103.4035,1.5071],[103.412,1.4918],[103.4234,1.496],[103.4354,1.4775],[103.444,1.4833],[103.4628,1.486],[103.4668,1.4889],[103.4734,1.4824],[103.477,1.472],[103.4848,1.4764],[103.4868,1.4748],[103.499,1.478],[103.5046,1.4766],[103.5203,1.4646],[103.5268,1.4575],[103.5273,1.4524],[103.5304,1.4502],[103.5342,1.4526],[103.5399,1.4504],[103.5437,1.4435],[103.548,1.444],[103.5539,1.4584],[103.5522,1.4663],[103.5545,1.4663],[103.5545,1.4703],[103.559,1.4728],[103.5593,1.4771],[103.5644,1.4802],[103.5765,1.4768],[103.5864,1.4802],[103.5748,1.4932],[103.5759,1.5264]]]}},{"type":"Feature","properties":{"c":"N.56","n":"Kukup","w":"BN","p":"UMNO","cand":"Md Israk bin Abdullah","pct":72.3},"geometry":{"type":"MultiPolygon","coordinates":[[[[103.4321,1.3125],[103.4374,1.3156],[103.4384,1.3251],[103.4193,1.3384],[103.4213,1.3331],[103.4206,1.3094],[103.4265,1.3093],[103.4321,1.3125]]],[[[103.548,1.444],[103.5437,1.4435],[103.5399,1.4504],[103.5342,1.4526],[103.5304,1.4502],[103.5273,1.4524],[103.5268,1.4575],[103.5203,1.4646],[103.5046,1.4766],[103.499,1.478],[103.4868,1.4748],[103.4848,1.4764],[103.477,1.472],[103.4734,1.4824],[103.4668,1.4889],[103.4628,1.486],[103.444,1.4833],[103.4354,1.4775],[103.4234,1.496],[103.4027,1.4864],[103.3992,1.4873],[103.3983,1.485],[103.3946,1.4849],[103.3962,1.4781],[103.3881,1.4772],[103.3914,1.4767],[103.4116,1.429],[103.4203,1.3866],[103.4351,1.3572],[103.4392,1.3384],[103.4434,1.3321],[103.4438,1.3264],[103.4415,1.3252],[103.4463,1.3201],[103.4534,1.3183],[103.4634,1.3084],[103.4661,1.3122],[103.4637,1.3082],[103.4821,1.2913],[103.4849,1.2933],[103.4833,1.29],[103.4866,1.2858],[103.5084,1.2657],[103.5119,1.2661],[103.5102,1.2841],[103.5146,1.3058],[103.5251,1.3188],[103.5471,1.3333],[103.5425,1.3545],[103.5392,1.3593],[103.5395,1.3683],[103.535,1.3839],[103.5381,1.4048],[103.548,1.431],[103.548,1.444]]],[[[103.2592,1.4663],[103.2609,1.4695],[103.2655,1.4699],[103.2619,1.473],[103.2491,1.4702],[103.2481,1.4647],[103.2577,1.4619],[103.2602,1.4642],[103.2592,1.4663]]]]}}]}