{"type":"FeatureCollection","features":[{"type":"Feature","properties":{"c":"N.01","n":"Pengkalan Hulu","w":"PN","p":"PAS","cand":"Mohamad Amin bin Roslan","pct":47.6},"geometry":{"type":"Polygon","coordinates":[[[100.931,5.5159],[100.9332,5.5125],[100.9322,5.5091],[100.9369,5.5047],[100.9502,5.5059],[100.9552,5.5013],[100.9593,5.5012],[100.9595,5.4979],[100.9737,5.4981],[100.9753,5.5039],[100.9873,5.5039],[100.989,5.5069],[100.9958,5.5089],[101.0024,5.4995],[101.0069,5.5028],[101.0256,5.5006],[101.0292,5.5026],[101.0278,5.5062],[101.0312,5.5092],[101.0292,5.5146],[101.0347,5.5366],[101.0379,5.5343],[101.0447,5.5348],[101.0485,5.5292],[101.0605,5.5512],[101.0568,5.5576],[101.0611,5.558],[101.069,5.5658],[101.0696,5.5698],[101.0892,5.5423],[101.1015,5.5389],[101.1064,5.5406],[101.1069,5.5387],[101.1116,5.539],[101.1107,5.5442],[101.1238,5.5492],[101.1285,5.5483],[101.1264,5.5569],[101.1328,5.5643],[101.1208,5.5833],[101.1158,5.5857],[101.116,5.5889],[101.1284,5.5877],[101.1354,5.5902],[101.1384,5.587],[101.1431,5.5859],[101.1479,5.5884],[101.1519,5.5878],[101.1538,5.585],[101.1669,5.5897],[101.184,5.5918],[101.2216,5.5888],[101.222,5.6062],[101.2198,5.6082],[101.2239,5.6149],[101.2362,5.6167],[101.2345,5.6244],[101.2368,5.6319],[101.2258,5.6434],[101.2167,5.6651],[101.2147,5.6613],[101.2048,5.6601],[101.2034,5.6544],[101.1965,5.6493],[101.1885,5.6508],[101.1723,5.6476],[101.1673,5.6418],[101.1692,5.6357],[101.165,5.6311],[101.1516,5.6223],[101.1489,5.6241],[101.1446,5.6229],[101.1448,5.6148],[101.1351,5.6127],[101.1326,5.6145],[101.1285,5.6297],[101.1294,5.6398],[101.125,5.647],[101.1231,5.6616],[101.1193,5.6637],[101.1189,5.6706],[101.1114,5.6809],[101.1042,5.6839],[101.1029,5.6885],[101.0987,5.6894],[101.0946,5.6965],[101.0943,5.6989],[101.0971,5.7005],[101.0957,5.7028],[101.0894,5.7034],[101.0851,5.7083],[101.086,5.7119],[101.0808,5.7098],[101.0801,5.7161],[101.0829,5.7201],[101.0683,5.7284],[101.0662,5.7258],[101.0622,5.7267],[101.0633,5.731],[101.0592,5.7341],[101.0613,5.7433],[101.0571,5.7443],[101.055,5.7424],[101.0543,5.744],[101.0511,5.7401],[101.0411,5.7398],[101.0376,5.7366],[101.0339,5.7379],[101.0273,5.75],[101.0189,5.7593],[101.0176,5.7673],[101.0072,5.7698],[101.007,5.7748],[101.0028,5.7801],[100.998,5.7797],[100.9945,5.7854],[100.9799,5.7728],[100.9726,5.7758],[100.966,5.7741],[100.9624,5.7759],[100.9603,5.7729],[100.9552,5.7732],[100.9446,5.7674],[100.941,5.7635],[100.946,5.7607],[100.9503,5.7543],[100.9477,5.7453],[100.9607,5.7365],[100.9614,5.731],[100.9649,5.7281],[100.9758,5.7259],[100.9782,5.7221],[100.9836,5.7223],[100.9815,5.7182],[100.9785,5.7182],[100.9785,5.7116],[100.9815,5.7088],[100.9737,5.6928],[100.9756,5.6843],[100.971,5.6827],[100.9708,5.6773],[100.9672,5.6744],[100.9699,5.6671],[100.9651,5.6614],[100.9664,5.6485],[100.9647,5.6459],[100.9604,5.6479],[100.9576,5.6421],[100.9528,5.6424],[100.9489,5.6483],[100.9385,5.6472],[100.9472,5.628],[100.9239,5.6171],[100.9251,5.6129],[100.9224,5.6022],[100.9297,5.5985],[100.9296,5.5936],[100.9339,5.5934],[100.9344,5.5897],[100.9408,5.5902],[100.9448,5.58],[100.9342,5.5718],[100.9338,5.5625],[100.9414,5.5535],[100.9405,5.5408],[100.9355,5.5363],[100.9324,5.5224],[100.9342,5.5191],[100.931,5.5159]]]}},{"type":"Feature","properties":{"c":"N.02","n":"Temengor","w":"BN","p":"UMNO","cand":"Salbiah binti Mohamed","pct":43.1},"geometry":{"type":"Polygon","coordinates":[[[101.0292,5.5026],[101.0394,5.503],[101.0446,5.496],[101.0501,5.4957],[101.0521,5.4917],[101.0554,5.4917],[101.0554,5.4893],[101.0722,5.4728],[101.0764,5.4727],[101.0789,5.4677],[101.0849,5.4664],[101.0928,5.4606],[101.0857,5.4586],[101.0957,5.447],[101.1006,5.4466],[101.0989,5.4398],[101.1041,5.438],[101.1071,5.4288],[101.1323,5.4244],[101.1383,5.4206],[101.1514,5.4204],[101.1605,5.4362],[101.1739,5.4365],[101.1734,5.4286],[101.1775,5.425],[101.1735,5.4207],[101.1767,5.4132],[101.1824,5.4128],[101.184,5.4195],[101.1919,5.4191],[101.1951,5.415],[101.2008,5.4162],[101.2036,5.4106],[101.2093,5.41],[101.2143,5.4064],[101.2231,5.4118],[101.2212,5.4179],[101.2301,5.421],[101.2314,5.4245],[101.2337,5.4236],[101.2381,5.4286],[101.2474,5.4295],[101.2509,5.4261],[101.2575,5.4248],[101.2593,5.4187],[101.2504,5.4103],[101.2398,5.4084],[101.2409,5.4035],[101.2529,5.3893],[101.2395,5.3828],[101.2285,5.3694],[101.2287,5.3662],[101.238,5.3597],[101.2486,5.3574],[101.2551,5.345],[101.2536,5.3345],[101.2394,5.3206],[101.2476,5.3166],[101.2526,5.3054],[101.2515,5.2987],[101.247,5.2959],[101.248,5.2879],[101.2512,5.2834],[101.2462,5.2766],[101.2485,5.2672],[101.2462,5.2561],[101.25,5.2492],[101.2568,5.2451],[101.27,5.1987],[101.2759,5.1861],[101.2855,5.1743],[101.2955,5.1702],[101.3003,5.1776],[101.314,5.1765],[101.3275,5.1569],[101.3376,5.1532],[101.3493,5.1264],[101.3502,5.1131],[101.3526,5.1096],[101.3567,5.1094],[101.3594,5.1037],[101.3685,5.1166],[101.3746,5.1109],[101.3807,5.1105],[101.3918,5.1015],[101.3971,5.1004],[101.3975,5.0939],[101.411,5.0837],[101.4149,5.0684],[101.4143,5.0595],[101.4254,5.0298],[101.4356,5.0276],[101.4356,5.0235],[101.4422,5.0218],[101.4491,5.0149],[101.4602,5.031],[101.4587,5.0482],[101.4645,5.0595],[101.4605,5.0645],[101.4656,5.0749],[101.4755,5.0792],[101.4852,5.0892],[101.4773,5.1086],[101.4843,5.1206],[101.4866,5.1326],[101.4805,5.1432],[101.4818,5.1519],[101.4895,5.162],[101.4854,5.165],[101.4974,5.186],[101.5102,5.1989],[101.5088,5.203],[101.5161,5.2156],[101.5113,5.2229],[101.51,5.2317],[101.5219,5.2421],[101.5241,5.2507],[101.5197,5.2527],[101.521,5.2679],[101.5284,5.2722],[101.5345,5.2613],[101.5473,5.2629],[101.5474,5.2786],[101.5586,5.2828],[101.5602,5.2892],[101.5671,5.2849],[101.5734,5.2914],[101.5692,5.3001],[101.5719,5.3019],[101.5752,5.3279],[101.5827,5.3311],[101.5883,5.329],[101.5996,5.3306],[101.6052,5.346],[101.6153,5.3473],[101.6194,5.3512],[101.6255,5.3474],[101.6277,5.341],[101.6394,5.3385],[101.6461,5.3448],[101.6543,5.3408],[101.6545,5.3367],[101.6633,5.3345],[101.6664,5.3256],[101.6727,5.3242],[101.6779,5.3338],[101.6993,5.3304],[101.7026,5.3388],[101.7168,5.3446],[101.7238,5.35],[101.7349,5.351],[101.7526,5.3713],[101.7429,5.3804],[101.7398,5.3967],[101.7445,5.42],[101.7393,5.4291],[101.74,5.4521],[101.7346,5.4583],[101.7472,5.4712],[101.7492,5.4827],[101.7483,5.4999],[101.7407,5.5096],[101.7333,5.5047],[101.7294,5.497],[101.7231,5.5001],[101.7209,5.5128],[101.7027,5.5081],[101.6973,5.4999],[101.6932,5.4985],[101.6905,5.5033],[101.6831,5.5054],[101.6804,5.5106],[101.6738,5.5114],[101.6646,5.5074],[101.656,5.5208],[101.6713,5.5464],[101.6886,5.5867],[101.6547,5.6058],[101.6506,5.6134],[101.6567,5.6136],[101.6547,5.6201],[101.6631,5.6309],[101.6614,5.6375],[101.6577,5.6389],[101.6569,5.6428],[101.6605,5.6544],[101.6605,5.66],[101.6584,5.6615],[101.6599,5.6683],[101.6641,5.6675],[101.6854,5.6931],[101.6881,5.6923],[101.6952,5.7028],[101.6917,5.7096],[101.6922,5.7204],[101.6891,5.7244],[101.6937,5.7307],[101.6907,5.7464],[101.6919,5.7547],[101.6899,5.7562],[101.6895,5.7635],[101.6874,5.764],[101.6903,5.7715],[101.6876,5.7811],[101.6843,5.7832],[101.6788,5.7809],[101.6691,5.7906],[101.6704,5.7949],[101.6645,5.8007],[101.6677,5.8078],[101.6627,5.8148],[101.6578,5.8123],[101.6585,5.8351],[101.6567,5.8384],[101.6614,5.8482],[101.6556,5.8579],[101.6623,5.868],[101.655,5.8774],[101.6422,5.8702],[101.6224,5.8775],[101.6221,5.8956],[101.6183,5.8955],[101.6147,5.9014],[101.6154,5.9109],[101.6086,5.915],[101.5974,5.9122],[101.5894,5.9183],[101.5876,5.9302],[101.5817,5.9344],[101.5755,5.9303],[101.5739,5.9259],[101.5591,5.919],[101.5546,5.9207],[101.5405,5.919],[101.5267,5.9091],[101.524,5.8988],[101.5137,5.9032],[101.5081,5.8937],[101.4993,5.8881],[101.4944,5.8816],[101.4874,5.8836],[101.4859,5.8698],[101.4788,5.8729],[101.4749,5.8697],[101.4644,5.8764],[101.4549,5.8673],[101.4472,5.8704],[101.4385,5.8706],[101.4373,5.8725],[101.4315,5.8708],[101.427,5.8754],[101.4249,5.8737],[101.4179,5.8764],[101.4144,5.8728],[101.4069,5.8719],[101.3969,5.8724],[101.3914,5.8757],[101.3902,5.8585],[101.3872,5.8537],[101.3801,5.8502],[101.3798,5.8456],[101.3741,5.8366],[101.3754,5.8335],[101.3719,5.8309],[101.3621,5.8306],[101.3591,5.8332],[101.3544,5.8279],[101.3501,5.8269],[101.3473,5.8237],[101.3487,5.8172],[101.3459,5.8084],[101.3417,5.8092],[101.3369,5.8066],[101.3256,5.8137],[101.3208,5.8119],[101.3135,5.8019],[101.3063,5.8053],[101.3049,5.8134],[101.295,5.8116],[101.2907,5.816],[101.2765,5.8119],[101.2696,5.8032],[101.2638,5.8007],[101.2627,5.7933],[101.2587,5.7868],[101.2598,5.7775],[101.2498,5.7597],[101.2557,5.7532],[101.2541,5.7468],[101.2603,5.7319],[101.2582,5.7217],[101.2612,5.7176],[101.2606,5.7129],[101.2518,5.7078],[101.2492,5.7036],[101.2511,5.6986],[101.2446,5.6956],[101.2419,5.6913],[101.233,5.6877],[101.2183,5.6871],[101.2224,5.6757],[101.2189,5.6725],[101.2167,5.6651],[101.2258,5.6434],[101.2368,5.6319],[101.2345,5.6244],[101.2362,5.6167],[101.2239,5.6149],[101.2198,5.6082],[101.222,5.6062],[101.2216,5.5888],[101.184,5.5918],[101.1669,5.5897],[101.1538,5.585],[101.1519,5.5878],[101.1479,5.5884],[101.1431,5.5859],[101.1384,5.587],[101.1354,5.5902],[101.1284,5.5877],[101.116,5.5889],[101.1158,5.5857],[101.1208,5.5833],[101.1328,5.5643],[101.1264,5.5569],[101.1285,5.5483],[101.1238,5.5492],[101.1107,5.5442],[101.1116,5.539],[101.1069,5.5387],[101.1064,5.5406],[101.1015,5.5389],[101.0892,5.5423],[101.0696,5.5698],[101.069,5.5658],[101.0611,5.558],[101.0568,5.5576],[101.0605,5.5512],[101.0485,5.5292],[101.0447,5.5348],[101.0379,5.5343],[101.0347,5.5366],[101.0292,5.5146],[101.0312,5.5092],[101.0278,5.5062],[101.0292,5.5026]]]}},{"type":"Feature","properties":{"c":"N.03","n":"Kenering","w":"PN","p":"PAS","cand":"Husairi bin Ariffin","pct":47.0},"geometry":{"type":"Polygon","coordinates":[[[100.931,5.5159],[100.9284,5.5069],[100.9174,5.4951],[100.9104,5.4917],[100.9079,5.494],[100.9034,5.4908],[100.8956,5.4918],[100.8932,5.4977],[100.8825,5.4924],[100.8848,5.484],[100.8748,5.4795],[100.8672,5.4682],[100.8658,5.4603],[100.8688,5.4583],[100.8672,5.4288],[100.8702,5.4295],[100.875,5.4205],[100.8843,5.4144],[100.8989,5.4217],[100.9118,5.4121],[100.91,5.4082],[100.9117,5.3907],[100.9164,5.3867],[100.9188,5.3748],[100.9218,5.376],[100.9248,5.3732],[100.9245,5.3581],[100.9326,5.3513],[100.9353,5.3434],[100.9261,5.3382],[100.9288,5.3342],[100.9282,5.3282],[100.936,5.3164],[100.9355,5.3048],[100.9454,5.2975],[100.9478,5.2881],[100.9512,5.2666],[100.9486,5.2522],[100.9423,5.2478],[100.9362,5.2489],[100.9261,5.2455],[100.9199,5.238],[100.9187,5.2276],[100.9129,5.2197],[100.9052,5.2194],[100.9,5.2166],[100.8911,5.2068],[100.8952,5.2059],[100.9008,5.1935],[100.9078,5.1904],[100.9131,5.1809],[100.9208,5.1795],[100.9231,5.172],[100.9301,5.1645],[100.9275,5.1605],[100.9311,5.1584],[100.9318,5.1548],[100.9299,5.1536],[100.9386,5.1506],[100.9485,5.1517],[100.956,5.1463],[100.9653,5.1487],[100.9723,5.1419],[100.9851,5.1349],[100.9914,5.1406],[100.9972,5.1406],[101.0016,5.1356],[101.0124,5.1319],[101.0199,5.1249],[101.0299,5.1262],[101.0337,5.1237],[101.0377,5.1141],[101.0979,5.0842],[101.1039,5.0678],[101.1072,5.0667],[101.1114,5.0738],[101.1176,5.074],[101.1184,5.0713],[101.1399,5.0619],[101.1551,5.063],[101.1549,5.0667],[101.1605,5.0704],[101.1572,5.0743],[101.1701,5.0809],[101.1749,5.0893],[101.1798,5.0883],[101.1925,5.101],[101.1946,5.0975],[101.1914,5.092],[101.1951,5.089],[101.2035,5.089],[101.2097,5.0944],[101.2223,5.1138],[101.2309,5.1393],[101.2513,5.1369],[101.2698,5.138],[101.2892,5.1509],[101.2979,5.1651],[101.2955,5.1702],[101.2855,5.1743],[101.2785,5.1809],[101.27,5.1987],[101.2568,5.2451],[101.25,5.2492],[101.2462,5.2561],[101.2485,5.2672],[101.2462,5.2766],[101.2512,5.2834],[101.248,5.2879],[101.247,5.2959],[101.2515,5.2987],[101.2526,5.3054],[101.2476,5.3166],[101.2394,5.3206],[101.2536,5.3345],[101.2551,5.345],[101.2486,5.3574],[101.238,5.3597],[101.2287,5.3662],[101.2285,5.3694],[101.2395,5.3828],[101.2529,5.3893],[101.2409,5.4035],[101.2398,5.4084],[101.2504,5.4103],[101.2593,5.4187],[101.2575,5.4248],[101.2509,5.4261],[101.2474,5.4295],[101.2381,5.4286],[101.2337,5.4236],[101.2314,5.4245],[101.2301,5.421],[101.2212,5.4179],[101.2231,5.4118],[101.2143,5.4064],[101.2093,5.41],[101.2036,5.4106],[101.2008,5.4162],[101.1951,5.415],[101.1919,5.4191],[101.184,5.4195],[101.1824,5.4128],[101.1767,5.4132],[101.1735,5.4207],[101.1775,5.425],[101.1734,5.4286],[101.1739,5.4365],[101.1605,5.4362],[101.1514,5.4204],[101.1383,5.4206],[101.1323,5.4244],[101.1131,5.4268],[101.1071,5.4288],[101.1041,5.438],[101.0989,5.4398],[101.1006,5.4466],[101.0957,5.447],[101.0857,5.4586],[101.0928,5.4606],[101.0849,5.4664],[101.0789,5.4677],[101.0764,5.4727],[101.0722,5.4728],[101.0554,5.4893],[101.0554,5.4917],[101.0521,5.4917],[101.0501,5.4957],[101.0446,5.496],[101.0394,5.503],[101.0172,5.5003],[101.0069,5.5028],[101.0024,5.4995],[100.9958,5.5089],[100.989,5.5069],[100.9873,5.5039],[100.9753,5.5039],[100.9737,5.4981],[100.9595,5.4979],[100.9593,5.5012],[100.9552,5.5013],[100.9502,5.5059],[100.9369,5.5047],[100.9322,5.5091],[100.9332,5.5125],[100.931,5.5159]]]}},{"type":"Feature","properties":{"c":"N.04","n":"Kota Tampan","w":"BN","p":"UMNO","cand":"Saarani bin Mohamad","pct":48.2},"geometry":{"type":"Polygon","coordinates":[[[100.9299,5.1536],[100.9206,5.1473],[100.9255,5.1403],[100.9217,5.137],[100.9211,5.1315],[100.9227,5.1286],[100.9272,5.129],[100.9266,5.123],[100.9219,5.1188],[100.9276,5.1127],[100.9174,5.0946],[100.9217,5.0866],[100.9168,5.0866],[100.9108,5.0818],[100.9122,5.0736],[100.9069,5.0652],[100.9003,5.066],[100.8966,5.0572],[100.8878,5.0574],[100.8858,5.0505],[100.8883,5.0445],[100.8828,5.0438],[100.881,5.041],[100.8834,5.036],[100.8799,5.0346],[100.8793,5.0309],[100.8881,5.0293],[100.8888,5.0246],[100.8842,5.0223],[100.8834,5.0183],[100.8887,5.017],[100.8909,5.0192],[100.8936,5.0074],[100.876,5.0028],[100.8743,4.9955],[100.8762,4.9912],[100.8668,4.9853],[100.8655,4.9813],[100.8711,4.9754],[100.8698,4.9733],[100.8726,4.968],[100.8829,4.9747],[100.8838,4.9732],[100.9006,4.9791],[100.908,4.9777],[100.9102,4.9823],[100.9194,4.9851],[100.9676,4.9748],[100.9896,4.9819],[100.9986,4.9719],[101.0047,4.9713],[101.0109,4.9667],[101.0183,4.9701],[101.0263,4.9696],[101.0278,4.9776],[101.0321,4.982],[101.0322,4.9869],[101.0386,4.9902],[101.0431,4.9994],[101.0427,5.0117],[101.047,5.0165],[101.0471,5.0215],[101.0515,5.0252],[101.0582,5.0216],[101.0643,5.0237],[101.062,5.0285],[101.0659,5.0439],[101.075,5.0468],[101.0751,5.0539],[101.0815,5.0592],[101.079,5.063],[101.0812,5.067],[101.0875,5.0706],[101.0937,5.0697],[101.0958,5.0754],[101.1021,5.077],[101.0979,5.0842],[101.0377,5.1141],[101.0337,5.1237],[101.0299,5.1262],[101.0199,5.1249],[101.0124,5.1319],[101.0016,5.1356],[100.9972,5.1406],[100.9914,5.1406],[100.9851,5.1349],[100.9723,5.1419],[100.9653,5.1487],[100.956,5.1463],[100.9485,5.1517],[100.9386,5.1506],[100.9299,5.1536]]]}},{"type":"Feature","properties":{"c":"N.05","n":"Selama","w":"PN","p":"PAS","cand":"Mohd Akmal bin Kamarudin","pct":58.3},"geometry":{"type":"Polygon","coordinates":[[[100.7348,5.312],[100.7376,5.3066],[100.7362,5.3021],[100.7335,5.3023],[100.7283,5.2752],[100.7305,5.2677],[100.7238,5.2613],[100.7193,5.2609],[100.7155,5.2566],[100.7099,5.2586],[100.699,5.2485],[100.6945,5.2489],[100.691,5.2455],[100.6867,5.2218],[100.679,5.2193],[100.6702,5.1978],[100.6658,5.198],[100.6617,5.184],[100.6809,5.1815],[100.6781,5.1775],[100.6952,5.1774],[100.6954,5.1747],[100.7011,5.1756],[100.7096,5.1703],[100.7116,5.1728],[100.7116,5.1692],[100.7235,5.1628],[100.7369,5.1479],[100.7398,5.1494],[100.7425,5.1597],[100.7513,5.1621],[100.7479,5.1642],[100.7464,5.174],[100.7527,5.1771],[100.7545,5.1754],[100.7562,5.1782],[100.7635,5.1758],[100.7637,5.1781],[100.7691,5.1806],[100.7737,5.1784],[100.7743,5.1829],[100.785,5.1769],[100.7887,5.1799],[100.7909,5.179],[100.7911,5.1761],[100.8026,5.1694],[100.825,5.182],[100.8911,5.2068],[100.9,5.2166],[100.9052,5.2194],[100.9129,5.2197],[100.9187,5.2276],[100.9199,5.238],[100.9261,5.2455],[100.9362,5.2489],[100.9423,5.2478],[100.9486,5.2522],[100.9512,5.2666],[100.9454,5.2975],[100.9355,5.3048],[100.936,5.3164],[100.9314,5.3211],[100.9261,5.3382],[100.9353,5.3434],[100.9326,5.3513],[100.9245,5.3581],[100.9248,5.3732],[100.9218,5.376],[100.9188,5.3748],[100.9164,5.3867],[100.9117,5.3907],[100.91,5.4082],[100.9118,5.4121],[100.8989,5.4217],[100.8843,5.4144],[100.875,5.4205],[100.8686,5.4302],[100.8649,5.422],[100.8532,5.4069],[100.8548,5.4023],[100.8609,5.3989],[100.848,5.379],[100.8503,5.3706],[100.8487,5.3516],[100.822,5.3322],[100.8181,5.3263],[100.8186,5.3209],[100.8148,5.3238],[100.8127,5.3204],[100.8087,5.3229],[100.8082,5.3188],[100.8028,5.3184],[100.7994,5.3227],[100.7961,5.3197],[100.7927,5.3209],[100.792,5.3238],[100.7862,5.3233],[100.787,5.3182],[100.783,5.3145],[100.772,5.3193],[100.7616,5.315],[100.7592,5.3191],[100.7511,5.3197],[100.7348,5.312]]]}},{"type":"Feature","properties":{"c":"N.06","n":"Kubu Gajah","w":"PN","p":"PAS","cand":"Khalil bin Yahaya","pct":59.2},"geometry":{"type":"Polygon","coordinates":[[[100.6249,5.1428],[100.6325,5.1316],[100.639,5.1334],[100.6395,5.1316],[100.6802,5.1334],[100.7104,5.1226],[100.7139,5.1174],[100.7102,5.1164],[100.7132,5.1014],[100.7184,5.1027],[100.7199,5.0959],[100.7192,5.0685],[100.7229,5.0635],[100.7236,5.053],[100.7281,5.0442],[100.7279,5.0308],[100.7293,5.0276],[100.7494,5.0276],[100.7495,5.0142],[100.7918,5.0139],[100.7993,5.0004],[100.8334,5.0026],[100.8383,4.9936],[100.8762,4.9912],[100.8743,4.9955],[100.876,5.0028],[100.8936,5.0074],[100.8909,5.0192],[100.8887,5.017],[100.8834,5.0183],[100.8842,5.0223],[100.8888,5.0246],[100.8881,5.0293],[100.8793,5.0309],[100.8799,5.0346],[100.8834,5.036],[100.881,5.041],[100.8828,5.0438],[100.8883,5.0445],[100.8858,5.0505],[100.8865,5.0556],[100.8889,5.0578],[100.8916,5.0559],[100.8966,5.0572],[100.9003,5.066],[100.9069,5.0652],[100.9122,5.0736],[100.9108,5.0818],[100.9168,5.0866],[100.9217,5.0866],[100.9174,5.0946],[100.9276,5.1127],[100.9219,5.1188],[100.9266,5.123],[100.9272,5.129],[100.9227,5.1286],[100.9211,5.1315],[100.9217,5.137],[100.9255,5.1403],[100.9206,5.1473],[100.9318,5.1548],[100.9311,5.1584],[100.9275,5.1605],[100.9301,5.1645],[100.9231,5.172],[100.9208,5.1795],[100.9131,5.1809],[100.9078,5.1904],[100.9008,5.1935],[100.8952,5.2059],[100.8911,5.2068],[100.825,5.182],[100.8026,5.1694],[100.7911,5.1761],[100.7909,5.179],[100.7887,5.1799],[100.785,5.1769],[100.7743,5.1829],[100.7737,5.1784],[100.7691,5.1806],[100.7637,5.1781],[100.7635,5.1758],[100.7562,5.1782],[100.7545,5.1754],[100.7527,5.1771],[100.7464,5.174],[100.7479,5.1642],[100.7513,5.1621],[100.7425,5.1597],[100.7398,5.1494],[100.7369,5.1479],[100.7235,5.1628],[100.7116,5.1692],[100.7116,5.1728],[100.7096,5.1703],[100.7011,5.1756],[100.6954,5.1747],[100.6952,5.1774],[100.6781,5.1775],[100.6809,5.1815],[100.6617,5.184],[100.661,5.1817],[100.656,5.1806],[100.6515,5.1835],[100.6516,5.1797],[100.6466,5.1724],[100.643,5.1726],[100.6387,5.1679],[100.6288,5.1643],[100.6249,5.1428]]]}},{"type":"Feature","properties":{"c":"N.07","n":"Batu Kurau","w":"PN","p":"BERSATU","cand":"Mohd Najmuddin bin Elias","pct":50.7},"geometry":{"type":"Polygon","coordinates":[[[100.8762,4.9912],[100.8383,4.9936],[100.8334,5.0026],[100.7993,5.0004],[100.7918,5.0139],[100.7495,5.0142],[100.7494,5.0276],[100.7293,5.0276],[100.7324,5.0207],[100.73,5.0117],[100.734,5.0047],[100.7323,4.982],[100.73,4.9655],[100.7249,4.9638],[100.723,4.953],[100.7129,4.9378],[100.7178,4.9358],[100.7162,4.9205],[100.7215,4.9187],[100.7243,4.9201],[100.7244,4.9243],[100.7336,4.9321],[100.7445,4.9305],[100.7458,4.9341],[100.7493,4.9354],[100.757,4.9296],[100.7613,4.9124],[100.7671,4.9118],[100.7702,4.9076],[100.7728,4.8962],[100.7857,4.8853],[100.7862,4.8804],[100.8016,4.8622],[100.8043,4.8622],[100.8047,4.8591],[100.8144,4.8607],[100.8164,4.8655],[100.8258,4.8688],[100.8327,4.8756],[100.8382,4.8758],[100.844,4.8793],[100.849,4.8787],[100.8508,4.8841],[100.8558,4.8881],[100.8568,4.8986],[100.8541,4.9002],[100.8568,4.9054],[100.8545,4.9075],[100.86,4.9165],[100.8651,4.918],[100.8627,4.9207],[100.8667,4.9233],[100.865,4.9307],[100.8576,4.9348],[100.8575,4.9381],[100.8631,4.9431],[100.8629,4.9455],[100.8728,4.95],[100.8686,4.9591],[100.8726,4.9641],[100.8698,4.9733],[100.8711,4.9754],[100.8655,4.9813],[100.8668,4.9853],[100.8762,4.9912]]]}},{"type":"Feature","properties":{"c":"N.08","n":"Titi Serong","w":"PN","p":"PAS","cand":"Muhammad Hakimi Hamzi bin Mohd Hayat","pct":47.8},"geometry":{"type":"Polygon","coordinates":[[[100.4921,5.1328],[100.4079,5.1228],[100.3917,5.129],[100.3806,5.1106],[100.3647,5.1009],[100.3616,5.0871],[100.3642,5.087],[100.372,5.0791],[100.3827,5.0805],[100.3865,5.0916],[100.4042,5.0831],[100.4001,5.0814],[100.3998,5.0785],[100.4155,5.077],[100.4188,5.0826],[100.4027,5.0929],[100.4076,5.1024],[100.4203,5.0935],[100.4247,5.0951],[100.4304,5.0934],[100.4251,5.0913],[100.4595,5.0756],[100.461,5.0814],[100.4655,5.0819],[100.467,5.0852],[100.4725,5.0834],[100.4828,5.0976],[100.481,5.1005],[100.4861,5.1036],[100.4903,5.1],[100.4993,5.1041],[100.512,5.0978],[100.5115,5.1113],[100.5175,5.1122],[100.5193,5.1161],[100.5093,5.1263],[100.5054,5.1261],[100.5034,5.1187],[100.4994,5.1182],[100.4987,5.1261],[100.4921,5.1328]]]}},{"type":"Feature","properties":{"c":"N.09","n":"Kuala Kurau","w":"PN","p":"BERSATU","cand":"Abdul Yunus bin Jamahri","pct":42.0},"geometry":{"type":"Polygon","coordinates":[[[100.372,5.0791],[100.3799,5.0771],[100.374,5.0746],[100.3797,5.0618],[100.3826,5.0445],[100.3874,5.0393],[100.3929,5.0254],[100.3995,5.0182],[100.3996,5.0117],[100.4022,5.0091],[100.4012,5.0039],[100.4055,4.9983],[100.4114,4.9957],[100.4139,5.0022],[100.4276,5.0118],[100.4301,5.0175],[100.437,5.0185],[100.4414,5.0221],[100.4408,5.0282],[100.4434,5.0327],[100.4603,5.03],[100.4615,5.0314],[100.4662,5.0553],[100.4651,5.0596],[100.4764,5.0768],[100.4725,5.0834],[100.467,5.0852],[100.4655,5.0819],[100.461,5.0814],[100.4595,5.0756],[100.4251,5.0913],[100.4304,5.0934],[100.4247,5.0951],[100.4203,5.0935],[100.4076,5.1024],[100.4027,5.0929],[100.4188,5.0826],[100.4155,5.077],[100.3998,5.0785],[100.4001,5.0814],[100.4042,5.0831],[100.3865,5.0916],[100.3827,5.0805],[100.372,5.0791]]]}},{"type":"Feature","properties":{"c":"N.10","n":"Alor Pongsu","w":"PN","p":"BERSATU","cand":"Noor Azman bin Ghazali","pct":47.8},"geometry":{"type":"Polygon","coordinates":[[[100.512,5.0978],[100.4993,5.1041],[100.4903,5.1],[100.4861,5.1036],[100.481,5.1005],[100.4828,5.0976],[100.4725,5.0834],[100.4764,5.0768],[100.4651,5.0596],[100.4662,5.0553],[100.4615,5.0314],[100.4603,5.03],[100.4434,5.0327],[100.4408,5.0282],[100.4414,5.0221],[100.437,5.0185],[100.4301,5.0175],[100.4276,5.0118],[100.4139,5.0022],[100.4115,4.9967],[100.4185,4.996],[100.4205,4.9928],[100.4239,4.9507],[100.4298,4.936],[100.4436,4.9164],[100.4482,4.9161],[100.4547,4.9201],[100.4598,4.9497],[100.4669,4.9495],[100.4697,4.9451],[100.4736,4.9478],[100.4805,4.9464],[100.4883,4.9559],[100.4927,4.9555],[100.4984,4.948],[100.4967,4.9372],[100.5005,4.9308],[100.5052,4.9297],[100.5119,4.9355],[100.5197,4.9481],[100.5228,4.9474],[100.5249,4.9409],[100.5306,4.9427],[100.534,4.9486],[100.5156,4.955],[100.5162,4.9784],[100.5051,4.9782],[100.5066,4.9883],[100.5141,4.9911],[100.5115,4.9958],[100.5133,5.0043],[100.5115,5.0065],[100.519,5.0223],[100.5316,5.0198],[100.5355,5.0214],[100.5387,5.017],[100.5634,5.0333],[100.5621,5.0236],[100.5651,5.0283],[100.5719,5.0255],[100.5832,5.0454],[100.589,5.0474],[100.6266,5.0444],[100.6259,5.0743],[100.6211,5.0727],[100.6165,5.0787],[100.6236,5.0852],[100.622,5.1075],[100.6305,5.1143],[100.6353,5.1139],[100.6377,5.1201],[100.642,5.1233],[100.647,5.1221],[100.6508,5.1277],[100.6465,5.1282],[100.6463,5.1319],[100.6395,5.1316],[100.639,5.1334],[100.6325,5.1316],[100.6249,5.1428],[100.619,5.1326],[100.6062,5.1331],[100.6048,5.127],[100.5965,5.1265],[100.5893,5.1211],[100.5913,5.1141],[100.588,5.1093],[100.5889,5.1066],[100.5826,5.1048],[100.585,5.0973],[100.5783,5.0964],[100.5641,5.0869],[100.5657,5.0815],[100.5551,5.0801],[100.5515,5.0765],[100.5493,5.0797],[100.5537,5.0851],[100.5544,5.0905],[100.5452,5.0881],[100.5429,5.096],[100.5358,5.0939],[100.5358,5.0872],[100.5288,5.0876],[100.5225,5.096],[100.5121,5.0955],[100.512,5.0978]]]}},{"type":"Feature","properties":{"c":"N.11","n":"Gunong Semanggol","w":"PN","p":"PAS","cand":"Razman bin Zakaria","pct":59.3},"geometry":{"type":"Polygon","coordinates":[[[100.6463,5.1319],[100.6465,5.1282],[100.6508,5.1277],[100.647,5.1221],[100.642,5.1233],[100.6377,5.1201],[100.6353,5.1139],[100.6305,5.1143],[100.622,5.1075],[100.6236,5.0852],[100.6165,5.0787],[100.6211,5.0727],[100.6259,5.0743],[100.6266,5.0444],[100.589,5.0474],[100.5832,5.0454],[100.5719,5.0255],[100.5651,5.0283],[100.5621,5.0236],[100.5634,5.0333],[100.5387,5.017],[100.5355,5.0214],[100.5316,5.0198],[100.5336,5.0132],[100.5321,5.0093],[100.535,5.009],[100.536,5.0059],[100.5334,5.0042],[100.5327,4.9974],[100.5423,4.992],[100.5433,4.9881],[100.536,4.9854],[100.5343,4.9766],[100.536,4.9747],[100.5401,4.976],[100.5436,4.9794],[100.5427,4.9844],[100.5458,4.9876],[100.5509,4.9863],[100.552,4.9811],[100.5463,4.9758],[100.5466,4.9698],[100.5566,4.9676],[100.5586,4.9633],[100.5887,5.0183],[100.6145,5.0196],[100.6099,5.0153],[100.6125,5.0096],[100.6106,5.0037],[100.6145,4.9976],[100.6185,4.9992],[100.6193,4.995],[100.6133,4.9926],[100.6095,4.9854],[100.6136,4.9834],[100.6178,4.9869],[100.6285,4.9851],[100.6361,4.9811],[100.6342,4.9731],[100.6443,4.9578],[100.648,4.9558],[100.6521,4.9368],[100.6627,4.9217],[100.6668,4.9251],[100.6691,4.9331],[100.674,4.9364],[100.6749,4.9433],[100.6915,4.9475],[100.7129,4.9378],[100.7176,4.9424],[100.7201,4.9511],[100.723,4.953],[100.7249,4.9638],[100.73,4.9655],[100.734,5.0047],[100.73,5.0117],[100.7324,5.0207],[100.7279,5.0308],[100.7281,5.0442],[100.7236,5.053],[100.7229,5.0635],[100.7192,5.0685],[100.7199,5.0959],[100.7184,5.1027],[100.7132,5.1014],[100.7102,5.1164],[100.7139,5.1174],[100.7104,5.1226],[100.6802,5.1334],[100.6463,5.1319]]]}},{"type":"Feature","properties":{"c":"N.12","n":"Selinsing","w":"PN","p":"BERSATU","cand":"Sallehuddin bin Abdullah","pct":46.5},"geometry":{"type":"Polygon","coordinates":[[[100.4547,4.9201],[100.4666,4.9251],[100.4675,4.9306],[100.5032,4.9157],[100.5025,4.9119],[100.4957,4.9136],[100.4877,4.9092],[100.4816,4.8999],[100.4806,4.8901],[100.4845,4.8841],[100.4863,4.8644],[100.5028,4.865],[100.5078,4.8621],[100.5191,4.8609],[100.5284,4.8721],[100.5291,4.8783],[100.5321,4.8759],[100.5412,4.8819],[100.5477,4.8825],[100.5502,4.879],[100.547,4.8775],[100.5481,4.8679],[100.5509,4.863],[100.5585,4.859],[100.5726,4.8635],[100.5848,4.8449],[100.6038,4.8451],[100.6107,4.8407],[100.6211,4.8422],[100.6266,4.8531],[100.6228,4.8614],[100.6268,4.8735],[100.6345,4.872],[100.634,4.8775],[100.6371,4.8804],[100.6305,4.8816],[100.6293,4.8861],[100.632,4.8902],[100.6393,4.8907],[100.6352,4.8982],[100.6386,4.9011],[100.6446,4.9004],[100.644,4.9036],[100.6492,4.9033],[100.6519,4.9055],[100.652,4.9098],[100.6581,4.9046],[100.663,4.9117],[100.6788,4.9196],[100.6816,4.9243],[100.7022,4.9287],[100.7129,4.9378],[100.7057,4.9395],[100.705,4.9425],[100.6879,4.9476],[100.6831,4.9441],[100.6749,4.9433],[100.674,4.9364],[100.6691,4.9331],[100.6668,4.9251],[100.6627,4.9217],[100.6521,4.9368],[100.648,4.9558],[100.6443,4.9578],[100.6342,4.9731],[100.6361,4.9811],[100.6285,4.9851],[100.6178,4.9869],[100.6136,4.9834],[100.6095,4.9854],[100.6133,4.9926],[100.6193,4.995],[100.6185,4.9992],[100.6145,4.9976],[100.6106,5.0037],[100.6125,5.0096],[100.6099,5.0153],[100.6145,5.0196],[100.5887,5.0183],[100.5576,4.9634],[100.5566,4.9676],[100.5466,4.9698],[100.5456,4.9728],[100.552,4.9811],[100.5509,4.9863],[100.5458,4.9876],[100.5427,4.9844],[100.5436,4.9794],[100.5401,4.976],[100.536,4.9747],[100.5343,4.9766],[100.534,4.9827],[100.536,4.9854],[100.5413,4.9859],[100.5433,4.9881],[100.5423,4.992],[100.5327,4.9974],[100.5334,5.0042],[100.536,5.0059],[100.535,5.009],[100.5321,5.0093],[100.5336,5.0132],[100.5316,5.0198],[100.5199,5.0227],[100.5115,5.0065],[100.5133,5.0043],[100.5115,4.9958],[100.5141,4.9911],[100.5066,4.9883],[100.5051,4.9782],[100.5162,4.9784],[100.5156,4.955],[100.534,4.9486],[100.533,4.9455],[100.5259,4.9406],[100.5228,4.9474],[100.5197,4.9481],[100.5119,4.9355],[100.5052,4.9297],[100.5005,4.9308],[100.4967,4.9372],[100.4984,4.948],[100.4927,4.9555],[100.4883,4.9559],[100.4805,4.9464],[100.4736,4.9478],[100.4697,4.9451],[100.4669,4.9495],[100.4598,4.9497],[100.4547,4.9201]]]}},{"type":"Feature","properties":{"c":"N.13","n":"Kuala Sepetang","w":"PN","p":"BERSATU","cand":"Ahmad bin Man","pct":41.3},"geometry":{"type":"Polygon","coordinates":[[[100.7129,4.9378],[100.7022,4.9287],[100.6816,4.9243],[100.6788,4.9196],[100.663,4.9117],[100.6581,4.9046],[100.652,4.9098],[100.6519,4.9055],[100.6492,4.9033],[100.644,4.9036],[100.6446,4.9004],[100.6386,4.9011],[100.6352,4.8982],[100.6393,4.8907],[100.632,4.8902],[100.6293,4.8861],[100.6305,4.8816],[100.6371,4.8804],[100.634,4.8775],[100.6345,4.872],[100.6268,4.8735],[100.6228,4.8614],[100.6266,4.8531],[100.6211,4.8422],[100.6107,4.8407],[100.6038,4.8451],[100.5848,4.8449],[100.5726,4.863],[100.5648,4.8547],[100.5524,4.8516],[100.5495,4.847],[100.5492,4.8337],[100.5558,4.8212],[100.5562,4.8102],[100.5623,4.7965],[100.559,4.7903],[100.5722,4.7862],[100.5799,4.7885],[100.5872,4.7869],[100.5899,4.783],[100.5964,4.7819],[100.6084,4.7916],[100.6245,4.791],[100.6107,4.7809],[100.6086,4.7683],[100.6231,4.7689],[100.6264,4.7672],[100.6327,4.7569],[100.6434,4.7604],[100.6468,4.7594],[100.6616,4.7472],[100.6673,4.7361],[100.671,4.7384],[100.6696,4.7431],[100.6734,4.7449],[100.674,4.7478],[100.6781,4.7479],[100.6795,4.7438],[100.6813,4.7475],[100.6827,4.7429],[100.6865,4.7417],[100.6882,4.744],[100.695,4.7431],[100.7046,4.7455],[100.7099,4.7427],[100.7121,4.7351],[100.7369,4.7408],[100.7431,4.7507],[100.7476,4.7688],[100.7387,4.7721],[100.7321,4.7709],[100.7297,4.7727],[100.7274,4.7701],[100.7251,4.7724],[100.7209,4.7709],[100.7196,4.7725],[100.7169,4.7723],[100.7165,4.7666],[100.7134,4.7686],[100.7116,4.7665],[100.6915,4.773],[100.6935,4.7828],[100.6914,4.7831],[100.6895,4.8003],[100.6927,4.8],[100.6937,4.8053],[100.6904,4.807],[100.6923,4.8154],[100.6981,4.818],[100.6954,4.8215],[100.7011,4.825],[100.7014,4.831],[100.6932,4.8486],[100.7009,4.8499],[100.6953,4.8619],[100.7096,4.8778],[100.717,4.8765],[100.7213,4.8793],[100.7155,4.9271],[100.7178,4.9358],[100.7129,4.9378]]]}},{"type":"Feature","properties":{"c":"N.14","n":"Changkat Jering","w":"PN","p":"PAS","cand":"Rahim bin Ismail","pct":41.9},"geometry":{"type":"Polygon","coordinates":[[[100.7437,4.7573],[100.7501,4.7526],[100.7579,4.7515],[100.758,4.7481],[100.761,4.7497],[100.7654,4.7484],[100.7662,4.7434],[100.7786,4.7431],[100.7816,4.7409],[100.787,4.7417],[100.7875,4.7441],[100.7973,4.7433],[100.8112,4.7613],[100.8114,4.7811],[100.8042,4.7929],[100.8065,4.8077],[100.7541,4.7978],[100.751,4.8149],[100.7466,4.8174],[100.7405,4.8149],[100.739,4.8238],[100.729,4.8364],[100.7149,4.8267],[100.7109,4.8264],[100.7101,4.8236],[100.7144,4.8231],[100.7139,4.8203],[100.7193,4.8203],[100.7208,4.8151],[100.7098,4.8103],[100.7088,4.8162],[100.7011,4.825],[100.6954,4.8215],[100.6981,4.818],[100.6923,4.8154],[100.6904,4.807],[100.6937,4.8053],[100.6927,4.8],[100.6895,4.8003],[100.6914,4.7831],[100.6935,4.7828],[100.6915,4.773],[100.7116,4.7665],[100.7134,4.7686],[100.7165,4.7666],[100.7169,4.7723],[100.7251,4.7724],[100.7274,4.7701],[100.7297,4.7727],[100.7321,4.7709],[100.7387,4.7721],[100.7476,4.7688],[100.7437,4.7573]]]}},{"type":"Feature","properties":{"c":"N.15","n":"Trong","w":"PN","p":"PAS","cand":"Muhammad Faisal bin Abdul Rahman","pct":43.8},"geometry":{"type":"MultiPolygon","coordinates":[[[[100.6086,4.7683],[100.6066,4.764],[100.5992,4.7603],[100.585,4.7654],[100.5805,4.7586],[100.5769,4.7444],[100.5856,4.699],[100.5971,4.6736],[100.5966,4.6702],[100.6224,4.6787],[100.6377,4.6752],[100.6479,4.6846],[100.656,4.6829],[100.6516,4.6756],[100.6574,4.6733],[100.6487,4.6666],[100.6405,4.6641],[100.6352,4.6537],[100.6284,4.6528],[100.6226,4.6453],[100.6153,4.6479],[100.6017,4.6351],[100.592,4.6163],[100.5907,4.606],[100.5875,4.6027],[100.5892,4.5926],[100.5849,4.5671],[100.5923,4.5676],[100.618,4.5546],[100.6406,4.5653],[100.6532,4.5673],[100.6574,4.5649],[100.6468,4.5426],[100.6335,4.5325],[100.636,4.5293],[100.6401,4.5298],[100.644,4.5269],[100.6464,4.528],[100.6459,4.5308],[100.7392,4.5246],[100.7468,4.5338],[100.7474,4.5459],[100.7544,4.5488],[100.7553,4.5528],[100.7614,4.5564],[100.761,4.561],[100.7729,4.5775],[100.7728,4.5831],[100.7754,4.5846],[100.7821,4.5816],[100.7886,4.5879],[100.7897,4.6031],[100.7977,4.609],[100.7967,4.6171],[100.8002,4.6198],[100.8041,4.6279],[100.8034,4.6321],[100.8105,4.6457],[100.8055,4.6492],[100.8061,4.6586],[100.7968,4.6693],[100.7973,4.6751],[100.8063,4.6837],[100.7956,4.6929],[100.7849,4.6946],[100.7807,4.707],[100.7876,4.7131],[100.7876,4.717],[100.7936,4.7192],[100.7992,4.7384],[100.7973,4.7433],[100.7875,4.7441],[100.787,4.7417],[100.7816,4.7409],[100.7786,4.7431],[100.7662,4.7434],[100.7654,4.7484],[100.761,4.7497],[100.758,4.7481],[100.7579,4.7515],[100.7501,4.7526],[100.7437,4.7573],[100.7431,4.7507],[100.7369,4.7408],[100.7121,4.7351],[100.7099,4.7427],[100.7046,4.7455],[100.695,4.7431],[100.6882,4.744],[100.6865,4.7417],[100.6827,4.7429],[100.6813,4.7475],[100.6795,4.7438],[100.6781,4.7479],[100.674,4.7478],[100.6734,4.7449],[100.6696,4.7431],[100.671,4.7384],[100.6673,4.7361],[100.6616,4.7472],[100.6468,4.7594],[100.6434,4.7604],[100.6327,4.7569],[100.6264,4.7672],[100.6231,4.7689],[100.6086,4.7683]]]]}},{"type":"Feature","properties":{"c":"N.16","n":"Kamunting","w":"PN","p":"PAS","cand":"Mohd Fakhrudin bin Abd Aziz","pct":44.0},"geometry":{"type":"Polygon","coordinates":[[[100.7162,4.9205],[100.7201,4.8837],[100.7229,4.8771],[100.7291,4.8735],[100.7386,4.8762],[100.7466,4.8719],[100.7532,4.8743],[100.7573,4.8708],[100.7568,4.8644],[100.7508,4.8588],[100.7557,4.8596],[100.7611,4.8564],[100.7675,4.8596],[100.808,4.8518],[100.8043,4.8622],[100.8016,4.8622],[100.7862,4.8804],[100.7857,4.8853],[100.7809,4.8904],[100.7728,4.8962],[100.7737,4.8991],[100.7671,4.9118],[100.7613,4.9124],[100.757,4.9296],[100.7476,4.9354],[100.7445,4.9305],[100.7336,4.9321],[100.7244,4.9243],[100.7243,4.9201],[100.7215,4.9187],[100.7162,4.9205]]]}},{"type":"Feature","properties":{"c":"N.17","n":"Pokok Assam","w":"PH","p":"DAP","cand":"Ong Seng Guan","pct":67.4},"geometry":{"type":"Polygon","coordinates":[[[100.8065,4.8077],[100.808,4.8518],[100.7675,4.8596],[100.7611,4.8564],[100.7557,4.8596],[100.7508,4.8588],[100.7568,4.8644],[100.7573,4.8708],[100.7532,4.8743],[100.7466,4.8719],[100.7386,4.8762],[100.7368,4.8725],[100.7276,4.8679],[100.7359,4.8624],[100.7402,4.8554],[100.7309,4.8465],[100.729,4.8364],[100.739,4.8238],[100.7405,4.8149],[100.7466,4.8174],[100.751,4.8149],[100.7541,4.7978],[100.8065,4.8077]]]}},{"type":"Feature","properties":{"c":"N.18","n":"Aulong","w":"PH","p":"DAP","cand":"Teh Kok Lim","pct":66.2},"geometry":{"type":"Polygon","coordinates":[[[100.7011,4.825],[100.7088,4.8162],[100.7098,4.8103],[100.7208,4.8151],[100.7193,4.8203],[100.7139,4.8203],[100.7144,4.8231],[100.7101,4.8236],[100.7109,4.8264],[100.7149,4.8267],[100.729,4.8364],[100.7309,4.8465],[100.7402,4.8554],[100.7359,4.8624],[100.7276,4.8679],[100.7368,4.8725],[100.7386,4.8762],[100.7291,4.8735],[100.7213,4.8793],[100.717,4.8765],[100.7096,4.8778],[100.6953,4.8619],[100.7009,4.8499],[100.6932,4.8486],[100.7014,4.831],[100.7011,4.825]]]}},{"type":"Feature","properties":{"c":"N.19","n":"Chenderoh","w":"PN","p":"BERSATU","cand":"Syed Lukman Hakim bin Syed Mohd","pct":39.4},"geometry":{"type":"Polygon","coordinates":[[[100.8726,4.968],[100.8726,4.9641],[100.8686,4.9591],[100.8728,4.95],[100.8629,4.9455],[100.8631,4.9431],[100.8575,4.9381],[100.8576,4.9348],[100.865,4.9307],[100.8667,4.9233],[100.8627,4.9207],[100.8651,4.918],[100.86,4.9165],[100.8545,4.9075],[100.8568,4.9054],[100.8541,4.9002],[100.8568,4.8986],[100.8558,4.8881],[100.8508,4.8841],[100.849,4.8787],[100.844,4.8793],[100.8382,4.8758],[100.8327,4.8756],[100.8258,4.8688],[100.8164,4.8655],[100.8144,4.8607],[100.9011,4.854],[100.9019,4.8468],[100.9049,4.8466],[100.9051,4.849],[100.9187,4.8332],[100.921,4.8335],[100.9237,4.8246],[100.9224,4.8155],[100.9136,4.8054],[100.9218,4.7952],[100.9261,4.7952],[100.9268,4.7924],[100.93,4.7916],[100.9318,4.7942],[100.9354,4.7933],[100.9343,4.7836],[100.9395,4.7822],[100.9461,4.7844],[100.9479,4.796],[100.966,4.8248],[100.9615,4.8385],[100.9519,4.8481],[100.9478,4.861],[100.9477,4.8777],[100.9533,4.8861],[100.956,4.8997],[100.9599,4.902],[100.9642,4.901],[100.9805,4.8924],[100.9834,4.8849],[100.9928,4.8854],[100.9947,4.8904],[100.9926,4.9057],[100.981,4.9147],[100.9788,4.9267],[100.9822,4.9381],[100.9776,4.968],[100.9743,4.9693],[100.9679,4.9667],[100.96,4.9606],[100.9552,4.9652],[100.9615,4.9752],[100.9261,4.9851],[100.9194,4.9851],[100.9102,4.9823],[100.908,4.9777],[100.9006,4.9791],[100.8838,4.9732],[100.8829,4.9747],[100.8726,4.968]]]}},{"type":"Feature","properties":{"c":"N.20","n":"Lubok Merbau","w":"PN","p":"PAS","cand":"Azizi bin Mohamed Ridzuwan","pct":47.2},"geometry":{"type":"Polygon","coordinates":[[[100.9461,4.7844],[100.9395,4.7822],[100.9343,4.7836],[100.9354,4.7933],[100.9318,4.7942],[100.93,4.7916],[100.9268,4.7924],[100.9261,4.7952],[100.9218,4.7952],[100.9136,4.8054],[100.9224,4.8155],[100.9237,4.8246],[100.921,4.8335],[100.9187,4.8332],[100.9051,4.849],[100.9049,4.8466],[100.9019,4.8468],[100.9011,4.854],[100.8123,4.8613],[100.8064,4.8591],[100.8088,4.848],[100.808,4.8196],[100.8042,4.7929],[100.8114,4.7811],[100.8112,4.7613],[100.7973,4.7433],[100.7992,4.7384],[100.7936,4.7192],[100.7876,4.717],[100.7876,4.7131],[100.7807,4.707],[100.7849,4.6946],[100.7956,4.6929],[100.8063,4.6837],[100.8728,4.7119],[100.8725,4.7309],[100.8756,4.7317],[100.8804,4.7403],[100.877,4.7449],[100.8782,4.7482],[100.8849,4.7479],[100.8932,4.7686],[100.9016,4.7673],[100.8975,4.7725],[100.9037,4.776],[100.8982,4.7888],[100.9039,4.7953],[100.9056,4.7962],[100.9102,4.7915],[100.9113,4.7867],[100.9178,4.7814],[100.9176,4.7762],[100.9281,4.7756],[100.9456,4.7802],[100.9461,4.7844]]]}},{"type":"Feature","properties":{"c":"N.21","n":"Lintang","w":"BN","p":"UMNO","cand":"Mohd Zolkafly bin Harun","pct":48.4},"geometry":{"type":"Polygon","coordinates":[[[101.2955,5.1702],[101.2979,5.1651],[101.2892,5.1509],[101.2698,5.138],[101.2513,5.1369],[101.2309,5.1393],[101.2223,5.1138],[101.2097,5.0944],[101.2035,5.089],[101.1951,5.089],[101.1914,5.092],[101.1946,5.0975],[101.1925,5.101],[101.1899,5.0997],[101.1798,5.0883],[101.1749,5.0893],[101.1701,5.0809],[101.1572,5.0743],[101.1605,5.0704],[101.1549,5.0667],[101.1551,5.063],[101.1399,5.0619],[101.1184,5.0713],[101.1176,5.074],[101.1114,5.0738],[101.1072,5.0667],[101.1039,5.0678],[101.1001,5.0759],[101.0958,5.0754],[101.0937,5.0697],[101.0875,5.0706],[101.0812,5.067],[101.079,5.063],[101.0815,5.0592],[101.0751,5.0539],[101.075,5.0468],[101.0659,5.0439],[101.062,5.0285],[101.0643,5.0237],[101.0582,5.0216],[101.0515,5.0252],[101.0471,5.0215],[101.047,5.0165],[101.0427,5.0117],[101.0431,4.9994],[101.0386,4.9902],[101.0322,4.9869],[101.0321,4.982],[101.0278,4.9776],[101.0263,4.9696],[101.0183,4.9701],[101.0109,4.9667],[101.0047,4.9713],[100.9986,4.9719],[100.9896,4.9819],[100.9676,4.9748],[100.9615,4.9752],[100.9552,4.9652],[100.96,4.9606],[100.9679,4.9667],[100.9743,4.9693],[100.9776,4.968],[100.9822,4.9381],[100.9788,4.9267],[100.981,4.9147],[100.9926,4.9057],[100.9947,4.8904],[100.9928,4.8854],[100.9834,4.8849],[100.9805,4.8924],[100.9642,4.901],[100.9599,4.902],[100.956,4.8997],[100.9533,4.8861],[100.9477,4.8777],[100.9478,4.861],[100.9519,4.8481],[100.9615,4.8385],[100.966,4.8248],[100.9479,4.796],[100.9456,4.7802],[100.9805,4.7888],[100.9872,4.7973],[100.9871,4.8002],[101.045,4.8084],[101.0495,4.8117],[101.0595,4.811],[101.0604,4.8156],[101.0572,4.8214],[101.0595,4.8216],[101.0597,4.8247],[101.072,4.8207],[101.0804,4.8293],[101.0805,4.8438],[101.0834,4.8492],[101.0797,4.8554],[101.1188,4.8529],[101.1237,4.8501],[101.1279,4.8535],[101.157,4.8536],[101.1714,4.8508],[101.1719,4.8461],[101.1764,4.8456],[101.1801,4.8522],[101.1852,4.8549],[101.1833,4.865],[101.1859,4.8652],[101.1885,4.8617],[101.201,4.8654],[101.202,4.9141],[101.2085,4.9143],[101.2103,4.909],[101.2054,4.9064],[101.2087,4.9017],[101.2045,4.9008],[101.2076,4.8992],[101.2085,4.8947],[101.2133,4.8933],[101.2194,4.8968],[101.219,4.8906],[101.2218,4.8936],[101.2269,4.8929],[101.2243,4.889],[101.2254,4.8864],[101.2464,4.8892],[101.2466,4.8869],[101.249,4.8869],[101.2441,4.8787],[101.2395,4.8768],[101.2397,4.8722],[101.2346,4.8668],[101.2413,4.8626],[101.2413,4.8592],[101.2446,4.857],[101.2525,4.8564],[101.2534,4.854],[101.2608,4.8522],[101.2615,4.8556],[101.265,4.8575],[101.2701,4.8566],[101.2755,4.8515],[101.2825,4.8535],[101.28,4.8619],[101.2822,4.8659],[101.2995,4.858],[101.3077,4.8562],[101.312,4.8577],[101.3148,4.8491],[101.3135,4.843],[101.3228,4.8322],[101.3315,4.8378],[101.3493,4.835],[101.3481,4.8402],[101.3542,4.8429],[101.3619,4.8412],[101.3625,4.8471],[101.3693,4.842],[101.3671,4.8551],[101.3788,4.8667],[101.3898,4.8551],[101.4,4.8564],[101.4005,4.8644],[101.4036,4.8653],[101.4107,4.8556],[101.4242,4.8506],[101.4287,4.8572],[101.4357,4.8598],[101.4411,4.8556],[101.4465,4.8589],[101.4381,4.8687],[101.4365,4.8779],[101.4448,4.8784],[101.4535,4.8916],[101.4513,4.9007],[101.4547,4.9051],[101.4535,4.9209],[101.4455,4.9403],[101.4491,4.9471],[101.4472,4.9555],[101.4257,4.9731],[101.4232,4.9785],[101.4233,4.9842],[101.4327,4.9924],[101.4411,4.9964],[101.4456,4.9946],[101.4487,4.9974],[101.4483,5.0021],[101.4528,5.0052],[101.4472,5.0125],[101.4491,5.0149],[101.4422,5.0218],[101.4356,5.0235],[101.4356,5.0276],[101.4254,5.0298],[101.4143,5.0595],[101.4149,5.0684],[101.411,5.0837],[101.3975,5.0939],[101.3971,5.1004],[101.3918,5.1015],[101.3807,5.1105],[101.3746,5.1109],[101.3685,5.1166],[101.3594,5.1037],[101.3567,5.1094],[101.3526,5.1096],[101.3502,5.1131],[101.3493,5.1264],[101.3376,5.1532],[101.3275,5.1569],[101.314,5.1765],[101.3003,5.1776],[101.2955,5.1702]]]}},{"type":"Feature","properties":{"c":"N.22","n":"Jalong","w":"PH","p":"DAP","cand":"Loh Sze Yee","pct":59.1},"geometry":{"type":"Polygon","coordinates":[[[101.4107,4.8556],[101.4036,4.8653],[101.4005,4.8644],[101.4,4.8564],[101.3898,4.8551],[101.3788,4.8667],[101.3671,4.8551],[101.3693,4.842],[101.3625,4.8471],[101.3619,4.8412],[101.3542,4.8429],[101.3481,4.8402],[101.3493,4.835],[101.3315,4.8378],[101.3228,4.8322],[101.3135,4.843],[101.3148,4.8491],[101.312,4.8577],[101.3077,4.8562],[101.2995,4.858],[101.2822,4.8659],[101.28,4.8619],[101.2825,4.8535],[101.2755,4.8515],[101.2701,4.8566],[101.265,4.8575],[101.2615,4.8556],[101.2608,4.8522],[101.2534,4.854],[101.2525,4.8564],[101.2446,4.857],[101.2413,4.8592],[101.2413,4.8626],[101.2346,4.8668],[101.2397,4.8722],[101.2395,4.8768],[101.2441,4.8787],[101.249,4.8869],[101.2466,4.8869],[101.2464,4.8892],[101.2254,4.8864],[101.2243,4.889],[101.2269,4.8929],[101.2218,4.8936],[101.219,4.8906],[101.2194,4.8968],[101.2133,4.8933],[101.2085,4.8947],[101.2076,4.8992],[101.2045,4.8999],[101.2087,4.9017],[101.2054,4.9064],[101.2103,4.909],[101.2085,4.9143],[101.202,4.9141],[101.201,4.8654],[101.1885,4.8617],[101.1859,4.8652],[101.1833,4.865],[101.1852,4.8549],[101.1801,4.8522],[101.1764,4.8456],[101.1719,4.8461],[101.1714,4.8508],[101.157,4.8536],[101.1279,4.8535],[101.1237,4.8501],[101.1188,4.8529],[101.0797,4.8554],[101.0834,4.8492],[101.0805,4.8438],[101.0804,4.8293],[101.072,4.8207],[101.0597,4.8247],[101.0595,4.8216],[101.0572,4.8214],[101.0604,4.8156],[101.0595,4.811],[101.0495,4.8117],[101.045,4.8084],[101.0154,4.8046],[101.0381,4.7873],[101.0496,4.7814],[101.0509,4.7723],[101.0488,4.7687],[101.0571,4.76],[101.0629,4.7627],[101.0656,4.769],[101.0682,4.7675],[101.0715,4.7693],[101.0781,4.764],[101.1028,4.774],[101.1161,4.7766],[101.1164,4.7803],[101.1248,4.7841],[101.1423,4.7803],[101.145,4.7824],[101.1665,4.7803],[101.1659,4.775],[101.1699,4.7742],[101.179,4.7765],[101.1837,4.7743],[101.1919,4.7753],[101.1986,4.7634],[101.207,4.7639],[101.2131,4.76],[101.2129,4.7569],[101.2163,4.7545],[101.2151,4.7509],[101.2178,4.7492],[101.2326,4.7552],[101.2385,4.7477],[101.2442,4.7475],[101.2473,4.7379],[101.2519,4.7324],[101.26,4.7302],[101.2673,4.7326],[101.2707,4.7253],[101.2707,4.7175],[101.2788,4.7121],[101.2854,4.7141],[101.2917,4.7084],[101.2958,4.7037],[101.2973,4.6891],[101.3047,4.6879],[101.3109,4.6783],[101.3304,4.6808],[101.334,4.6842],[101.3337,4.6953],[101.335,4.6987],[101.3407,4.7003],[101.3404,4.7072],[101.3434,4.7134],[101.3476,4.7131],[101.3506,4.7064],[101.3584,4.7072],[101.3654,4.714],[101.3708,4.7125],[101.3728,4.7075],[101.3792,4.7081],[101.3875,4.7231],[101.3746,4.7613],[101.3873,4.7642],[101.398,4.7624],[101.3958,4.7731],[101.4111,4.7986],[101.4151,4.8133],[101.4001,4.8336],[101.4032,4.839],[101.4021,4.8431],[101.4124,4.844],[101.4098,4.851],[101.4107,4.8556]]]}},{"type":"Feature","properties":{"c":"N.23","n":"Manjoi","w":"PN","p":"PAS","cand":"Mohd Hafez bin Sabri","pct":44.1},"geometry":{"type":"Polygon","coordinates":[[[101.0523,4.7504],[101.0529,4.7447],[101.0417,4.7327],[101.039,4.7327],[101.0332,4.7133],[101.0358,4.7063],[101.0419,4.7036],[101.042,4.6975],[101.0386,4.6944],[101.0298,4.6951],[101.0271,4.6916],[101.0266,4.6846],[101.0262,4.6758],[101.0284,4.6734],[101.0183,4.6688],[101.02,4.6599],[101.0302,4.6558],[101.0344,4.6508],[101.0445,4.6507],[101.0446,4.6469],[101.0536,4.6425],[101.056,4.6424],[101.0575,4.646],[101.0612,4.646],[101.0655,4.6392],[101.0607,4.6317],[101.055,4.6124],[101.062,4.6083],[101.0633,4.6121],[101.0725,4.6156],[101.0796,4.6307],[101.0796,4.6376],[101.0864,4.644],[101.0904,4.6529],[101.1072,4.6549],[101.1096,4.6534],[101.1098,4.6495],[101.1159,4.6478],[101.1306,4.6681],[101.1381,4.6719],[101.1477,4.6719],[101.1491,4.6734],[101.1447,4.6746],[101.139,4.683],[101.1484,4.6912],[101.1222,4.7141],[101.1213,4.7346],[101.1126,4.7277],[101.1079,4.7348],[101.0974,4.7319],[101.0975,4.734],[101.0523,4.7504]]]}},{"type":"Feature","properties":{"c":"N.24","n":"Hulu Kinta","w":"PH","p":"PKR","cand":"Muhammad Arafat bin Varisai Mahamad","pct":39.0},"geometry":{"type":"Polygon","coordinates":[[[101.334,4.6842],[101.3304,4.6808],[101.3109,4.6783],[101.3047,4.6879],[101.2973,4.6891],[101.2958,4.7037],[101.2917,4.7084],[101.2854,4.7141],[101.2788,4.7121],[101.2707,4.7175],[101.2707,4.7253],[101.2673,4.7326],[101.26,4.7302],[101.2519,4.7324],[101.2473,4.7379],[101.2442,4.7475],[101.2385,4.7477],[101.2326,4.7552],[101.2178,4.7492],[101.2151,4.7509],[101.2163,4.7545],[101.2129,4.7569],[101.2131,4.76],[101.207,4.7639],[101.1986,4.7634],[101.1919,4.7753],[101.1837,4.7743],[101.179,4.7765],[101.1699,4.7742],[101.1659,4.775],[101.1665,4.7803],[101.145,4.7824],[101.1423,4.7803],[101.1248,4.7841],[101.1164,4.7803],[101.1161,4.7766],[101.1028,4.774],[101.0781,4.764],[101.0715,4.7693],[101.0682,4.7675],[101.0656,4.769],[101.0629,4.7627],[101.0593,4.7625],[101.0545,4.7565],[101.0523,4.7504],[101.0975,4.734],[101.0974,4.7319],[101.1079,4.7348],[101.1126,4.7277],[101.1213,4.7346],[101.1222,4.7141],[101.1484,4.6912],[101.139,4.683],[101.1447,4.6746],[101.1491,4.6734],[101.1381,4.6719],[101.1306,4.6681],[101.1159,4.6478],[101.1202,4.6502],[101.1298,4.6479],[101.1387,4.6497],[101.1387,4.6284],[101.1358,4.6185],[101.1305,4.6182],[101.1282,4.6158],[101.1308,4.6132],[101.1274,4.6103],[101.1233,4.612],[101.1206,4.6082],[101.121,4.6008],[101.1231,4.5954],[101.128,4.5966],[101.1369,4.5923],[101.135,4.5886],[101.1399,4.586],[101.1455,4.5724],[101.1574,4.58],[101.1617,4.5855],[101.173,4.5849],[101.198,4.6035],[101.2142,4.6276],[101.2174,4.6309],[101.2218,4.6314],[101.2273,4.6216],[101.2375,4.6182],[101.2387,4.6152],[101.2362,4.6123],[101.2406,4.6056],[101.2485,4.6096],[101.2531,4.6093],[101.2632,4.602],[101.2685,4.6022],[101.2765,4.5981],[101.2802,4.6025],[101.2934,4.6041],[101.295,4.6007],[101.3008,4.6001],[101.3061,4.5923],[101.3137,4.5899],[101.3216,4.5782],[101.3437,4.5754],[101.3497,4.5675],[101.3539,4.5556],[101.3565,4.5693],[101.3515,4.5897],[101.3488,4.592],[101.362,4.5988],[101.3657,4.6031],[101.3639,4.6076],[101.3738,4.6101],[101.3702,4.6212],[101.3767,4.6299],[101.3708,4.6347],[101.3645,4.6349],[101.3627,4.6501],[101.3578,4.6602],[101.3519,4.6641],[101.3499,4.6713],[101.3462,4.672],[101.334,4.6842]]]}},{"type":"Feature","properties":{"c":"N.25","n":"Canning","w":"PH","p":"DAP","cand":"Jenny Choy Tsi Jen","pct":87.1},"geometry":{"type":"Polygon","coordinates":[[[101.1369,4.6271],[101.1287,4.6217],[101.106,4.6265],[101.1038,4.6068],[101.1006,4.6045],[101.1024,4.5977],[101.0901,4.5929],[101.0917,4.5903],[101.1074,4.5771],[101.1168,4.5848],[101.1268,4.5887],[101.135,4.5886],[101.1369,4.5923],[101.128,4.5966],[101.1231,4.5954],[101.1206,4.6082],[101.1233,4.612],[101.1274,4.6103],[101.1308,4.6132],[101.1282,4.6158],[101.1305,4.6182],[101.1358,4.6185],[101.1369,4.6271]]]}},{"type":"Feature","properties":{"c":"N.26","n":"Tebing Tinggi","w":"PH","p":"DAP","cand":"Abdul Aziz bin Bari","pct":40.6},"geometry":{"type":"Polygon","coordinates":[[[101.0801,4.5901],[101.0835,4.5932],[101.0764,4.5933],[101.0767,4.5991],[101.0737,4.601],[101.0707,4.5948],[101.0656,4.5914],[101.0651,4.5875],[101.0682,4.5846],[101.0554,4.5591],[101.052,4.5408],[101.0486,4.543],[101.0406,4.5411],[101.0383,4.5354],[101.0398,4.5287],[101.0438,4.5295],[101.0494,4.5267],[101.0439,4.5017],[101.0436,4.4954],[101.0458,4.4927],[101.0527,4.4936],[101.0558,4.5088],[101.0651,4.5151],[101.0658,4.5217],[101.0729,4.5342],[101.0752,4.5492],[101.0797,4.5533],[101.0684,4.5551],[101.0687,4.5606],[101.073,4.5624],[101.0714,4.5716],[101.0761,4.5736],[101.0746,4.5814],[101.0801,4.5901]]]}},{"type":"Feature","properties":{"c":"N.27","n":"Pasir Pinji","w":"PH","p":"DAP","cand":"Goh See Hua","pct":90.5},"geometry":{"type":"Polygon","coordinates":[[[101.0901,4.5929],[101.0873,4.589],[101.0801,4.5901],[101.0746,4.5814],[101.0761,4.5736],[101.0714,4.5716],[101.073,4.5624],[101.0687,4.5606],[101.0684,4.5551],[101.0797,4.5533],[101.0838,4.5563],[101.0827,4.5647],[101.094,4.5753],[101.1074,4.5771],[101.0901,4.5929]]]}},{"type":"Feature","properties":{"c":"N.28","n":"Bercham","w":"PH","p":"DAP","cand":"Ong Boon Piow","pct":81.2},"geometry":{"type":"Polygon","coordinates":[[[101.1159,4.6478],[101.1098,4.6495],[101.1096,4.6534],[101.1072,4.6549],[101.0931,4.6542],[101.0904,4.6529],[101.0864,4.644],[101.089,4.6373],[101.0937,4.6329],[101.1185,4.6224],[101.1287,4.6217],[101.1387,4.6284],[101.1387,4.6497],[101.1298,4.6479],[101.1202,4.6502],[101.1159,4.6478]]]}},{"type":"Feature","properties":{"c":"N.29","n":"Kepayang","w":"PH","p":"DAP","cand":"Nga Kor Ming","pct":72.6},"geometry":{"type":"Polygon","coordinates":[[[101.0753,4.6214],[101.0776,4.6196],[101.0769,4.6165],[101.0805,4.6157],[101.0737,4.601],[101.0767,4.5991],[101.0764,4.5933],[101.0835,4.5932],[101.0801,4.5901],[101.0873,4.589],[101.0901,4.5929],[101.1024,4.5977],[101.1006,4.6045],[101.1038,4.6068],[101.106,4.6265],[101.0937,4.6329],[101.089,4.6373],[101.0864,4.644],[101.0796,4.6376],[101.0796,4.6307],[101.0753,4.6214]]]}},{"type":"Feature","properties":{"c":"N.30","n":"Buntong","w":"PH","p":"DAP","cand":"Thulsi Thivani a/p Manogaran","pct":84.0},"geometry":{"type":"Polygon","coordinates":[[[101.062,4.6083],[101.0554,4.5937],[101.0528,4.5941],[101.0496,4.6027],[101.0427,4.6059],[101.0382,4.5867],[101.053,4.5791],[101.0612,4.5806],[101.0646,4.5781],[101.0682,4.5846],[101.0651,4.5875],[101.0656,4.5914],[101.0707,4.5948],[101.0805,4.6157],[101.0769,4.6165],[101.0776,4.6196],[101.0753,4.6214],[101.0725,4.6156],[101.0633,4.6121],[101.062,4.6083]]]}},{"type":"Feature","properties":{"c":"N.31","n":"Jelapang","w":"PH","p":"DAP","cand":"Cheah Pou Hian","pct":88.7},"geometry":{"type":"Polygon","coordinates":[[[101.02,4.6599],[101.017,4.6503],[101.0107,4.6493],[101.0088,4.6428],[101.0144,4.6364],[101.0115,4.6311],[101.0134,4.6263],[101.0106,4.6225],[101.0125,4.6147],[101.0086,4.6119],[101.0147,4.6044],[101.0139,4.597],[101.0091,4.591],[100.9979,4.5848],[100.9991,4.5802],[100.9952,4.5737],[100.9963,4.5667],[100.9936,4.5617],[100.9954,4.5584],[100.9858,4.5411],[100.9832,4.5403],[100.982,4.5261],[100.9774,4.5223],[100.9784,4.5188],[100.9711,4.5133],[100.9749,4.509],[100.9895,4.5105],[100.9876,4.5064],[100.9966,4.4995],[100.9971,4.5024],[101.0076,4.5077],[101.013,4.5051],[101.0139,4.5021],[101.0191,4.5018],[101.026,4.5191],[101.0282,4.5543],[101.0348,4.5656],[101.0427,4.6059],[101.0496,4.6027],[101.0528,4.5941],[101.0554,4.5937],[101.062,4.6083],[101.055,4.6124],[101.0607,4.6317],[101.0655,4.6392],[101.0612,4.646],[101.0575,4.646],[101.056,4.6424],[101.0536,4.6425],[101.0446,4.6469],[101.0445,4.6507],[101.0344,4.6508],[101.0302,4.6558],[101.02,4.6599]]]}},{"type":"Feature","properties":{"c":"N.32","n":"Menglembu","w":"PH","p":"DAP","cand":"Steven Chaw Kam Foon","pct":87.9},"geometry":{"type":"Polygon","coordinates":[[[101.0646,4.5781],[101.0612,4.5806],[101.053,4.5791],[101.0382,4.5867],[101.0336,4.5616],[101.0282,4.5543],[101.026,4.5191],[101.0225,4.5093],[101.0371,4.5059],[101.0439,4.5017],[101.0494,4.5267],[101.0438,4.5295],[101.0398,4.5287],[101.0383,4.5354],[101.0406,4.5411],[101.0486,4.543],[101.052,4.5408],[101.0554,4.5591],[101.0646,4.5781]]]}},{"type":"Feature","properties":{"c":"N.33","n":"Tronoh","w":"PH","p":"DAP","cand":"Steven Tiw Tee Siang","pct":63.3},"geometry":{"type":"Polygon","coordinates":[[[100.9749,4.509],[100.9579,4.4855],[100.947,4.4524],[100.9422,4.3924],[100.9784,4.3892],[100.9776,4.3683],[101.0001,4.3548],[101.0006,4.3598],[100.998,4.3639],[101.0079,4.3633],[101.0115,4.3666],[101.0141,4.3627],[101.0185,4.3645],[101.0271,4.363],[101.0215,4.4004],[101.01,4.4384],[101.0093,4.4523],[101.0217,4.4508],[101.0233,4.4686],[101.0447,4.4602],[101.0399,4.4795],[101.0257,4.4915],[101.0291,4.5086],[101.0225,4.5093],[101.0191,4.5018],[101.0139,4.5021],[101.013,4.5051],[101.0076,4.5077],[100.9971,4.5024],[100.9966,4.4995],[100.9876,4.5064],[100.9895,4.5105],[100.9749,4.509]]]}},{"type":"Feature","properties":{"c":"N.34","n":"Bukit Chandan","w":"PN","p":"BERSATU","cand":"Hashim bin Bujang","pct":38.4},"geometry":{"type":"Polygon","coordinates":[[[100.9201,4.5587],[100.9224,4.5554],[100.9929,4.5556],[100.9954,4.5584],[100.9936,4.5617],[100.9963,4.5667],[100.9952,4.5737],[100.9991,4.5802],[100.9979,4.5848],[101.0091,4.591],[101.0139,4.597],[101.0147,4.6044],[101.0086,4.6119],[101.0125,4.6147],[101.0106,4.6225],[101.0134,4.6263],[101.0115,4.6311],[101.0144,4.6364],[101.0088,4.6428],[101.0107,4.6493],[101.017,4.6503],[101.017,4.6547],[101.0194,4.6554],[101.0183,4.6688],[101.0284,4.6734],[101.0262,4.6758],[101.0271,4.6916],[101.0298,4.6951],[101.0386,4.6944],[101.042,4.6975],[101.0419,4.7036],[101.0358,4.7063],[101.0332,4.7133],[101.039,4.7327],[101.0417,4.7327],[101.0529,4.7447],[101.0512,4.7474],[101.0571,4.76],[101.0488,4.7687],[101.0509,4.7723],[101.0496,4.7814],[101.0381,4.7873],[101.0154,4.8046],[100.9871,4.8002],[100.9872,4.7973],[100.9805,4.7888],[100.9739,4.7867],[100.9622,4.7855],[100.949,4.7799],[100.9425,4.7805],[100.9281,4.7756],[100.9176,4.7762],[100.9173,4.7726],[100.9264,4.7724],[100.9267,4.7691],[100.9365,4.7679],[100.9284,4.7647],[100.9287,4.7613],[100.9318,4.7598],[100.9243,4.7577],[100.9186,4.749],[100.9229,4.7501],[100.9265,4.7393],[100.9245,4.738],[100.9194,4.7466],[100.9202,4.742],[100.9036,4.727],[100.9132,4.7256],[100.9139,4.7237],[100.917,4.7253],[100.938,4.7118],[100.936,4.7036],[100.9412,4.6842],[100.921,4.6643],[100.9223,4.6597],[100.9263,4.6574],[100.9265,4.6529],[100.9022,4.6233],[100.8869,4.611],[100.8814,4.5984],[100.8849,4.592],[100.891,4.5875],[100.9124,4.5774],[100.9273,4.5751],[100.928,4.5673],[100.9234,4.56],[100.9201,4.5587]]]}},{"type":"Feature","properties":{"c":"N.35","n":"Manong","w":"PN","p":"PAS","cand":"Berhanudin bin Ahmad","pct":44.0},"geometry":{"type":"Polygon","coordinates":[[[100.7392,4.5246],[100.7905,4.5397],[100.8881,4.5605],[100.9027,4.5662],[100.9167,4.562],[100.9201,4.5587],[100.9265,4.564],[100.9273,4.5751],[100.9124,4.5774],[100.891,4.5875],[100.8849,4.592],[100.8814,4.5984],[100.8869,4.611],[100.9022,4.6233],[100.9265,4.6529],[100.9263,4.6574],[100.9223,4.6597],[100.921,4.6643],[100.9412,4.6842],[100.936,4.7036],[100.938,4.7118],[100.917,4.7253],[100.9139,4.7237],[100.9132,4.7256],[100.9036,4.727],[100.9202,4.742],[100.9194,4.7466],[100.9245,4.738],[100.9265,4.7393],[100.9229,4.7501],[100.9186,4.749],[100.9243,4.7577],[100.9318,4.7598],[100.9287,4.7613],[100.9284,4.7647],[100.9365,4.7679],[100.9267,4.7691],[100.9264,4.7724],[100.9173,4.7726],[100.9178,4.7814],[100.9113,4.7867],[100.9102,4.7915],[100.9056,4.7962],[100.8982,4.7888],[100.9037,4.776],[100.8975,4.7725],[100.9016,4.7673],[100.8932,4.7686],[100.8849,4.7479],[100.8782,4.7482],[100.877,4.7449],[100.8804,4.7403],[100.8756,4.7317],[100.8725,4.7309],[100.8728,4.7119],[100.8063,4.6837],[100.7973,4.6751],[100.7968,4.6693],[100.8061,4.6586],[100.8055,4.6492],[100.8105,4.6457],[100.8034,4.6321],[100.8041,4.6279],[100.8002,4.6198],[100.7967,4.6171],[100.7977,4.609],[100.7897,4.6031],[100.7886,4.5879],[100.7821,4.5816],[100.7754,4.5846],[100.7728,4.5831],[100.7729,4.5775],[100.761,4.561],[100.7614,4.5564],[100.7553,4.5528],[100.7544,4.5488],[100.7474,4.5459],[100.7468,4.5338],[100.7392,4.5246]]]}},{"type":"Feature","properties":{"c":"N.36","n":"Pengkalan Baharu","w":"BN","p":"UMNO","cand":"Azman bin Noh","pct":40.6},"geometry":{"type":"Polygon","coordinates":[[[100.6283,4.5363],[100.6189,4.5153],[100.6187,4.4698],[100.6272,4.4704],[100.6372,4.4661],[100.6455,4.4657],[100.6455,4.4588],[100.6407,4.4588],[100.6385,4.4546],[100.6444,4.4539],[100.6444,4.4513],[100.6371,4.4513],[100.6319,4.4424],[100.6382,4.442],[100.6386,4.4294],[100.633,4.429],[100.6333,4.4254],[100.6581,4.4257],[100.6599,4.4275],[100.6927,4.4265],[100.6932,4.4184],[100.6951,4.4174],[100.7063,4.4178],[100.7064,4.4264],[100.7193,4.4267],[100.7053,4.3629],[100.71,4.3636],[100.7127,4.3563],[100.7198,4.3575],[100.7206,4.3541],[100.7285,4.3516],[100.7561,4.3476],[100.7639,4.3444],[100.758,4.3383],[100.7763,4.3243],[100.7743,4.3222],[100.7935,4.3083],[100.7911,4.3016],[100.7996,4.2947],[100.8221,4.2989],[100.8204,4.3428],[100.8165,4.3428],[100.8165,4.3467],[100.8201,4.3467],[100.8188,4.3574],[100.8022,4.3701],[100.805,4.3745],[100.8032,4.4822],[100.8118,4.4819],[100.8175,4.4866],[100.8253,4.4817],[100.8269,4.4773],[100.8352,4.49],[100.8487,4.4871],[100.8539,4.4999],[100.8563,4.5001],[100.8529,4.5105],[100.8573,4.5111],[100.8581,4.5394],[100.8557,4.5394],[100.855,4.5444],[100.8609,4.555],[100.7905,4.5397],[100.7392,4.5246],[100.6459,4.5308],[100.6464,4.528],[100.644,4.5269],[100.6324,4.531],[100.6283,4.5363]]]}},{"type":"Feature","properties":{"c":"N.37","n":"Pantai Remis","w":"PH","p":"DAP","cand":"Wong May Ing","pct":72.2},"geometry":{"type":"Polygon","coordinates":[[[100.6187,4.4698],[100.6197,4.4631],[100.6164,4.4488],[100.6181,4.4471],[100.6121,4.4431],[100.6078,4.4255],[100.6002,4.4218],[100.594,4.4228],[100.5925,4.4299],[100.5862,4.4255],[100.5826,4.4172],[100.5872,4.4129],[100.5881,4.4043],[100.5945,4.3984],[100.5866,4.3972],[100.5882,4.3916],[100.5837,4.3791],[100.5854,4.375],[100.5649,4.3282],[100.5714,4.322],[100.577,4.3255],[100.5775,4.3212],[100.5749,4.3183],[100.5772,4.3113],[100.5814,4.3141],[100.5851,4.3097],[100.5893,4.3137],[100.5948,4.3147],[100.593,4.3071],[100.5893,4.3036],[100.5951,4.293],[100.6114,4.2932],[100.6187,4.3006],[100.6145,4.3199],[100.6321,4.3207],[100.6323,4.3262],[100.6507,4.3346],[100.6549,4.3286],[100.6581,4.3278],[100.6572,4.3383],[100.6707,4.3454],[100.6712,4.3477],[100.6754,4.3467],[100.6754,4.3346],[100.6696,4.3318],[100.6699,4.3249],[100.6736,4.3181],[100.6872,4.3155],[100.6887,4.3215],[100.6945,4.3184],[100.6945,4.3118],[100.7004,4.2942],[100.7197,4.2798],[100.7171,4.2745],[100.7387,4.2603],[100.7445,4.2675],[100.7688,4.2508],[100.7646,4.2448],[100.7738,4.2377],[100.7871,4.2529],[100.7899,4.2509],[100.7967,4.2605],[100.8244,4.2399],[100.8221,4.2989],[100.7996,4.2947],[100.7911,4.3016],[100.7935,4.3083],[100.7743,4.3222],[100.7763,4.3243],[100.758,4.3383],[100.7639,4.3444],[100.7561,4.3476],[100.7285,4.3516],[100.7206,4.3541],[100.7198,4.3575],[100.7127,4.3563],[100.71,4.3636],[100.7053,4.3629],[100.7193,4.4267],[100.7064,4.4264],[100.7063,4.4178],[100.6951,4.4174],[100.6932,4.4184],[100.6927,4.4265],[100.6599,4.4275],[100.6581,4.4257],[100.6333,4.4254],[100.633,4.429],[100.6386,4.4294],[100.6382,4.442],[100.6319,4.4424],[100.6371,4.4513],[100.6444,4.4513],[100.6444,4.4539],[100.6385,4.4546],[100.6407,4.4588],[100.6455,4.4588],[100.6455,4.4657],[100.6372,4.4661],[100.6272,4.4704],[100.6187,4.4698]]]}},{"type":"Feature","properties":{"c":"N.38","n":"Astaka","w":"PH","p":"DAP","cand":"Jason Ng Thien Yong","pct":78.2},"geometry":{"type":"Polygon","coordinates":[[[100.7387,4.2603],[100.7241,4.2369],[100.7339,4.2295],[100.7299,4.2237],[100.7091,4.2377],[100.7023,4.2281],[100.6967,4.2299],[100.6941,4.2241],[100.6767,4.2217],[100.6699,4.2253],[100.6659,4.2111],[100.6753,4.2025],[100.6699,4.1969],[100.6673,4.1787],[100.6787,4.1769],[100.6769,4.1825],[100.6919,4.1843],[100.6987,4.1773],[100.7051,4.1773],[100.7109,4.1643],[100.7235,4.1663],[100.7291,4.1639],[100.7349,4.1673],[100.7382,4.1589],[100.7448,4.1562],[100.7493,4.1629],[100.7507,4.1792],[100.7468,4.187],[100.7537,4.1956],[100.7494,4.199],[100.7582,4.2115],[100.7658,4.2073],[100.7681,4.2106],[100.7632,4.2149],[100.7737,4.2316],[100.7699,4.234],[100.7738,4.2377],[100.7646,4.2448],[100.7688,4.2508],[100.7445,4.2675],[100.7387,4.2603]]]}},{"type":"Feature","properties":{"c":"N.39","n":"Belanja","w":"BN","p":"UMNO","cand":"Khairudin bin Abu Hanipah","pct":47.0},"geometry":{"type":"Polygon","coordinates":[[[100.9929,4.5556],[100.9224,4.5554],[100.9195,4.5605],[100.9027,4.5662],[100.8881,4.5605],[100.8609,4.555],[100.855,4.5444],[100.8557,4.5394],[100.8581,4.5394],[100.8573,4.5111],[100.8529,4.5105],[100.8563,4.5001],[100.8539,4.4999],[100.8487,4.4871],[100.8352,4.49],[100.8269,4.4773],[100.8253,4.4817],[100.8175,4.4866],[100.8118,4.4819],[100.8032,4.4822],[100.8049,4.3816],[100.8393,4.3779],[100.8406,4.3794],[100.8588,4.3724],[100.8595,4.381],[100.8799,4.3878],[100.886,4.3845],[100.8928,4.3895],[100.8975,4.3847],[100.9418,4.3844],[100.947,4.4524],[100.9579,4.4855],[100.9749,4.509],[100.9711,4.5133],[100.9784,4.5188],[100.9774,4.5223],[100.982,4.5261],[100.9832,4.5403],[100.9858,4.5411],[100.9929,4.5556]]]}},{"type":"Feature","properties":{"c":"N.40","n":"Bota","w":"PN","p":"PAS","cand":"Najihatussalehah binti Ahmad","pct":47.1},"geometry":{"type":"Polygon","coordinates":[[[100.9422,4.3924],[100.9418,4.3844],[100.8975,4.3847],[100.8928,4.3895],[100.886,4.3845],[100.8799,4.3878],[100.8595,4.381],[100.8588,4.3724],[100.8406,4.3794],[100.8393,4.3779],[100.8049,4.3816],[100.805,4.3745],[100.8022,4.3701],[100.8188,4.3574],[100.8201,4.3467],[100.8165,4.3467],[100.8165,4.3428],[100.8204,4.3428],[100.8248,4.236],[100.9036,4.2511],[100.9068,4.2564],[100.9093,4.2544],[100.9178,4.2578],[100.9146,4.2657],[100.9445,4.2765],[100.9909,4.2881],[100.9942,4.2918],[100.9989,4.2916],[101.0072,4.2972],[101.0069,4.3121],[101.0113,4.325],[101.0069,4.3424],[101.0018,4.346],[101.0001,4.3548],[100.9776,4.3683],[100.9784,4.3892],[100.9422,4.3924]]]}},{"type":"Feature","properties":{"c":"N.41","n":"Malim Nawar","w":"PH","p":"DAP","cand":"Bavani a/p Veraiah","pct":58.6},"geometry":{"type":"Polygon","coordinates":[[[100.9909,4.2881],[100.9956,4.2757],[101.0002,4.2701],[101.0398,4.2677],[101.0408,4.255],[101.0913,4.247],[101.108,4.2491],[101.1168,4.2472],[101.1336,4.2575],[101.1463,4.2573],[101.1498,4.262],[101.152,4.2742],[101.1652,4.2766],[101.1577,4.2986],[101.1425,4.31],[101.1173,4.3443],[101.1195,4.3461],[101.1181,4.348],[101.1205,4.3503],[101.1202,4.3542],[101.1229,4.3536],[101.123,4.3585],[101.117,4.3552],[101.1121,4.3554],[101.1096,4.3588],[101.1081,4.3577],[101.1099,4.354],[101.107,4.3527],[101.1096,4.3478],[101.105,4.3416],[101.1071,4.3393],[101.1046,4.3369],[101.0864,4.3345],[101.0843,4.3321],[101.0767,4.3317],[101.0791,4.3509],[101.0727,4.3566],[101.072,4.3522],[101.0632,4.3523],[101.0633,4.3489],[101.0553,4.3479],[101.0571,4.3409],[101.0541,4.3322],[101.0413,4.3328],[101.0385,4.3312],[101.0411,4.3272],[101.0375,4.3224],[101.0293,4.3212],[101.0275,4.3164],[101.0405,4.3141],[101.0395,4.3111],[101.009,4.3181],[101.0069,4.3121],[101.0072,4.2972],[100.9989,4.2916],[100.9942,4.2918],[100.9909,4.2881]]]}},{"type":"Feature","properties":{"c":"N.42","n":"Keranji","w":"PH","p":"DAP","cand":"Angeline Koo Haai Yen","pct":69.5},"geometry":{"type":"Polygon","coordinates":[[[101.1652,4.2766],[101.1856,4.2804],[101.194,4.2845],[101.1921,4.2922],[101.1958,4.2974],[101.1932,4.325],[101.1946,4.3299],[101.2001,4.3332],[101.2296,4.3403],[101.2281,4.3487],[101.1716,4.3578],[101.1652,4.3552],[101.1568,4.3599],[101.1547,4.3587],[101.1539,4.3613],[101.143,4.3554],[101.1439,4.3535],[101.1325,4.3428],[101.127,4.3313],[101.1425,4.31],[101.1577,4.2986],[101.1652,4.2766]]]}},{"type":"Feature","properties":{"c":"N.43","n":"Tualang Sekah","w":"PH","p":"PKR","cand":"Mohd Azlan Helmi bin Helmi","pct":34.4},"geometry":{"type":"Polygon","coordinates":[[[101.0959,4.4855],[101.0892,4.4827],[101.0877,4.4777],[101.0828,4.4747],[101.0675,4.474],[101.0657,4.4685],[101.0671,4.4576],[101.0627,4.4506],[101.0471,4.4502],[101.0447,4.4602],[101.0233,4.4686],[101.0217,4.4508],[101.0093,4.4523],[101.01,4.4384],[101.0215,4.4004],[101.0271,4.363],[101.0185,4.3645],[101.0141,4.3627],[101.0115,4.3666],[101.0079,4.3633],[100.998,4.3639],[101.0006,4.3598],[101.0018,4.346],[101.0069,4.3424],[101.0113,4.325],[101.009,4.3181],[101.0395,4.3111],[101.0405,4.3141],[101.0275,4.3164],[101.0293,4.3212],[101.0375,4.3224],[101.0411,4.3272],[101.0385,4.3312],[101.0413,4.3328],[101.0541,4.3322],[101.0571,4.3409],[101.0553,4.3479],[101.0633,4.3489],[101.0632,4.3523],[101.072,4.3522],[101.0727,4.3566],[101.0791,4.3509],[101.0767,4.3317],[101.0843,4.3321],[101.0955,4.3369],[101.1046,4.3369],[101.1071,4.3393],[101.105,4.3416],[101.1096,4.3478],[101.107,4.3527],[101.1099,4.354],[101.1081,4.3577],[101.117,4.3552],[101.123,4.3585],[101.1229,4.3536],[101.1202,4.3542],[101.1205,4.3503],[101.1181,4.348],[101.1195,4.3461],[101.1173,4.3443],[101.127,4.3313],[101.1325,4.3428],[101.1439,4.3535],[101.143,4.3554],[101.1539,4.3613],[101.1547,4.3587],[101.1568,4.3599],[101.1652,4.3552],[101.1716,4.3578],[101.2281,4.3487],[101.2292,4.3442],[101.2343,4.3444],[101.2347,4.3414],[101.2515,4.3414],[101.266,4.3458],[101.291,4.3438],[101.293,4.3489],[101.2977,4.3479],[101.2999,4.3569],[101.2967,4.3585],[101.2973,4.3604],[101.3075,4.3612],[101.311,4.3675],[101.3153,4.3695],[101.3153,4.376],[101.3081,4.3827],[101.3104,4.3873],[101.3147,4.3895],[101.3183,4.4118],[101.2036,4.4122],[101.1927,4.4334],[101.1985,4.4357],[101.2048,4.445],[101.1975,4.4435],[101.1982,4.4491],[101.1921,4.4506],[101.1857,4.4482],[101.1639,4.4486],[101.1573,4.4454],[101.1457,4.4466],[101.1428,4.4449],[101.1398,4.4476],[101.1413,4.4546],[101.1392,4.4546],[101.1332,4.4436],[101.1241,4.4509],[101.1222,4.4673],[101.1092,4.4647],[101.0999,4.4864],[101.0959,4.4855]]]}},{"type":"Feature","properties":{"c":"N.44","n":"Sungai Rapat","w":"PH","p":"AMANAH","cand":"Mohammad Nizar bin Jamaluddin","pct":41.9},"geometry":{"type":"Polygon","coordinates":[[[101.1146,4.5825],[101.1074,4.5771],[101.094,4.5753],[101.0827,4.5647],[101.0838,4.5563],[101.0752,4.5492],[101.0729,4.5342],[101.0658,4.5217],[101.0651,4.5151],[101.0558,4.5088],[101.0518,4.4926],[101.0458,4.4927],[101.0436,4.4954],[101.0439,4.5017],[101.0291,4.5086],[101.0257,4.4915],[101.0399,4.4795],[101.0471,4.4502],[101.0627,4.4506],[101.0671,4.4576],[101.0657,4.4685],[101.0675,4.474],[101.0828,4.4747],[101.0877,4.4777],[101.0892,4.4827],[101.0981,4.4883],[101.0937,4.4932],[101.0945,4.4979],[101.0963,4.4972],[101.1059,4.5094],[101.1074,4.5161],[101.0985,4.5175],[101.0912,4.5149],[101.0896,4.5242],[101.0941,4.5281],[101.0958,4.538],[101.0911,4.5396],[101.0904,4.5427],[101.1007,4.5475],[101.1083,4.5457],[101.108,4.5498],[101.1035,4.5509],[101.1029,4.5589],[101.1051,4.5593],[101.107,4.5659],[101.1128,4.5667],[101.111,4.573],[101.118,4.5769],[101.119,4.5797],[101.1146,4.5825]]]}},{"type":"Feature","properties":{"c":"N.45","n":"Simpang Pulai","w":"PH","p":"PKR","cand":"Wong Chai Yi","pct":69.2},"geometry":{"type":"Polygon","coordinates":[[[101.135,4.5886],[101.1268,4.5887],[101.1146,4.5825],[101.119,4.5797],[101.118,4.5769],[101.111,4.573],[101.1128,4.5667],[101.107,4.5659],[101.1051,4.5593],[101.1029,4.5589],[101.1035,4.5509],[101.108,4.5498],[101.1083,4.5457],[101.1007,4.5475],[101.0904,4.5427],[101.0911,4.5396],[101.0958,4.538],[101.0941,4.5281],[101.0896,4.5242],[101.0912,4.5149],[101.0985,4.5175],[101.103,4.5159],[101.107,4.5177],[101.1057,4.5208],[101.1098,4.5236],[101.1274,4.529],[101.1347,4.534],[101.1508,4.5363],[101.151,4.5426],[101.1583,4.5447],[101.1674,4.5558],[101.1831,4.557],[101.1982,4.5649],[101.2103,4.5672],[101.2128,4.5712],[101.2174,4.5724],[101.24,4.5711],[101.2425,4.5691],[101.2527,4.5756],[101.2575,4.5729],[101.2632,4.5733],[101.2632,4.5758],[101.2656,4.5726],[101.2711,4.5734],[101.28,4.5699],[101.2808,4.5674],[101.2959,4.5669],[101.2955,4.563],[101.2997,4.5569],[101.2972,4.5508],[101.2984,4.5481],[101.3029,4.5519],[101.3064,4.5498],[101.3094,4.5434],[101.3131,4.5429],[101.3096,4.5497],[101.3134,4.5499],[101.3106,4.5558],[101.316,4.5579],[101.3174,4.5539],[101.3209,4.553],[101.3269,4.5623],[101.3293,4.5612],[101.3411,4.5652],[101.3507,4.5645],[101.3437,4.5754],[101.3216,4.5782],[101.3137,4.5899],[101.3061,4.5923],[101.3008,4.6001],[101.295,4.6007],[101.2934,4.6041],[101.2802,4.6025],[101.2765,4.5981],[101.2685,4.6022],[101.2632,4.602],[101.2531,4.6093],[101.2485,4.6096],[101.2406,4.6056],[101.2362,4.6123],[101.2387,4.6152],[101.2375,4.6182],[101.2273,4.6216],[101.2218,4.6314],[101.2174,4.6309],[101.2142,4.6276],[101.198,4.6035],[101.173,4.5849],[101.1617,4.5855],[101.1574,4.58],[101.1455,4.5724],[101.1399,4.586],[101.135,4.5886]]]}},{"type":"Feature","properties":{"c":"N.46","n":"Teja","w":"PH","p":"PKR","cand":"Sandrea Ng Shy Ching","pct":46.5},"geometry":{"type":"Polygon","coordinates":[[[101.3507,4.5645],[101.3411,4.5652],[101.3293,4.5612],[101.3269,4.5623],[101.3209,4.553],[101.3174,4.5539],[101.316,4.5579],[101.3106,4.5558],[101.3134,4.5499],[101.3096,4.5497],[101.3131,4.5429],[101.3094,4.5434],[101.3064,4.5498],[101.3029,4.5519],[101.2984,4.5481],[101.2972,4.5508],[101.2997,4.5569],[101.2955,4.563],[101.2959,4.5669],[101.2808,4.5674],[101.28,4.5699],[101.2711,4.5734],[101.2656,4.5726],[101.2632,4.5758],[101.2632,4.5733],[101.2575,4.5729],[101.2527,4.5756],[101.2425,4.5691],[101.2291,4.5724],[101.2263,4.5705],[101.2128,4.5712],[101.2103,4.5672],[101.1982,4.5649],[101.1831,4.557],[101.1674,4.5558],[101.1583,4.5447],[101.151,4.5426],[101.1508,4.5363],[101.1347,4.534],[101.1274,4.529],[101.1176,4.5271],[101.1057,4.5208],[101.1074,4.5161],[101.1059,4.5094],[101.0963,4.4972],[101.0945,4.4979],[101.0937,4.4932],[101.0981,4.4883],[101.0959,4.4855],[101.0999,4.4864],[101.1092,4.4647],[101.1222,4.4673],[101.1241,4.4509],[101.1332,4.4436],[101.1392,4.4546],[101.1413,4.4546],[101.1398,4.4476],[101.1428,4.4449],[101.1457,4.4466],[101.1573,4.4454],[101.1639,4.4486],[101.1857,4.4482],[101.1921,4.4506],[101.1982,4.4491],[101.1975,4.4435],[101.2048,4.445],[101.1985,4.4357],[101.1927,4.4334],[101.2036,4.4122],[101.3183,4.4118],[101.3251,4.4213],[101.3582,4.3968],[101.3551,4.4094],[101.3494,4.4123],[101.349,4.4158],[101.3535,4.4211],[101.3528,4.4286],[101.342,4.4345],[101.3327,4.4321],[101.3328,4.446],[101.3371,4.4456],[101.3409,4.453],[101.3452,4.4514],[101.3582,4.46],[101.3591,4.4756],[101.3684,4.4858],[101.3594,4.4942],[101.3607,4.4971],[101.3744,4.4966],[101.3791,4.4998],[101.3798,4.503],[101.3868,4.5054],[101.3821,4.5235],[101.3726,4.5289],[101.3652,4.5282],[101.358,4.5452],[101.3546,4.5484],[101.3507,4.5645]]]}},{"type":"Feature","properties":{"c":"N.47","n":"Chenderiang","w":"BN","p":"MCA","cand":"Choong Shin Heng","pct":39.9},"geometry":{"type":"Polygon","coordinates":[[[101.3183,4.4118],[101.3147,4.3895],[101.3104,4.3873],[101.3081,4.3827],[101.3153,4.376],[101.3153,4.3695],[101.311,4.3675],[101.3075,4.3612],[101.2973,4.3604],[101.2967,4.3585],[101.2999,4.3569],[101.2977,4.3479],[101.293,4.3489],[101.291,4.3438],[101.266,4.3458],[101.2515,4.3414],[101.2347,4.3414],[101.2343,4.3444],[101.2292,4.3442],[101.2296,4.3403],[101.2001,4.3332],[101.1946,4.3299],[101.1932,4.325],[101.1958,4.2974],[101.1921,4.2922],[101.194,4.2845],[101.1856,4.2804],[101.1652,4.2766],[101.1662,4.2664],[101.1791,4.2352],[101.1949,4.2368],[101.2059,4.2333],[101.2192,4.2358],[101.2208,4.2345],[101.2177,4.2315],[101.2265,4.2261],[101.2334,4.2291],[101.2348,4.2238],[101.2413,4.2212],[101.247,4.2223],[101.2473,4.2156],[101.2499,4.2144],[101.2483,4.2116],[101.2522,4.21],[101.2511,4.2064],[101.2451,4.2077],[101.2421,4.1978],[101.2455,4.1978],[101.2505,4.1932],[101.2526,4.1947],[101.2522,4.1985],[101.2559,4.1973],[101.2575,4.1904],[101.2532,4.1857],[101.2601,4.1845],[101.2626,4.1781],[101.2557,4.1711],[101.2573,4.1635],[101.252,4.1524],[101.2527,4.1492],[101.2579,4.1504],[101.2622,4.1429],[101.2692,4.146],[101.2775,4.1441],[101.2825,4.1482],[101.2925,4.1488],[101.3064,4.1622],[101.3086,4.1583],[101.3125,4.1608],[101.3111,4.1661],[101.3234,4.1725],[101.3362,4.1725],[101.3435,4.1753],[101.3451,4.1817],[101.3662,4.1873],[101.4395,4.2218],[101.4421,4.2283],[101.4482,4.2237],[101.4519,4.2249],[101.4528,4.2429],[101.4631,4.2493],[101.4649,4.2567],[101.4446,4.2746],[101.4482,4.2856],[101.4469,4.2931],[101.451,4.3017],[101.4476,4.3098],[101.4503,4.3148],[101.4456,4.3186],[101.4446,4.3321],[101.4316,4.3394],[101.4262,4.3394],[101.4212,4.3459],[101.4215,4.3487],[101.4276,4.3507],[101.4341,4.3566],[101.4332,4.3613],[101.437,4.3735],[101.4438,4.3775],[101.4379,4.3848],[101.4374,4.3916],[101.4176,4.3952],[101.4073,4.3927],[101.3996,4.404],[101.3974,4.4022],[101.3924,4.4087],[101.3816,4.409],[101.3686,4.4053],[101.3668,4.3984],[101.3582,4.3968],[101.3251,4.4213],[101.3183,4.4118]]]}},{"type":"Feature","properties":{"c":"N.48","n":"Ayer Kuning","w":"BN","p":"UMNO","cand":"Ishsam bin Shahruddin","pct":38.7},"geometry":{"type":"Polygon","coordinates":[[[101.0673,4.2493],[101.0999,4.1801],[101.1084,4.1841],[101.1217,4.1613],[101.1152,4.1504],[101.1212,4.1467],[101.1176,4.1404],[101.1367,4.1309],[101.137,4.127],[101.1314,4.1169],[101.1379,4.1158],[101.1422,4.1223],[101.1455,4.1146],[101.2345,4.0296],[101.2389,4.0292],[101.2398,4.0328],[101.2493,4.032],[101.2534,4.039],[101.2707,4.0437],[101.2716,4.0479],[101.2646,4.0507],[101.2565,4.0468],[101.2548,4.0518],[101.2403,4.0526],[101.2378,4.0593],[101.2417,4.0649],[101.2428,4.0758],[101.2498,4.0855],[101.2573,4.0866],[101.2671,4.0964],[101.2635,4.1081],[101.2668,4.1064],[101.2777,4.1078],[101.281,4.1159],[101.2855,4.1153],[101.286,4.1198],[101.2899,4.1201],[101.2911,4.1159],[101.2994,4.1184],[101.3028,4.1287],[101.3003,4.1421],[101.293,4.1443],[101.2925,4.1488],[101.2825,4.1482],[101.2775,4.1441],[101.2692,4.146],[101.2647,4.1427],[101.2622,4.1429],[101.2579,4.1504],[101.2527,4.1492],[101.2529,4.1555],[101.2573,4.1635],[101.2557,4.1711],[101.2626,4.1781],[101.2601,4.1845],[101.2532,4.1857],[101.2575,4.1904],[101.2559,4.1973],[101.2522,4.1985],[101.2526,4.1947],[101.2505,4.1932],[101.2455,4.1978],[101.2421,4.1978],[101.2451,4.2077],[101.2511,4.2064],[101.2522,4.21],[101.2483,4.2116],[101.2499,4.2144],[101.2473,4.2156],[101.247,4.2223],[101.2413,4.2212],[101.2348,4.2238],[101.2334,4.2291],[101.2265,4.2261],[101.2177,4.2315],[101.2208,4.2345],[101.2192,4.2358],[101.2059,4.2333],[101.1949,4.2368],[101.1791,4.2352],[101.1662,4.2664],[101.1652,4.2766],[101.152,4.2742],[101.1498,4.262],[101.1463,4.2573],[101.1336,4.2575],[101.1168,4.2472],[101.108,4.2491],[101.0913,4.247],[101.0673,4.2493]]]}},{"type":"Feature","properties":{"c":"N.49","n":"Sungai Manik","w":"PN","p":"BERSATU","cand":"Zainol Fadzi bin Paharudin","pct":43.9},"geometry":{"type":"Polygon","coordinates":[[[101.0999,4.1801],[101.0923,4.1759],[101.0838,4.1665],[101.0725,4.1616],[101.0602,4.1523],[101.0575,4.1533],[101.0582,4.1499],[101.0528,4.1494],[101.0536,4.1408],[101.0435,4.1385],[101.0427,4.1317],[101.0346,4.1315],[101.0329,4.1283],[101.0207,4.1236],[101.0125,4.1148],[101.0133,4.1126],[101.0206,4.1126],[101.0206,4.1088],[101.0139,4.1014],[101.0178,4.0962],[101.0201,4.0973],[101.0212,4.0954],[101.0194,4.0839],[101.0348,4.0723],[101.0376,4.0744],[101.0476,4.0584],[101.0492,4.0472],[101.0461,4.0426],[101.0525,4.0389],[101.0588,4.03],[101.0804,4.0375],[101.0928,4.0475],[101.0984,4.0346],[101.0922,4.0301],[101.0939,4.0264],[101.1069,4.0328],[101.116,4.0432],[101.1254,4.0338],[101.1167,4.0267],[101.1227,4.019],[101.1189,4.0163],[101.1161,4.0094],[101.1267,4.01],[101.128,4.0002],[101.1555,4.0123],[101.1619,4.0099],[101.1752,4.0119],[101.1819,4.0157],[101.1917,4.0157],[101.2079,4.0341],[101.2125,4.0356],[101.218,4.031],[101.2345,4.0296],[101.1455,4.1146],[101.1422,4.1223],[101.1379,4.1158],[101.1314,4.1169],[101.137,4.127],[101.1367,4.1309],[101.1176,4.1404],[101.1212,4.1467],[101.1152,4.1504],[101.1217,4.1613],[101.1084,4.1841],[101.0999,4.1801]]]}},{"type":"Feature","properties":{"c":"N.50","n":"Kampong Gajah","w":"PN","p":"PAS","cand":"Zafarulazhan bin Zan ","pct":51.0},"geometry":{"type":"Polygon","coordinates":[[[100.7738,4.2377],[100.7699,4.234],[100.7737,4.2316],[100.7667,4.2179],[100.781,4.2081],[100.7789,4.1985],[100.7693,4.1873],[100.7727,4.1676],[100.7617,4.1343],[100.7679,4.1329],[100.7676,4.1286],[100.7721,4.1218],[100.7823,4.1188],[100.7863,4.1127],[100.787,4.0886],[100.7952,4.0907],[100.7976,4.0808],[100.8105,4.0841],[100.8199,4.0733],[100.8265,4.0522],[100.8142,4.0538],[100.8077,4.0503],[100.8053,4.0423],[100.8193,4.034],[100.8268,4.0392],[100.8384,4.0418],[100.8497,4.042],[100.8539,4.0375],[100.8589,4.019],[100.8522,3.9807],[100.8534,3.9744],[100.8597,3.9655],[100.867,3.9625],[100.8829,3.9654],[100.8919,3.9583],[100.9008,3.9557],[100.9109,3.9574],[100.9256,3.9656],[100.9301,3.9616],[100.9341,3.947],[100.9461,3.942],[100.9558,3.9451],[100.9604,3.9484],[100.9604,3.9554],[100.9476,3.9623],[100.9446,3.9662],[100.9462,3.9743],[100.9535,3.9738],[100.9602,3.9671],[100.9686,3.9672],[100.9725,3.9725],[100.9729,3.9819],[100.9818,3.9844],[100.9844,3.9876],[100.9772,4.0042],[100.9777,4.009],[100.9838,4.0095],[100.9938,3.9993],[101.0006,3.9998],[101.0132,4.0199],[101.0112,4.0256],[100.9953,4.029],[100.9898,4.0342],[100.9888,4.04],[100.9684,4.0517],[100.9748,4.0648],[100.9835,4.0597],[100.9903,4.0638],[100.9987,4.0611],[100.9981,4.0677],[101.005,4.0717],[101.0093,4.0804],[101.0103,4.0899],[101.0047,4.106],[101.0073,4.1067],[101.0108,4.1016],[101.0139,4.1014],[101.0206,4.1088],[101.0206,4.1126],[101.0133,4.1126],[101.0125,4.1148],[101.0207,4.1236],[101.0329,4.1283],[101.0346,4.1315],[101.0427,4.1317],[101.0435,4.1385],[101.0536,4.1408],[101.0528,4.1494],[101.0582,4.1499],[101.0575,4.1533],[101.0602,4.1523],[101.0725,4.1616],[101.0838,4.1665],[101.0923,4.1759],[101.0999,4.1801],[101.0673,4.2493],[101.0408,4.255],[101.0398,4.2677],[101.0002,4.2701],[100.9956,4.2757],[100.9909,4.2881],[100.9445,4.2765],[100.9146,4.2657],[100.9178,4.2578],[100.9093,4.2544],[100.9068,4.2564],[100.9036,4.2511],[100.8248,4.236],[100.8244,4.2399],[100.7967,4.2605],[100.7899,4.2509],[100.7871,4.2529],[100.7738,4.2377]]]}},{"type":"Feature","properties":{"c":"N.51","n":"Pasir Panjang","w":"PN","p":"PAS","cand":"Rosli bin Abd Rahman","pct":41.1},"geometry":{"type":"MultiPolygon","coordinates":[[[[100.6581,4.3278],[100.6652,4.3132],[100.6645,4.3027],[100.658,4.2873],[100.6583,4.2744],[100.6538,4.2581],[100.6454,4.2467],[100.6381,4.2426],[100.64,4.2319],[100.6435,4.2312],[100.6405,4.2168],[100.6452,4.2133],[100.6288,4.2085],[100.6342,4.2019],[100.6401,4.2018],[100.6395,4.199],[100.6347,4.2006],[100.6261,4.1955],[100.6296,4.189],[100.6289,4.1838],[100.6313,4.1821],[100.6293,4.1684],[100.6331,4.1693],[100.6323,4.1623],[100.6371,4.1705],[100.6536,4.1686],[100.6648,4.1704],[100.6946,4.1595],[100.7075,4.1493],[100.718,4.1372],[100.7259,4.117],[100.7503,4.1042],[100.7624,4.0886],[100.7675,4.0474],[100.7605,4.0175],[100.7499,4.0112],[100.7489,4.006],[100.7657,3.9996],[100.7839,4.0018],[100.7972,4.0086],[100.8193,4.034],[100.8053,4.0423],[100.8077,4.0503],[100.8142,4.0538],[100.8267,4.0531],[100.8199,4.0733],[100.8105,4.0841],[100.7976,4.0808],[100.7952,4.0907],[100.787,4.0886],[100.7863,4.1127],[100.7823,4.1188],[100.7721,4.1218],[100.7676,4.1286],[100.7679,4.1329],[100.7617,4.1343],[100.7727,4.1676],[100.7693,4.1873],[100.7789,4.1985],[100.781,4.2081],[100.7669,4.2191],[100.7632,4.2149],[100.7681,4.2106],[100.7658,4.2073],[100.7582,4.2115],[100.7494,4.199],[100.7537,4.1956],[100.7468,4.187],[100.7507,4.1792],[100.7493,4.1629],[100.7448,4.1562],[100.7382,4.1589],[100.7349,4.1673],[100.7291,4.1639],[100.7235,4.1663],[100.7109,4.1643],[100.7051,4.1773],[100.6987,4.1773],[100.6919,4.1843],[100.6769,4.1825],[100.6787,4.1769],[100.6673,4.1787],[100.6699,4.1969],[100.6753,4.2025],[100.6659,4.2111],[100.6699,4.2253],[100.6767,4.2217],[100.6941,4.2241],[100.6967,4.2299],[100.7023,4.2281],[100.7091,4.2377],[100.7299,4.2237],[100.7339,4.2295],[100.7241,4.2369],[100.7387,4.2603],[100.7171,4.2745],[100.7197,4.2798],[100.7004,4.2942],[100.6945,4.3118],[100.6945,4.3184],[100.6887,4.3215],[100.6872,4.3155],[100.6736,4.3181],[100.6699,4.3249],[100.6696,4.3318],[100.6754,4.3346],[100.6754,4.3467],[100.6712,4.3477],[100.6707,4.3454],[100.6572,4.3383],[100.6581,4.3278]]],[[[100.6372,4.1553],[100.6558,4.1552],[100.6563,4.1671],[100.6372,4.1695],[100.6372,4.1553]]]]}},{"type":"Feature","properties":{"c":"N.52","n":"Pangkor","w":"PN","p":"BERSATU","cand":"Norhaslinda binti Zakaria","pct":38.7},"geometry":{"type":"MultiPolygon","coordinates":[[[[100.5649,4.3282],[100.5592,4.3194],[100.5583,4.3088],[100.5637,4.3127],[100.569,4.3104],[100.5714,4.313],[100.5772,4.308],[100.579,4.2962],[100.5824,4.2982],[100.5859,4.295],[100.587,4.2799],[100.585,4.2783],[100.5921,4.2735],[100.5904,4.2577],[100.5943,4.2546],[100.5904,4.2556],[100.5943,4.2437],[100.591,4.2419],[100.5938,4.2389],[100.5927,4.2308],[100.61,4.2142],[100.6108,4.2058],[100.6084,4.2003],[100.603,4.1978],[100.6027,4.1905],[100.6092,4.186],[100.6139,4.1673],[100.6167,4.1641],[100.6179,4.1669],[100.6226,4.1649],[100.6269,4.157],[100.6323,4.1623],[100.6331,4.1693],[100.6293,4.1684],[100.6313,4.1821],[100.6289,4.1838],[100.6296,4.189],[100.6261,4.1955],[100.6347,4.2006],[100.6395,4.199],[100.6401,4.2018],[100.6342,4.2019],[100.6288,4.2085],[100.6452,4.2133],[100.6405,4.2168],[100.6435,4.2312],[100.64,4.2319],[100.6381,4.2426],[100.6454,4.2467],[100.6538,4.2581],[100.6583,4.2744],[100.658,4.2873],[100.6645,4.3027],[100.6652,4.3132],[100.6581,4.3278],[100.6549,4.3286],[100.6507,4.3346],[100.6323,4.3262],[100.6321,4.3207],[100.6145,4.3199],[100.6187,4.3006],[100.6114,4.2932],[100.5951,4.293],[100.5893,4.3036],[100.593,4.3071],[100.5948,4.3147],[100.5893,4.3137],[100.5851,4.3097],[100.5814,4.3141],[100.5772,4.3113],[100.5749,4.3183],[100.5775,4.3212],[100.577,4.3255],[100.5714,4.322],[100.5649,4.3282]]],[[[100.5394,4.1993],[100.5432,4.1965],[100.539,4.1949],[100.5402,4.188],[100.5468,4.1885],[100.5491,4.1954],[100.5472,4.2008],[100.5438,4.203],[100.5394,4.1993]]],[[[100.5446,4.2392],[100.5445,4.2292],[100.5392,4.2256],[100.5439,4.222],[100.5432,4.2156],[100.5452,4.2119],[100.5484,4.2142],[100.5578,4.2102],[100.5608,4.1951],[100.5643,4.1903],[100.5696,4.1892],[100.5734,4.191],[100.5814,4.1883],[100.5822,4.1925],[100.5762,4.198],[100.5797,4.2043],[100.5751,4.2096],[100.5778,4.2151],[100.5752,4.2191],[100.5731,4.2373],[100.568,4.2435],[100.5689,4.2492],[100.5641,4.2536],[100.559,4.2484],[100.5534,4.2496],[100.5513,4.2518],[100.5534,4.254],[100.5505,4.2631],[100.547,4.2659],[100.5405,4.266],[100.5365,4.264],[100.5361,4.2609],[100.5382,4.2566],[100.5455,4.2552],[100.5456,4.2491],[100.5447,4.2469],[100.5358,4.2455],[100.5446,4.2392]]]]}},{"type":"Feature","properties":{"c":"N.53","n":"Rungkup","w":"BN","p":"UMNO","cand":"Shahrul Zaman bin Yahya","pct":49.5},"geometry":{"type":"Polygon","coordinates":[[[100.8193,4.034],[100.7972,4.0086],[100.7839,4.0018],[100.7657,3.9996],[100.7489,4.006],[100.7405,4.0065],[100.7331,4.0034],[100.7286,4.0052],[100.7174,4.0041],[100.7069,3.9955],[100.7004,3.9552],[100.7042,3.9153],[100.7031,3.9052],[100.7081,3.9042],[100.7069,3.8948],[100.7269,3.8603],[100.732,3.8558],[100.7407,3.8557],[100.7437,3.8547],[100.7428,3.8519],[100.7618,3.8501],[100.7739,3.8461],[100.7919,3.856],[100.8058,3.8598],[100.7993,3.8602],[100.7991,3.8696],[100.7935,3.8682],[100.7935,3.8729],[100.7948,3.8991],[100.7986,3.8977],[100.8082,3.9469],[100.8337,3.9491],[100.8321,3.9585],[100.8227,3.9583],[100.8214,3.9652],[100.8518,3.9668],[100.8565,3.9699],[100.8522,3.9807],[100.8589,4.019],[100.8539,4.0375],[100.8497,4.042],[100.8384,4.0418],[100.8268,4.0392],[100.8193,4.034]]]}},{"type":"Feature","properties":{"c":"N.54","n":"Hutan Melintang","w":"PH","p":"PKR","cand":"Wasanthee a/p Sinnasamy","pct":43.1},"geometry":{"type":"Polygon","coordinates":[[[100.8565,3.9699],[100.8518,3.9668],[100.8214,3.9652],[100.8227,3.9583],[100.8321,3.9585],[100.8337,3.9491],[100.8082,3.9469],[100.7986,3.8977],[100.7948,3.8991],[100.7935,3.8682],[100.7991,3.8696],[100.7993,3.8602],[100.8184,3.8585],[100.8296,3.8545],[100.8295,3.85],[100.8411,3.8494],[100.8659,3.8563],[100.8914,3.8541],[100.9317,3.8702],[100.9449,3.868],[100.9382,3.8419],[100.9414,3.8308],[100.9641,3.829],[100.9785,3.8167],[100.9763,3.8063],[100.9594,3.797],[100.9576,3.7819],[100.9691,3.7701],[100.9778,3.769],[100.9846,3.7744],[100.9853,3.7938],[100.9929,3.802],[101.0044,3.7992],[101.0256,3.8078],[101.031,3.7945],[101.0249,3.7841],[101.0444,3.7851],[101.0548,3.7963],[101.0611,3.7955],[101.0693,3.8139],[101.0754,3.8202],[101.0996,3.884],[101.08,3.8922],[101.0159,3.9045],[101.0025,3.9151],[100.9808,3.9218],[100.9558,3.9451],[100.9461,3.942],[100.9341,3.947],[100.9301,3.9616],[100.9256,3.9656],[100.9109,3.9574],[100.9008,3.9557],[100.8919,3.9583],[100.8829,3.9654],[100.867,3.9625],[100.8597,3.9655],[100.8565,3.9699]]]}},{"type":"Feature","properties":{"c":"N.55","n":"Pasir Bedamar","w":"PH","p":"DAP","cand":"Woo Kah Leong","pct":76.6},"geometry":{"type":"Polygon","coordinates":[[[101.0139,4.1014],[101.0108,4.1016],[101.0073,4.1067],[101.0047,4.106],[101.0103,4.0899],[101.0093,4.0804],[101.005,4.0717],[100.9981,4.0677],[100.9987,4.0611],[100.9903,4.0638],[100.9835,4.0597],[100.9748,4.0648],[100.9684,4.0517],[100.9888,4.04],[100.9898,4.0342],[100.9953,4.029],[101.0112,4.0256],[101.0128,4.0235],[101.0132,4.0199],[101.0015,4.0021],[101.005,3.9992],[101.0015,3.9959],[101.0076,3.9895],[101.0147,3.9982],[101.0199,3.9957],[101.039,4.0143],[101.0229,4.0303],[101.0226,4.0335],[101.0387,4.0412],[101.0387,4.0464],[101.0249,4.0534],[101.0286,4.0593],[101.029,4.0678],[101.0348,4.0723],[101.0194,4.0839],[101.0212,4.0954],[101.0201,4.0973],[101.0178,4.0962],[101.0139,4.1014]]]}},{"type":"Feature","properties":{"c":"N.56","n":"Changkat Jong","w":"PN","p":"BERSATU","cand":"Nadziruddin bin Mohamed Bandi","pct":36.0},"geometry":{"type":"Polygon","coordinates":[[[101.0348,4.0723],[101.029,4.0678],[101.0286,4.0593],[101.0249,4.0534],[101.0387,4.0464],[101.0387,4.0412],[101.0226,4.0335],[101.0229,4.0303],[101.0388,4.0151],[101.0348,4.0093],[101.0321,4.0093],[101.0199,3.9957],[101.0147,3.9982],[101.0076,3.9895],[101.0015,3.9959],[101.005,3.9992],[101.0015,4.0021],[101.0006,3.9998],[100.9938,3.9993],[100.9838,4.0095],[100.9777,4.009],[100.9772,4.0042],[100.9844,3.9876],[100.9818,3.9844],[100.9729,3.9819],[100.9712,3.9694],[100.9653,3.9661],[100.9602,3.9671],[100.95,3.9753],[100.9462,3.9743],[100.9442,3.9694],[100.9476,3.9623],[100.9604,3.9554],[100.9604,3.9484],[100.9558,3.9451],[100.9577,3.9413],[100.9808,3.9218],[101.0025,3.9151],[101.0159,3.9045],[101.08,3.8922],[101.0996,3.884],[101.0754,3.8202],[101.0693,3.8139],[101.0611,3.7955],[101.0614,3.7908],[101.0555,3.7848],[101.0534,3.778],[101.0577,3.7699],[101.0564,3.7557],[101.0597,3.7526],[101.0638,3.7552],[101.0652,3.7632],[101.0777,3.7674],[101.0885,3.7823],[101.092,3.7798],[101.087,3.7675],[101.1019,3.7505],[101.0978,3.7491],[101.0929,3.7568],[101.0726,3.7593],[101.0791,3.7451],[101.0726,3.7361],[101.0749,3.7289],[101.0814,3.7297],[101.084,3.7422],[101.092,3.7406],[101.0978,3.7444],[101.0992,3.7354],[101.1028,3.7318],[101.1073,3.7333],[101.1064,3.7435],[101.1104,3.7473],[101.1189,3.7358],[101.1232,3.735],[101.123,3.7473],[101.1329,3.7647],[101.1347,3.7517],[101.1432,3.7485],[101.1451,3.7447],[101.1329,3.7365],[101.154,3.7289],[101.1504,3.7417],[101.1556,3.7438],[101.1637,3.7232],[101.1656,3.7496],[101.1707,3.7279],[101.1916,3.7311],[101.175,3.7155],[101.17,3.7205],[101.1696,3.7153],[101.1755,3.7094],[101.1898,3.7189],[101.198,3.7166],[101.1973,3.7266],[101.2043,3.7254],[101.2022,3.7207],[101.2088,3.7144],[101.213,3.7158],[101.2117,3.7087],[101.216,3.7063],[101.2209,3.7128],[101.2274,3.7128],[101.2409,3.7191],[101.2402,3.7209],[101.2472,3.7294],[101.2364,3.9322],[101.2344,4.0192],[101.231,4.0189],[101.2296,4.0298],[101.218,4.031],[101.2125,4.0356],[101.2079,4.0341],[101.1917,4.0157],[101.1819,4.0157],[101.1752,4.0119],[101.1619,4.0099],[101.1555,4.0123],[101.128,4.0002],[101.1267,4.01],[101.1161,4.0094],[101.1189,4.0163],[101.1227,4.019],[101.1167,4.0267],[101.1254,4.0338],[101.116,4.0432],[101.1069,4.0328],[101.0939,4.0264],[101.0922,4.0301],[101.0984,4.0346],[101.0928,4.0475],[101.0804,4.0375],[101.0588,4.03],[101.0525,4.0389],[101.0461,4.0426],[101.0492,4.0472],[101.0476,4.0584],[101.0376,4.0744],[101.0348,4.0723]]]}},{"type":"Feature","properties":{"c":"N.57","n":"Sungkai","w":"PH","p":"DAP","cand":"Sivanesan a/l Achalingam","pct":59.0},"geometry":{"type":"Polygon","coordinates":[[[101.2925,4.1488],[101.293,4.1443],[101.3003,4.1421],[101.3028,4.1287],[101.2994,4.1184],[101.2911,4.1159],[101.2899,4.1201],[101.286,4.1198],[101.2855,4.1153],[101.281,4.1159],[101.2777,4.1078],[101.2668,4.1064],[101.2635,4.1081],[101.2671,4.0964],[101.2573,4.0866],[101.2498,4.0855],[101.2428,4.0758],[101.2417,4.0649],[101.2378,4.0593],[101.2403,4.0526],[101.2548,4.0518],[101.2565,4.0468],[101.2646,4.0507],[101.2716,4.0479],[101.2707,4.0437],[101.2534,4.039],[101.2493,4.032],[101.2398,4.0328],[101.2389,4.0292],[101.2296,4.0298],[101.231,4.0189],[101.2344,4.0192],[101.2351,3.9884],[101.2473,3.997],[101.2542,3.9966],[101.262,4.0045],[101.2653,4.0001],[101.2649,3.9964],[101.2677,3.9978],[101.2729,3.9892],[101.2792,3.9739],[101.2899,3.9784],[101.2922,3.9763],[101.2955,3.9792],[101.302,3.9754],[101.3025,3.9828],[101.306,3.9833],[101.3053,3.9857],[101.3116,3.9907],[101.3192,3.9789],[101.3214,3.9798],[101.323,3.9828],[101.3151,3.9951],[101.3144,4.002],[101.3111,3.9993],[101.3078,4.0001],[101.3059,4.0069],[101.3013,4.0115],[101.3005,4.0227],[101.3136,4.0217],[101.3106,4.0387],[101.3163,4.0392],[101.3184,4.0449],[101.3238,4.0439],[101.3237,4.0467],[101.3403,4.0599],[101.3433,4.0567],[101.3471,4.0626],[101.3527,4.0635],[101.3454,4.0683],[101.3027,4.0591],[101.3011,4.0653],[101.3016,4.1003],[101.3075,4.098],[101.3145,4.1002],[101.3204,4.0968],[101.3244,4.0999],[101.3229,4.1154],[101.3317,4.119],[101.3385,4.1149],[101.3439,4.1185],[101.3494,4.1176],[101.3553,4.123],[101.3572,4.1302],[101.3672,4.1287],[101.3782,4.1335],[101.4022,4.134],[101.4053,4.1291],[101.4096,4.1277],[101.4212,4.1384],[101.4285,4.1391],[101.4347,4.1468],[101.4325,4.1548],[101.4407,4.1668],[101.4446,4.1683],[101.4418,4.1748],[101.445,4.1914],[101.44,4.2018],[101.4398,4.2061],[101.4435,4.2076],[101.442,4.2167],[101.4395,4.2218],[101.3662,4.1873],[101.3451,4.1817],[101.3435,4.1753],[101.3362,4.1725],[101.3234,4.1725],[101.3111,4.1661],[101.3125,4.1608],[101.3086,4.1583],[101.3064,4.1622],[101.2925,4.1488]]]}},{"type":"Feature","properties":{"c":"N.58","n":"Slim","w":"PN","p":"PAS","cand":"Muhammad Zulfadli bin Zainal","pct":38.9},"geometry":{"type":"Polygon","coordinates":[[[101.2409,3.7191],[101.2476,3.7182],[101.2501,3.7157],[101.2445,3.7013],[101.2473,3.6966],[101.2459,3.6884],[101.2504,3.6736],[101.2652,3.6681],[101.2821,3.6681],[101.283,3.6733],[101.2965,3.6776],[101.3006,3.6708],[101.3103,3.677],[101.3103,3.6821],[101.3209,3.6907],[101.3373,3.6894],[101.3474,3.7097],[101.3411,3.7212],[101.3373,3.7474],[101.3262,3.7553],[101.3294,3.7688],[101.3267,3.785],[101.3371,3.7939],[101.3488,3.7947],[101.3548,3.8022],[101.3731,3.8017],[101.3711,3.8073],[101.3736,3.8077],[101.3733,3.8111],[101.3769,3.816],[101.3881,3.8211],[101.3994,3.8183],[101.4042,3.8222],[101.4068,3.826],[101.405,3.8281],[101.4093,3.8281],[101.4117,3.8333],[101.4118,3.8421],[101.4047,3.8413],[101.405,3.8516],[101.4007,3.8569],[101.4027,3.8584],[101.4092,3.8547],[101.4114,3.8565],[101.4081,3.8652],[101.4077,3.8758],[101.4257,3.8757],[101.431,3.8793],[101.4359,3.8751],[101.4383,3.8775],[101.4332,3.8868],[101.4348,3.8879],[101.4355,3.9283],[101.4296,3.929],[101.4298,3.927],[101.4252,3.9295],[101.4162,3.9296],[101.4145,3.9246],[101.4043,3.9203],[101.4006,3.9245],[101.4027,3.9269],[101.4016,3.9318],[101.4053,3.934],[101.3944,3.937],[101.3882,3.9354],[101.3797,3.9413],[101.3713,3.9426],[101.3698,3.9525],[101.3777,3.9533],[101.3797,3.9574],[101.3761,3.9598],[101.3777,3.9598],[101.3772,3.9644],[101.3747,3.9637],[101.3731,3.9664],[101.373,3.9728],[101.3667,3.9635],[101.3594,3.9687],[101.3617,3.9765],[101.3538,4.0001],[101.3516,4.0001],[101.3488,4.0052],[101.3424,4.0065],[101.3338,4.0019],[101.3326,3.9981],[101.3249,3.9998],[101.3151,3.9951],[101.323,3.9828],[101.3214,3.9798],[101.3192,3.9789],[101.3116,3.9907],[101.3053,3.9857],[101.306,3.9833],[101.3025,3.9828],[101.302,3.9754],[101.2955,3.9792],[101.2922,3.9763],[101.2899,3.9784],[101.2792,3.9739],[101.2729,3.9892],[101.2677,3.9978],[101.2649,3.9964],[101.2653,4.0001],[101.262,4.0045],[101.2542,3.9966],[101.2473,3.997],[101.2351,3.9884],[101.2472,3.7294],[101.2402,3.7209],[101.2409,3.7191]]]}},{"type":"Feature","properties":{"c":"N.59","n":"Behrang","w":"BN","p":"UMNO","cand":"Salina binti Samsudin","pct":34.4},"geometry":{"type":"Polygon","coordinates":[[[101.4519,4.2249],[101.4482,4.2237],[101.4421,4.2283],[101.4395,4.2218],[101.4438,4.2114],[101.4435,4.2076],[101.4398,4.2061],[101.445,4.1914],[101.4418,4.1748],[101.4446,4.1683],[101.4407,4.1668],[101.4325,4.1548],[101.4347,4.1468],[101.4285,4.1391],[101.4212,4.1384],[101.4096,4.1277],[101.4053,4.1291],[101.4022,4.134],[101.3782,4.1335],[101.3672,4.1287],[101.3572,4.1302],[101.3553,4.123],[101.3494,4.1176],[101.3439,4.1185],[101.3385,4.1149],[101.3317,4.119],[101.3229,4.1154],[101.3244,4.0999],[101.3204,4.0968],[101.3145,4.1002],[101.3075,4.098],[101.3016,4.1003],[101.3011,4.0653],[101.3027,4.0591],[101.3454,4.0683],[101.3527,4.0635],[101.3471,4.0626],[101.3433,4.0567],[101.3403,4.0599],[101.3237,4.0467],[101.3238,4.0439],[101.3184,4.0449],[101.3163,4.0392],[101.3106,4.0387],[101.3136,4.0217],[101.3005,4.0227],[101.3002,4.0149],[101.3078,4.0001],[101.3111,3.9993],[101.3144,4.002],[101.3151,3.9951],[101.3249,3.9998],[101.3326,3.9981],[101.3338,4.0019],[101.3424,4.0065],[101.3488,4.0052],[101.3516,4.0001],[101.3538,4.0001],[101.3617,3.9765],[101.3594,3.9687],[101.3667,3.9635],[101.373,3.9728],[101.3731,3.9664],[101.3747,3.9637],[101.3772,3.9644],[101.3777,3.9598],[101.3761,3.9598],[101.3797,3.9574],[101.3777,3.9533],[101.3698,3.9525],[101.3713,3.9426],[101.3797,3.9413],[101.3882,3.9354],[101.3944,3.937],[101.4053,3.934],[101.4016,3.9318],[101.4027,3.9269],[101.4006,3.9245],[101.4043,3.9203],[101.4145,3.9246],[101.4162,3.9296],[101.4252,3.9295],[101.4298,3.927],[101.4296,3.929],[101.4355,3.9283],[101.4348,3.8879],[101.4332,3.8868],[101.4383,3.8775],[101.4359,3.8751],[101.431,3.8793],[101.4257,3.8757],[101.4077,3.8758],[101.4081,3.8652],[101.4114,3.8565],[101.4092,3.8547],[101.4027,3.8584],[101.4007,3.8569],[101.405,3.8516],[101.4047,3.8413],[101.4118,3.8421],[101.4093,3.8281],[101.405,3.8281],[101.4068,3.826],[101.3994,3.8183],[101.3881,3.8211],[101.3769,3.816],[101.3733,3.8111],[101.3736,3.8077],[101.3711,3.8073],[101.3857,3.7832],[101.3877,3.7713],[101.3911,3.7728],[101.3987,3.7699],[101.4057,3.7609],[101.4186,3.7584],[101.421,3.7516],[101.4401,3.751],[101.4518,3.7358],[101.4563,3.7225],[101.4618,3.7146],[101.469,3.7167],[101.4748,3.7135],[101.4788,3.702],[101.4957,3.6993],[101.5119,3.6873],[101.5174,3.6797],[101.5358,3.6783],[101.5479,3.7],[101.5702,3.711],[101.5703,3.7175],[101.5788,3.7209],[101.5817,3.7254],[101.5815,3.7397],[101.5909,3.7435],[101.6065,3.774],[101.6265,3.7719],[101.6243,3.7816],[101.6189,3.7846],[101.6157,3.7934],[101.6022,3.795],[101.5919,3.8033],[101.5981,3.8135],[101.5968,3.827],[101.5891,3.8376],[101.6006,3.8435],[101.6033,3.8485],[101.6,3.8518],[101.5986,3.8593],[101.6056,3.8747],[101.5937,3.8884],[101.5882,3.8898],[101.5766,3.9024],[101.5786,3.9072],[101.572,3.9164],[101.5784,3.9261],[101.5754,3.9311],[101.5766,3.9363],[101.5712,3.9426],[101.5759,3.9442],[101.5774,3.9483],[101.5741,3.9521],[101.5795,3.9584],[101.5756,3.9672],[101.5759,3.9785],[101.5714,3.9925],[101.5729,3.999],[101.5651,4.0024],[101.5631,4.0099],[101.5586,4.0128],[101.5576,4.0284],[101.5802,4.0741],[101.5795,4.0857],[101.5759,4.0972],[101.5691,4.0957],[101.5603,4.1029],[101.5606,4.1097],[101.5423,4.119],[101.5353,4.1269],[101.5277,4.126],[101.5201,4.1192],[101.516,4.1185],[101.5147,4.1255],[101.5066,4.133],[101.5038,4.1531],[101.4984,4.156],[101.4955,4.1625],[101.4987,4.1654],[101.498,4.1833],[101.5005,4.1901],[101.5041,4.1889],[101.5111,4.2012],[101.5095,4.2075],[101.4989,4.2068],[101.4924,4.2093],[101.4926,4.2126],[101.4795,4.2111],[101.4519,4.2249]]]}}]}