{"type":"FeatureCollection","features":[{"type":"Feature","properties":{"c":"N.01","n":"Ayer Hangat","w":"PN","p":"BERSATU","cand":"Shamsilah binti Siru","pct":47.3,"maj":3824,"nc":4,"tv":22621,"unc":false,"rw":"ALONE","rp":"BEBAS","rcand":"Safwan Hanif bin Shafie","rpct":30.4},"geometry":{"type":"MultiPolygon","coordinates":[[[[99.9138,6.3348],[99.9134,6.3463],[99.8995,6.3647],[99.9024,6.3693],[99.9068,6.3699],[99.9054,6.3729],[99.9114,6.3875],[99.9102,6.3929],[99.9073,6.3956],[99.8973,6.3821],[99.8926,6.3821],[99.8921,6.3848],[99.8996,6.3899],[99.8987,6.3918],[99.8949,6.3908],[99.8989,6.3944],[99.8974,6.4034],[99.8871,6.4129],[99.887,6.4169],[99.8775,6.4227],[99.8742,6.4286],[99.8684,6.4273],[99.8634,6.4332],[99.861,6.4315],[99.8604,6.4358],[99.8564,6.4336],[99.8553,6.4375],[99.8532,6.437],[99.8552,6.4397],[99.8535,6.4423],[99.8546,6.4483],[99.8583,6.4516],[99.8563,6.4552],[99.8506,6.457],[99.851,6.4602],[99.8537,6.4613],[99.8473,6.4657],[99.8482,6.4691],[99.8352,6.4731],[99.8335,6.4698],[99.8268,6.4771],[99.819,6.4681],[99.8196,6.4645],[99.8216,6.4641],[99.8213,6.4677],[99.8245,6.4693],[99.8283,6.4621],[99.8327,6.4623],[99.8358,6.4595],[99.8414,6.4619],[99.8456,6.451],[99.8455,6.4447],[99.8304,6.4557],[99.8237,6.4516],[99.8287,6.4601],[99.819,6.4519],[99.8155,6.4525],[99.8144,6.4556],[99.7984,6.4359],[99.7926,6.4247],[99.7756,6.4213],[99.771,6.4231],[99.7718,6.4253],[99.7686,6.428],[99.7654,6.4244],[99.7583,6.4222],[99.7505,6.4248],[99.7504,6.4291],[99.7476,6.4306],[99.7463,6.4268],[99.7398,6.4257],[99.7371,6.4134],[99.7279,6.4013],[99.7323,6.4099],[99.7313,6.4158],[99.7267,6.4157],[99.7291,6.427],[99.7336,6.4303],[99.732,6.432],[99.7263,6.4307],[99.7045,6.4369],[99.689,6.4328],[99.6774,6.4365],[99.6745,6.4286],[99.6673,6.426],[99.6635,6.4297],[99.6627,6.4342],[99.6592,6.4318],[99.6495,6.4381],[99.6407,6.4351],[99.6413,6.4195],[99.6445,6.4121],[99.6448,6.4],[99.6423,6.3945],[99.6444,6.3814],[99.6503,6.3663],[99.6678,6.3653],[99.672,6.3625],[99.6777,6.3666],[99.6845,6.3647],[99.6831,6.3691],[99.6857,6.3671],[99.6841,6.3591],[99.6907,6.3587],[99.6929,6.3552],[99.6971,6.3593],[99.7082,6.3597],[99.7117,6.3624],[99.7203,6.3463],[99.7211,6.3404],[99.7178,6.3393],[99.7221,6.335],[99.7221,6.3241],[99.725,6.324],[99.731,6.3319],[99.7313,6.338],[99.736,6.3392],[99.7381,6.337],[99.7472,6.3361],[99.753,6.3381],[99.7559,6.3345],[99.7679,6.3322],[99.7697,6.335],[99.7787,6.3316],[99.7848,6.334],[99.7979,6.3328],[99.8032,6.3493],[99.8081,6.3521],[99.8126,6.3466],[99.8322,6.3471],[99.835,6.3433],[99.847,6.3393],[99.8525,6.3412],[99.8526,6.3359],[99.8609,6.3365],[99.8693,6.343],[99.869,6.3407],[99.8761,6.3349],[99.9138,6.3348]]],[[[99.9153,6.425],[99.9086,6.4125],[99.9122,6.402],[99.9141,6.4032],[99.9128,6.4119],[99.9156,6.4157],[99.9151,6.4234],[99.9193,6.4383],[99.9151,6.4303],[99.9153,6.425]]],[[[99.8956,6.4416],[99.8928,6.4447],[99.8927,6.4512],[99.8888,6.455],[99.8795,6.4373],[99.8843,6.4318],[99.8843,6.4278],[99.9002,6.4202],[99.904,6.4146],[99.9082,6.4208],[99.9043,6.4203],[99.9058,6.4228],[99.9009,6.4361],[99.8979,6.4419],[99.8956,6.4416]]]]}},{"type":"Feature","properties":{"c":"N.02","n":"Kuah","w":"PN","p":"BERSATU","cand":"Amar Pared bin Mahamud","pct":64.3,"maj":7970,"nc":3,"tv":20771,"unc":false,"rw":"PH","rp":"PKR","rcand":"Ahmad Fauzi bin Chik","rpct":26.0},"geometry":{"type":"MultiPolygon","coordinates":[[[[99.7337,6.2273],[99.7336,6.2294],[99.721,6.2078],[99.7253,6.2041],[99.7232,6.1997],[99.7277,6.189],[99.723,6.1869],[99.7245,6.1789],[99.7294,6.19],[99.7406,6.1893],[99.7426,6.1863],[99.7486,6.1953],[99.7431,6.198],[99.7446,6.2025],[99.7379,6.2045],[99.7515,6.2153],[99.7503,6.2219],[99.7439,6.2236],[99.7413,6.2294],[99.7337,6.2204],[99.7337,6.2273]]],[[[99.7196,6.2294],[99.7107,6.2342],[99.7129,6.2279],[99.7107,6.2208],[99.715,6.2153],[99.722,6.2213],[99.7223,6.2294],[99.7196,6.2294]]],[[[99.7923,6.1792],[99.7979,6.1888],[99.801,6.1896],[99.8048,6.1799],[99.8044,6.1711],[99.8079,6.1739],[99.8098,6.1711],[99.8138,6.1708],[99.8117,6.1713],[99.812,6.1741],[99.8206,6.1818],[99.8216,6.1893],[99.8281,6.195],[99.8281,6.1998],[99.8305,6.2013],[99.8277,6.2032],[99.8266,6.2104],[99.8318,6.2117],[99.8346,6.2186],[99.8336,6.2209],[99.8291,6.2151],[99.8254,6.2159],[99.8241,6.2219],[99.8189,6.2286],[99.818,6.24],[99.8204,6.2467],[99.8245,6.2498],[99.8228,6.2592],[99.8261,6.2718],[99.8284,6.2729],[99.8281,6.27],[99.8304,6.2693],[99.8358,6.2751],[99.8403,6.2759],[99.8391,6.2905],[99.8411,6.2949],[99.8336,6.2954],[99.8323,6.2924],[99.8264,6.2904],[99.8223,6.2782],[99.816,6.2782],[99.8085,6.273],[99.8027,6.2746],[99.7985,6.2717],[99.7971,6.2595],[99.7943,6.2545],[99.7923,6.2547],[99.7893,6.2432],[99.7922,6.2403],[99.7823,6.2333],[99.7818,6.2273],[99.7787,6.2277],[99.7801,6.2295],[99.7779,6.231],[99.7767,6.2288],[99.7715,6.2302],[99.7738,6.2225],[99.7709,6.222],[99.7694,6.2166],[99.7757,6.2157],[99.7723,6.2072],[99.7749,6.2072],[99.7756,6.2042],[99.7784,6.2063],[99.7792,6.2116],[99.781,6.2111],[99.7819,6.2007],[99.7897,6.1908],[99.7869,6.1835],[99.7879,6.1782],[99.79,6.1791],[99.7889,6.1822],[99.7923,6.1792]]],[[[99.8316,6.2584],[99.8285,6.2496],[99.8222,6.2424],[99.8208,6.2344],[99.823,6.227],[99.8278,6.2188],[99.8332,6.224],[99.8385,6.2217],[99.8414,6.2248],[99.8523,6.2257],[99.8544,6.2133],[99.8646,6.2344],[99.8642,6.239],[99.8586,6.238],[99.8554,6.2416],[99.8604,6.2522],[99.8587,6.2537],[99.8574,6.2517],[99.8569,6.2565],[99.8518,6.2584],[99.8534,6.2621],[99.8498,6.2623],[99.8457,6.269],[99.8326,6.2611],[99.8316,6.2584]]],[[[99.869,6.2865],[99.8663,6.2861],[99.8656,6.2926],[99.8607,6.2876],[99.8631,6.2813],[99.8673,6.2829],[99.869,6.2865]]],[[[99.8899,6.3137],[99.8855,6.315],[99.8846,6.3105],[99.8866,6.3088],[99.8948,6.3119],[99.8959,6.309],[99.8989,6.3085],[99.9119,6.3104],[99.9109,6.3046],[99.9191,6.3028],[99.9212,6.2944],[99.928,6.317],[99.9304,6.3175],[99.93,6.3139],[99.932,6.313],[99.9333,6.3182],[99.9377,6.319],[99.9308,6.3187],[99.9272,6.3248],[99.9131,6.3176],[99.9086,6.3193],[99.8927,6.3177],[99.8899,6.3137]]],[[[99.7017,6.2941],[99.7037,6.3035],[99.6995,6.3019],[99.6937,6.3038],[99.6945,6.2989],[99.6865,6.2926],[99.6883,6.2895],[99.6944,6.2913],[99.6981,6.2967],[99.6986,6.294],[99.695,6.2917],[99.6997,6.2904],[99.7017,6.2941]]],[[[99.7221,6.3241],[99.7136,6.3103],[99.7207,6.3031],[99.7191,6.2986],[99.7247,6.293],[99.7287,6.2842],[99.7314,6.2686],[99.7272,6.2623],[99.7289,6.2598],[99.7307,6.2611],[99.7351,6.2588],[99.7371,6.2613],[99.7353,6.2664],[99.7392,6.267],[99.7405,6.2701],[99.7501,6.27],[99.7514,6.281],[99.7552,6.2797],[99.7575,6.2847],[99.7629,6.2813],[99.7675,6.2837],[99.7719,6.2798],[99.7745,6.2805],[99.7758,6.2861],[99.7804,6.2871],[99.7818,6.29],[99.784,6.2891],[99.7899,6.2984],[99.7938,6.2987],[99.7995,6.3041],[99.8024,6.3088],[99.8023,6.3169],[99.8065,6.3171],[99.807,6.3206],[99.8192,6.3211],[99.8291,6.3249],[99.8333,6.3217],[99.8367,6.3255],[99.8402,6.3254],[99.8395,6.3229],[99.8469,6.3219],[99.8477,6.3183],[99.8495,6.3195],[99.848,6.3175],[99.8539,6.309],[99.8512,6.3091],[99.8529,6.3075],[99.8503,6.3066],[99.8519,6.2989],[99.8628,6.2947],[99.8625,6.3079],[99.8742,6.3059],[99.8818,6.312],[99.8795,6.3171],[99.8834,6.3212],[99.8895,6.324],[99.8928,6.3219],[99.896,6.3272],[99.911,6.3305],[99.9138,6.3348],[99.8761,6.3349],[99.869,6.3407],[99.8693,6.343],[99.8609,6.3365],[99.8526,6.3359],[99.8525,6.3412],[99.847,6.3393],[99.835,6.3433],[99.8322,6.3471],[99.8126,6.3466],[99.8081,6.3521],[99.8032,6.3493],[99.7979,6.3328],[99.7848,6.334],[99.7787,6.3316],[99.7697,6.335],[99.7679,6.3322],[99.7559,6.3345],[99.753,6.3381],[99.7472,6.3361],[99.7381,6.337],[99.736,6.3392],[99.7313,6.338],[99.731,6.3319],[99.725,6.324],[99.7221,6.3241]]]]}},{"type":"Feature","properties":{"c":"N.03","n":"Kota Siputeh","w":"PN","p":"BERSATU","cand":"Mohd Ashraf Mustaqim bin Badrul Munir","pct":79.6,"maj":13090,"nc":3,"tv":21582,"unc":false,"rw":"PH","rp":"AMANAH","rcand":"Salmee binti Said","rpct":19.0},"geometry":{"type":"Polygon","coordinates":[[[100.3051,6.4071],[100.3052,6.4043],[100.3022,6.4037],[100.2795,6.3695],[100.2736,6.3668],[100.2668,6.3576],[100.2545,6.3484],[100.2496,6.3351],[100.2432,6.3321],[100.2275,6.3171],[100.2201,6.3072],[100.218,6.2995],[100.2041,6.289],[100.2043,6.2852],[100.2012,6.2816],[100.2039,6.2759],[100.2018,6.2659],[100.1943,6.2505],[100.1952,6.2477],[100.2117,6.2411],[100.2375,6.2661],[100.2417,6.274],[100.2772,6.3004],[100.2818,6.2945],[100.2969,6.3044],[100.2996,6.2968],[100.3118,6.2992],[100.3253,6.3071],[100.3258,6.3123],[100.3292,6.314],[100.3284,6.3167],[100.3366,6.3192],[100.3354,6.322],[100.3511,6.3284],[100.3443,6.3321],[100.3404,6.3305],[100.3254,6.3508],[100.3307,6.3517],[100.3346,6.3556],[100.3364,6.3583],[100.3356,6.3644],[100.3385,6.3675],[100.3483,6.371],[100.3497,6.3757],[100.3602,6.3824],[100.361,6.3906],[100.3676,6.3949],[100.3842,6.3895],[100.3838,6.3962],[100.3894,6.3967],[100.3942,6.4015],[100.3915,6.402],[100.3902,6.4057],[100.3857,6.4028],[100.3845,6.408],[100.3726,6.4207],[100.37,6.4231],[100.3647,6.4228],[100.3634,6.4392],[100.3669,6.4463],[100.3643,6.449],[100.3653,6.4539],[100.312,6.4104],[100.3084,6.4105],[100.3051,6.4071]]]}},{"type":"Feature","properties":{"c":"N.04","n":"Ayer Hitam","w":"PN","p":"PAS","cand":"Azhar bin Ibrahim ","pct":78.3,"maj":15973,"nc":2,"tv":28183,"unc":false,"rw":"BN","rp":"UMNO","rcand":"Hayazi bin Azizan","rpct":21.7},"geometry":{"type":"Polygon","coordinates":[[[100.2117,6.2411],[100.2408,6.2141],[100.2587,6.1832],[100.2874,6.2059],[100.2851,6.2132],[100.2894,6.2143],[100.2878,6.2188],[100.2914,6.2244],[100.2859,6.2236],[100.2857,6.2258],[100.3523,6.2343],[100.3683,6.2201],[100.3541,6.2925],[100.3371,6.2875],[100.3375,6.3147],[100.3397,6.3148],[100.3418,6.3019],[100.3523,6.3024],[100.3495,6.316],[100.3642,6.3119],[100.3697,6.3146],[100.3708,6.3115],[100.3733,6.3119],[100.3735,6.3144],[100.3824,6.3138],[100.3835,6.3175],[100.3794,6.3187],[100.3797,6.3237],[100.3879,6.3263],[100.3863,6.3365],[100.3938,6.3378],[100.391,6.3477],[100.3818,6.3634],[100.3863,6.3677],[100.388,6.3755],[100.3943,6.3755],[100.3929,6.3816],[100.3894,6.3805],[100.3877,6.3863],[100.3845,6.382],[100.3842,6.3895],[100.3676,6.3949],[100.361,6.3906],[100.3602,6.3824],[100.3497,6.3757],[100.3483,6.371],[100.3385,6.3675],[100.3356,6.3644],[100.3364,6.3583],[100.3346,6.3556],[100.3307,6.3517],[100.3254,6.3508],[100.3404,6.3305],[100.3443,6.3321],[100.3511,6.3284],[100.3354,6.322],[100.3366,6.3192],[100.3284,6.3167],[100.3292,6.314],[100.3258,6.3123],[100.3253,6.3071],[100.3118,6.2992],[100.2996,6.2968],[100.2969,6.3044],[100.2818,6.2945],[100.2772,6.3004],[100.2417,6.274],[100.2375,6.2661],[100.2117,6.2411]]]}},{"type":"Feature","properties":{"c":"N.05","n":"Bukit Kayu Hitam","w":"PN","p":"BERSATU","cand":"Halimaton Shaadiah binti Saad (Kak Ton)","pct":72.9,"maj":15434,"nc":2,"tv":33668,"unc":false,"rw":"BN","rp":"UMNO","rcand":"Zainol Abidin bin Mohamad (Cikgu Non)","rpct":27.1},"geometry":{"type":"Polygon","coordinates":[[[100.366,6.483],[100.363,6.4533],[100.3653,6.4539],[100.3643,6.449],[100.3669,6.4463],[100.3634,6.4392],[100.3654,6.4297],[100.364,6.4244],[100.3726,6.4207],[100.3845,6.408],[100.3857,6.4028],[100.3902,6.4057],[100.3915,6.402],[100.3942,6.4027],[100.3894,6.3967],[100.3838,6.3962],[100.3845,6.382],[100.3877,6.3863],[100.3894,6.3805],[100.3929,6.3816],[100.3948,6.378],[100.3943,6.3755],[100.388,6.3755],[100.3863,6.3677],[100.3818,6.3634],[100.391,6.3477],[100.3938,6.3378],[100.3863,6.3365],[100.3879,6.3263],[100.3797,6.3237],[100.3794,6.3187],[100.3835,6.3175],[100.3824,6.3138],[100.3735,6.3144],[100.3733,6.3119],[100.3708,6.3115],[100.3697,6.3146],[100.3642,6.3119],[100.3495,6.316],[100.3523,6.3024],[100.3418,6.3019],[100.3397,6.3148],[100.3375,6.3147],[100.3371,6.2875],[100.3541,6.2925],[100.3628,6.2474],[100.3765,6.2525],[100.3818,6.2578],[100.3975,6.2608],[100.3959,6.2673],[100.3915,6.2662],[100.3903,6.2711],[100.4037,6.275],[100.4075,6.2737],[100.4084,6.278],[100.4129,6.2768],[100.414,6.2805],[100.4183,6.2825],[100.4208,6.2871],[100.4111,6.2852],[100.4084,6.2886],[100.4139,6.3117],[100.4247,6.3116],[100.4247,6.3195],[100.434,6.3193],[100.4324,6.3158],[100.4374,6.3161],[100.4405,6.3244],[100.4442,6.3262],[100.4474,6.3337],[100.4566,6.3425],[100.4569,6.3478],[100.4616,6.3484],[100.467,6.3533],[100.4693,6.3513],[100.4922,6.3526],[100.5061,6.351],[100.5146,6.3638],[100.5166,6.3621],[100.5185,6.3644],[100.5168,6.3671],[100.5214,6.3726],[100.5194,6.3803],[100.5296,6.3797],[100.5327,6.3842],[100.5368,6.3844],[100.5534,6.3941],[100.5555,6.3922],[100.5652,6.3955],[100.5699,6.4038],[100.5688,6.4091],[100.5637,6.4126],[100.5679,6.422],[100.5714,6.4247],[100.5714,6.4291],[100.5821,6.4358],[100.5954,6.4324],[100.5937,6.448],[100.5992,6.4606],[100.6072,6.471],[100.6046,6.4718],[100.6023,6.4684],[100.5938,6.4778],[100.5845,6.4779],[100.573,6.4827],[100.5625,6.496],[100.5526,6.4913],[100.5483,6.4845],[100.5421,6.4912],[100.5369,6.4868],[100.532,6.4898],[100.5255,6.4873],[100.524,6.4904],[100.5188,6.4886],[100.5152,6.4932],[100.5116,6.4923],[100.508,6.5005],[100.5019,6.4995],[100.4994,6.5046],[100.4938,6.5086],[100.4927,6.5166],[100.4958,6.5185],[100.4953,6.522],[100.4902,6.5255],[100.4867,6.5224],[100.4781,6.5237],[100.4705,6.5204],[100.4673,6.5216],[100.4672,6.5247],[100.4625,6.5251],[100.4596,6.5311],[100.4563,6.5311],[100.4537,6.5268],[100.4394,6.5269],[100.4326,6.5225],[100.4285,6.5227],[100.4237,6.5175],[100.4207,6.5179],[100.4176,6.5191],[100.4156,6.5234],[100.4103,6.5229],[100.4075,6.5287],[100.4029,6.5295],[100.4021,6.5363],[100.3974,6.5339],[100.3882,6.5349],[100.3871,6.5389],[100.3844,6.5384],[100.3822,6.5416],[100.3732,6.5451],[100.3671,6.5391],[100.3707,6.5322],[100.366,6.483]]]}},{"type":"Feature","properties":{"c":"N.06","n":"Jitra","w":"PN","p":"PAS","cand":"Haim Hilman bin Abdullah","pct":75.5,"maj":23172,"nc":2,"tv":45512,"unc":false,"rw":"PH","rp":"PKR","rcand":"Sabrina binti Ahmad (Datin Sabrina Ahmad)","rpct":24.5},"geometry":{"type":"Polygon","coordinates":[[[100.3683,6.2201],[100.373,6.2159],[100.3843,6.2126],[100.4029,6.214],[100.4015,6.2085],[100.418,6.204],[100.4215,6.2051],[100.4231,6.2027],[100.4259,6.205],[100.4301,6.2037],[100.4372,6.2098],[100.4353,6.2175],[100.4369,6.2189],[100.4404,6.2151],[100.4426,6.2194],[100.4438,6.2163],[100.452,6.2157],[100.4548,6.213],[100.4606,6.2194],[100.4593,6.2148],[100.4634,6.212],[100.4669,6.2146],[100.4671,6.2121],[100.475,6.2132],[100.4727,6.2166],[100.4772,6.221],[100.4721,6.2226],[100.474,6.2339],[100.4705,6.2349],[100.4737,6.2398],[100.478,6.2399],[100.4783,6.2368],[100.4827,6.2375],[100.48,6.2404],[100.484,6.2426],[100.4809,6.2428],[100.4813,6.2445],[100.4891,6.2497],[100.4877,6.2523],[100.4918,6.251],[100.4938,6.2564],[100.496,6.2535],[100.5007,6.2534],[100.5024,6.2499],[100.5064,6.2512],[100.5056,6.2557],[100.5078,6.2582],[100.5089,6.2553],[100.5141,6.2581],[100.5144,6.2611],[100.5207,6.2605],[100.5255,6.2649],[100.5225,6.2752],[100.5269,6.2831],[100.5255,6.2892],[100.5318,6.2946],[100.532,6.2977],[100.5283,6.3004],[100.5265,6.3094],[100.522,6.3095],[100.512,6.3214],[100.5143,6.3289],[100.5066,6.3403],[100.5061,6.351],[100.4922,6.3526],[100.4693,6.3513],[100.467,6.3533],[100.4616,6.3484],[100.4569,6.3478],[100.4566,6.3425],[100.4474,6.3337],[100.4442,6.3262],[100.4405,6.3244],[100.4374,6.3161],[100.4324,6.3158],[100.434,6.3193],[100.4247,6.3195],[100.4247,6.3116],[100.4139,6.3117],[100.4089,6.2859],[100.4208,6.2871],[100.4129,6.2768],[100.4084,6.278],[100.4075,6.2737],[100.4037,6.275],[100.3903,6.2711],[100.3915,6.2662],[100.3959,6.2673],[100.3975,6.2608],[100.3818,6.2578],[100.3765,6.2525],[100.3628,6.2474],[100.3683,6.2201]]]}},{"type":"Feature","properties":{"c":"N.07","n":"Kuala Nerang","w":"PN","p":"PAS","cand":"Mohamad Yusoff @ Munir bin Zakaria","pct":82.3,"maj":15446,"nc":2,"tv":23876,"unc":false,"rw":"PH","rp":"AMANAH","rcand":"Ridzwan bin Abu Bakar (Ustaz Ridzwan)","rpct":17.7},"geometry":{"type":"Polygon","coordinates":[[[100.5061,6.351],[100.5066,6.3403],[100.5143,6.3289],[100.512,6.3214],[100.522,6.3095],[100.5265,6.3094],[100.5283,6.3004],[100.532,6.2977],[100.5318,6.2946],[100.5255,6.2892],[100.5269,6.2831],[100.5225,6.2752],[100.5255,6.2649],[100.5207,6.2605],[100.5144,6.2611],[100.5141,6.2555],[100.5195,6.2417],[100.523,6.2403],[100.5214,6.2349],[100.5295,6.2222],[100.5327,6.2122],[100.539,6.2068],[100.5415,6.1986],[100.5467,6.1925],[100.5648,6.2084],[100.5669,6.217],[100.5728,6.2201],[100.5764,6.2206],[100.5814,6.2156],[100.5907,6.2174],[100.5922,6.205],[100.6068,6.2058],[100.625,6.2118],[100.6484,6.2344],[100.6491,6.2403],[100.645,6.2586],[100.6539,6.259],[100.6562,6.2623],[100.6617,6.262],[100.6691,6.2655],[100.6995,6.2631],[100.6999,6.2678],[100.7046,6.2706],[100.6977,6.2715],[100.6974,6.278],[100.7036,6.292],[100.7109,6.2947],[100.7147,6.3083],[100.7338,6.3298],[100.7314,6.3369],[100.7331,6.3394],[100.7605,6.341],[100.7636,6.3295],[100.7629,6.3215],[100.7673,6.3149],[100.7705,6.3163],[100.7743,6.3237],[100.78,6.3239],[100.7845,6.3305],[100.7874,6.3513],[100.7925,6.3517],[100.7953,6.3611],[100.8223,6.3553],[100.8223,6.3653],[100.82,6.3693],[100.8238,6.382],[100.8207,6.4013],[100.8236,6.4042],[100.8234,6.4081],[100.8188,6.4212],[100.8161,6.4231],[100.8167,6.4271],[100.8107,6.4444],[100.7887,6.4498],[100.7877,6.4541],[100.7806,6.4551],[100.7765,6.463],[100.769,6.4553],[100.759,6.4572],[100.7579,6.4557],[100.7525,6.4585],[100.743,6.4712],[100.7423,6.4844],[100.7383,6.4896],[100.7433,6.4998],[100.7386,6.5102],[100.7343,6.51],[100.7308,6.4971],[100.7292,6.495],[100.7234,6.4952],[100.7189,6.4855],[100.7122,6.4818],[100.7088,6.4701],[100.6977,6.4708],[100.6976,6.4661],[100.6866,6.4651],[100.6844,6.4535],[100.6617,6.4506],[100.6526,6.4426],[100.6425,6.4496],[100.6464,6.4583],[100.6263,6.4578],[100.6178,6.4598],[100.6132,6.4623],[100.6138,6.4658],[100.6072,6.471],[100.5992,6.4606],[100.5937,6.448],[100.5954,6.4324],[100.5821,6.4358],[100.5714,6.4291],[100.5714,6.4247],[100.5679,6.422],[100.5637,6.4126],[100.5688,6.4091],[100.5699,6.4038],[100.5652,6.3955],[100.5555,6.3922],[100.5534,6.3941],[100.5368,6.3844],[100.5327,6.3842],[100.5296,6.3797],[100.5194,6.3803],[100.5214,6.3726],[100.5168,6.3671],[100.5185,6.3644],[100.5166,6.3621],[100.5146,6.3638],[100.5061,6.351]]]}},{"type":"Feature","properties":{"c":"N.08","n":"Pedu","w":"PN","p":"PAS","cand":"Mohd Radzi bin Md Amin","pct":64.2,"maj":6373,"nc":2,"tv":22421,"unc":false,"rw":"BN","rp":"UMNO","rcand":"Mahdzir bin Khalid","rpct":35.8},"geometry":{"type":"Polygon","coordinates":[[[100.5922,6.205],[100.6012,6.188],[100.6007,6.1846],[100.6061,6.1777],[100.5983,6.171],[100.5981,6.1637],[100.6199,6.1581],[100.6345,6.1408],[100.6419,6.14],[100.6389,6.1252],[100.6421,6.1252],[100.6442,6.1216],[100.6429,6.1142],[100.6478,6.1054],[100.6391,6.0749],[100.645,6.0648],[100.6435,6.0607],[100.6525,6.056],[100.6582,6.0296],[100.6755,6.021],[100.678,6.0156],[100.6827,6.0176],[100.6927,6.0078],[100.6954,6.0007],[100.7011,6.0],[100.7011,5.9972],[100.6987,5.9964],[100.6998,5.9934],[100.6851,5.9759],[100.688,5.9711],[100.7008,5.9694],[100.6996,5.9643],[100.7031,5.9623],[100.7027,5.9594],[100.7109,5.9634],[100.7159,5.9614],[100.7176,5.9575],[100.7192,5.9599],[100.7174,5.975],[100.7219,5.9754],[100.7244,5.9773],[100.7237,5.9794],[100.736,5.9843],[100.735,5.992],[100.7386,5.994],[100.7383,5.9965],[100.7337,5.9976],[100.731,5.9955],[100.7336,6.0021],[100.7283,6.0032],[100.7335,6.0082],[100.7306,6.0117],[100.7356,6.0185],[100.7308,6.0226],[100.7366,6.0262],[100.7373,6.0386],[100.7411,6.0367],[100.7397,6.0341],[100.7428,6.0295],[100.7458,6.033],[100.749,6.03],[100.7543,6.0322],[100.7556,6.0372],[100.753,6.0379],[100.7521,6.0447],[100.7567,6.0509],[100.7665,6.0532],[100.7659,6.0595],[100.768,6.0598],[100.7699,6.0541],[100.7768,6.0509],[100.7789,6.056],[100.7752,6.0578],[100.7759,6.0607],[100.7855,6.0594],[100.784,6.0636],[100.7861,6.0665],[100.7827,6.0699],[100.7897,6.0711],[100.7886,6.0796],[100.793,6.0816],[100.7879,6.0885],[100.7885,6.0938],[100.7955,6.1037],[100.7986,6.1031],[100.807,6.1133],[100.8078,6.1513],[100.8059,6.1574],[100.8102,6.1589],[100.8161,6.1556],[100.818,6.1517],[100.8214,6.1561],[100.8255,6.156],[100.8341,6.1512],[100.8411,6.1536],[100.8544,6.1522],[100.8578,6.1568],[100.8585,6.1887],[100.8557,6.1913],[100.8578,6.195],[100.8589,6.2188],[100.8568,6.2201],[100.8547,6.2314],[100.852,6.232],[100.8441,6.2498],[100.8458,6.259],[100.8348,6.2885],[100.8352,6.2965],[100.8376,6.3001],[100.8409,6.3002],[100.8428,6.3079],[100.8484,6.3092],[100.8486,6.3154],[100.8404,6.3226],[100.8406,6.3274],[100.8275,6.3521],[100.8201,6.3569],[100.8124,6.3563],[100.7953,6.3611],[100.7925,6.3517],[100.7874,6.3513],[100.7845,6.3305],[100.78,6.3239],[100.7743,6.3237],[100.7705,6.3163],[100.7673,6.3149],[100.7629,6.3215],[100.7636,6.3295],[100.7605,6.341],[100.7331,6.3394],[100.7314,6.3369],[100.7338,6.3298],[100.7147,6.3083],[100.7109,6.2947],[100.7036,6.292],[100.6974,6.278],[100.6977,6.2715],[100.7046,6.2706],[100.6999,6.2678],[100.6995,6.2631],[100.6691,6.2655],[100.6617,6.262],[100.6562,6.2623],[100.6539,6.259],[100.645,6.2586],[100.6491,6.2403],[100.6472,6.2319],[100.625,6.2118],[100.6068,6.2058],[100.5922,6.205]]]}},{"type":"Feature","properties":{"c":"N.09","n":"Bukit Lada","w":"PN","p":"PAS","cand":"Salim bin Mahmood ","pct":78.1,"maj":17411,"nc":2,"tv":30955,"unc":false,"rw":"BN","rp":"UMNO","rcand":"Said Ali bin Said @ Syed Rastan","rpct":21.9},"geometry":{"type":"Polygon","coordinates":[[[100.4634,6.212],[100.4745,6.1969],[100.475,6.193],[100.4584,6.1927],[100.4561,6.1962],[100.4487,6.1938],[100.448,6.1862],[100.4466,6.1913],[100.4384,6.186],[100.4405,6.1824],[100.435,6.1777],[100.4364,6.1698],[100.4336,6.1674],[100.4342,6.1635],[100.4403,6.1644],[100.441,6.1619],[100.4573,6.1642],[100.4593,6.1604],[100.4562,6.1547],[100.4564,6.14],[100.4752,6.1362],[100.4906,6.1394],[100.4918,6.1325],[100.4945,6.1327],[100.4946,6.1252],[100.4815,6.121],[100.4841,6.1142],[100.4868,6.1141],[100.494,6.1055],[100.497,6.1055],[100.4985,6.1013],[100.4934,6.0982],[100.4887,6.0905],[100.4766,6.0865],[100.4819,6.0808],[100.4848,6.0836],[100.4883,6.0814],[100.489,6.0853],[100.4923,6.0866],[100.497,6.0811],[100.5064,6.0842],[100.5192,6.0777],[100.5227,6.0841],[100.5383,6.0946],[100.5414,6.1068],[100.5446,6.1061],[100.5498,6.1094],[100.556,6.1052],[100.5613,6.1105],[100.5702,6.1121],[100.5745,6.1074],[100.5838,6.1094],[100.5869,6.107],[100.5862,6.1088],[100.5936,6.1126],[100.5989,6.1098],[100.6048,6.1113],[100.6061,6.1182],[100.6097,6.1228],[100.6201,6.1184],[100.6245,6.1192],[100.6271,6.114],[100.6358,6.1116],[100.6429,6.1142],[100.6442,6.1216],[100.6388,6.127],[100.6419,6.14],[100.6345,6.1408],[100.6199,6.1581],[100.5981,6.1637],[100.5983,6.171],[100.6061,6.1777],[100.6007,6.1846],[100.6012,6.188],[100.5922,6.205],[100.5907,6.2174],[100.5814,6.2156],[100.5764,6.2206],[100.5669,6.217],[100.5648,6.2084],[100.5467,6.1925],[100.5415,6.1986],[100.539,6.2068],[100.5327,6.2122],[100.5295,6.2222],[100.5214,6.2349],[100.523,6.2403],[100.5195,6.2417],[100.5168,6.2469],[100.5141,6.2581],[100.5089,6.2553],[100.5078,6.2582],[100.5056,6.2557],[100.5064,6.2512],[100.5024,6.2499],[100.4985,6.2548],[100.4952,6.2542],[100.4952,6.2567],[100.4918,6.251],[100.4877,6.2523],[100.4891,6.2497],[100.4813,6.2445],[100.4809,6.2428],[100.484,6.2426],[100.48,6.2404],[100.4827,6.2375],[100.4783,6.2368],[100.478,6.2399],[100.4737,6.2398],[100.4705,6.2349],[100.474,6.2339],[100.4721,6.2226],[100.4772,6.221],[100.4727,6.2166],[100.475,6.2132],[100.4671,6.2121],[100.4669,6.2146],[100.4634,6.212]]]}},{"type":"Feature","properties":{"c":"N.10","n":"Bukit Pinang","w":"PN","p":"PAS","cand":"Wan Romani bin Wan Salim","pct":82.8,"maj":18261,"nc":2,"tv":27821,"unc":false,"rw":"PH","rp":"PKR","rcand":"Hadzir bin Md.Zain","rpct":17.2},"geometry":{"type":"Polygon","coordinates":[[[100.4015,6.2085],[100.3993,6.2074],[100.4008,6.1843],[100.3975,6.1795],[100.3941,6.179],[100.3907,6.172],[100.3867,6.1718],[100.3869,6.1688],[100.3894,6.1688],[100.3912,6.1579],[100.3887,6.1507],[100.3925,6.1489],[100.3891,6.1466],[100.3876,6.1412],[100.3946,6.1395],[100.4016,6.1502],[100.4018,6.1476],[100.4067,6.1451],[100.4045,6.1372],[100.4058,6.1326],[100.4132,6.1308],[100.422,6.1326],[100.4235,6.1311],[100.4213,6.1282],[100.4336,6.1287],[100.4352,6.1192],[100.4441,6.1207],[100.4452,6.1086],[100.4475,6.1088],[100.4493,6.1047],[100.4541,6.1048],[100.4626,6.0836],[100.4672,6.0833],[100.474,6.0875],[100.483,6.0871],[100.4887,6.0905],[100.4987,6.1031],[100.4822,6.1177],[100.4815,6.121],[100.4946,6.1252],[100.4945,6.1327],[100.4918,6.1325],[100.4906,6.1394],[100.4752,6.1362],[100.4564,6.14],[100.4562,6.1547],[100.4593,6.1604],[100.4573,6.1642],[100.4491,6.162],[100.441,6.1619],[100.4403,6.1644],[100.4342,6.1635],[100.4336,6.1674],[100.4364,6.1698],[100.435,6.1777],[100.4405,6.1824],[100.4384,6.186],[100.4432,6.19],[100.4478,6.1911],[100.448,6.1862],[100.4487,6.1938],[100.4561,6.1962],[100.4584,6.1927],[100.475,6.193],[100.4704,6.2028],[100.4593,6.2148],[100.4606,6.2194],[100.4548,6.213],[100.452,6.2157],[100.4438,6.2163],[100.4426,6.2194],[100.4417,6.2151],[100.4381,6.2188],[100.4353,6.2182],[100.4372,6.2098],[100.4301,6.2037],[100.4259,6.205],[100.4231,6.2027],[100.4215,6.2051],[100.418,6.204],[100.4015,6.2085]]]}},{"type":"Feature","properties":{"c":"N.11","n":"Derga","w":"PN","p":"BERSATU","cand":"Muhamad Amri bin Wahab","pct":56.7,"maj":3662,"nc":3,"tv":25445,"unc":false,"rw":"PH","rp":"DAP","rcand":"Tan Kok Yew","rpct":42.3},"geometry":{"type":"Polygon","coordinates":[[[100.3876,6.1412],[100.3842,6.147],[100.383,6.1374],[100.3772,6.1376],[100.3749,6.135],[100.3754,6.1297],[100.3723,6.1277],[100.3781,6.1257],[100.3768,6.1236],[100.3795,6.12],[100.3848,6.1203],[100.3816,6.1163],[100.3811,6.1074],[100.3818,6.1039],[100.3862,6.1007],[100.3902,6.1031],[100.3869,6.1073],[100.3894,6.1122],[100.3957,6.1127],[100.3966,6.1077],[100.4049,6.1108],[100.4048,6.1139],[100.4103,6.1168],[100.4118,6.1217],[100.4147,6.1232],[100.4123,6.1263],[100.4132,6.1308],[100.4053,6.1332],[100.4067,6.1451],[100.4018,6.1476],[100.4016,6.1502],[100.3946,6.1395],[100.3876,6.1412]]]}},{"type":"Feature","properties":{"c":"N.12","n":"Suka Menanti","w":"PN","p":"BERSATU","cand":"Dzowahir bin Ab Ghani","pct":64.4,"maj":8245,"nc":2,"tv":28547,"unc":false,"rw":"PH","rp":"PKR","rcand":"Zamri bin Yusuf","rpct":35.6},"geometry":{"type":"Polygon","coordinates":[[[100.3894,6.1668],[100.3832,6.1624],[100.3826,6.1681],[100.3723,6.1697],[100.3662,6.1791],[100.3583,6.1808],[100.3588,6.1751],[100.3425,6.1578],[100.3627,6.1432],[100.3606,6.1387],[100.3573,6.1386],[100.3585,6.1351],[100.3512,6.1329],[100.3425,6.1426],[100.3362,6.1441],[100.3383,6.1425],[100.3239,6.1321],[100.3244,6.1266],[100.3207,6.1219],[100.3217,6.1183],[100.3325,6.122],[100.335,6.1209],[100.3333,6.115],[100.342,6.1133],[100.3572,6.1207],[100.3641,6.119],[100.3644,6.1302],[100.3682,6.1306],[100.3665,6.1366],[100.3735,6.1396],[100.3724,6.1461],[100.3744,6.1461],[100.3753,6.1425],[100.3797,6.1451],[100.38,6.1415],[100.3842,6.1413],[100.3842,6.147],[100.3876,6.1412],[100.3891,6.1466],[100.3925,6.1489],[100.3887,6.1507],[100.3912,6.1579],[100.3894,6.1668]]]}},{"type":"Feature","properties":{"c":"N.13","n":"Kota Darul Aman","w":"PH","p":"DAP","cand":"Teh Swee Leong","pct":66.9,"maj":5650,"nc":2,"tv":16706,"unc":false,"rw":"PN","rp":"GERAKAN","rcand":"Chuah See Seng","rpct":33.1},"geometry":{"type":"Polygon","coordinates":[[[100.3842,6.1413],[100.38,6.1415],[100.3797,6.1451],[100.3753,6.1425],[100.3744,6.1461],[100.3724,6.1461],[100.3735,6.1396],[100.3665,6.1366],[100.3682,6.1306],[100.3644,6.1302],[100.3641,6.119],[100.3529,6.1195],[100.3545,6.1123],[100.3575,6.1161],[100.3595,6.1136],[100.3586,6.1079],[100.3678,6.1087],[100.3679,6.1061],[100.3647,6.1059],[100.3643,6.1004],[100.3675,6.1004],[100.3672,6.0957],[100.3704,6.0944],[100.374,6.0939],[100.3761,6.1],[100.3723,6.1046],[100.3715,6.1126],[100.3747,6.1192],[100.3795,6.12],[100.3768,6.1236],[100.3781,6.1257],[100.3723,6.1277],[100.3754,6.1297],[100.3749,6.135],[100.3798,6.1389],[100.383,6.1374],[100.3842,6.1413]]]}},{"type":"Feature","properties":{"c":"N.14","n":"Alor Mengkudu","w":"PN","p":"PAS","cand":"Muhamad Radhi bin Mat Din","pct":68.2,"maj":10104,"nc":2,"tv":27768,"unc":false,"rw":"PH","rp":"AMANAH","rcand":"Mahfuz bin Omar","rpct":31.8},"geometry":{"type":"Polygon","coordinates":[[[100.4766,6.0865],[100.474,6.0875],[100.4672,6.0833],[100.4626,6.0836],[100.4541,6.1048],[100.4493,6.1047],[100.4475,6.1088],[100.4452,6.1086],[100.4441,6.1207],[100.4352,6.1192],[100.4336,6.1287],[100.4213,6.1282],[100.4235,6.1311],[100.422,6.1326],[100.4132,6.1308],[100.4123,6.1263],[100.4147,6.1232],[100.4118,6.1217],[100.4103,6.1168],[100.4048,6.1139],[100.4049,6.1108],[100.3966,6.1077],[100.3957,6.1127],[100.3894,6.1122],[100.3869,6.1073],[100.3896,6.1013],[100.3862,6.1007],[100.3818,6.1039],[100.3816,6.1163],[100.3848,6.1203],[100.3747,6.1192],[100.3718,6.108],[100.3761,6.1],[100.374,6.0939],[100.3672,6.0957],[100.3661,6.08],[100.3788,6.0436],[100.3891,6.0464],[100.4003,6.0443],[100.4314,6.045],[100.4314,6.043],[100.4433,6.0454],[100.4453,6.0435],[100.4619,6.0541],[100.461,6.0564],[100.4642,6.0575],[100.4632,6.0599],[100.466,6.0606],[100.4664,6.0658],[100.469,6.0681],[100.4653,6.0755],[100.477,6.078],[100.4783,6.0831],[100.4766,6.0865]]]}},{"type":"Feature","properties":{"c":"N.15","n":"Anak Bukit","w":"PN","p":"PAS","cand":"Rashidi bin Razak","pct":78.6,"maj":15831,"nc":2,"tv":27645,"unc":false,"rw":"BN","rp":"UMNO","rcand":"Noor Hasita binti Mat Isa","rpct":21.4},"geometry":{"type":"Polygon","coordinates":[[[100.2865,6.2053],[100.2903,6.2004],[100.2937,6.2005],[100.3095,6.181],[100.2992,6.1752],[100.3151,6.1553],[100.321,6.159],[100.3271,6.1511],[100.3425,6.1426],[100.3512,6.1329],[100.3585,6.1351],[100.3573,6.1386],[100.3606,6.1387],[100.3627,6.1432],[100.3425,6.1578],[100.3588,6.1751],[100.3583,6.1808],[100.3662,6.1791],[100.3723,6.1697],[100.3826,6.1681],[100.3832,6.1624],[100.3894,6.1668],[100.3867,6.1718],[100.3907,6.172],[100.3941,6.179],[100.3975,6.1795],[100.4008,6.1843],[100.3993,6.2074],[100.4038,6.2124],[100.4029,6.214],[100.3843,6.2126],[100.373,6.2159],[100.3523,6.2343],[100.2857,6.2258],[100.2859,6.2236],[100.2914,6.2244],[100.2878,6.2188],[100.2894,6.2143],[100.2851,6.2132],[100.2865,6.2053]]]}},{"type":"Feature","properties":{"c":"N.16","n":"Kubang Rotan","w":"PN","p":"BERSATU","cand":"Mohd Salleh bin Saidin","pct":65.4,"maj":10786,"nc":2,"tv":35116,"unc":false,"rw":"PH","rp":"AMANAH","rcand":"Mohd Asmirul Anuar bin Aris","rpct":34.6},"geometry":{"type":"Polygon","coordinates":[[[100.2587,6.1832],[100.2696,6.1598],[100.2773,6.1356],[100.2793,6.1117],[100.2851,6.1041],[100.2841,6.0972],[100.2908,6.0879],[100.3026,6.0958],[100.3044,6.0933],[100.3129,6.0974],[100.3643,6.1004],[100.3647,6.1059],[100.3679,6.1061],[100.3678,6.1087],[100.3586,6.1079],[100.3595,6.1136],[100.3575,6.1161],[100.3545,6.1123],[100.3529,6.1195],[100.342,6.1133],[100.3333,6.115],[100.335,6.1209],[100.3325,6.122],[100.3217,6.1183],[100.3207,6.1219],[100.3244,6.1266],[100.3239,6.1321],[100.3383,6.1425],[100.3362,6.1441],[100.3392,6.1441],[100.3271,6.1511],[100.321,6.159],[100.3151,6.1553],[100.3061,6.1656],[100.2992,6.1752],[100.3095,6.181],[100.2937,6.2005],[100.2903,6.2004],[100.2865,6.2053],[100.2587,6.1832]]]}},{"type":"Feature","properties":{"c":"N.17","n":"Pengkalan Kundor","w":"PN","p":"PAS","cand":"Mardhiyyah binti Johari","pct":66.4,"maj":11032,"nc":2,"tv":33666,"unc":false,"rw":"PH","rp":"AMANAH","rcand":"Ismail bin Salleh","rpct":33.6},"geometry":{"type":"Polygon","coordinates":[[[100.3672,6.0957],[100.3675,6.1004],[100.3129,6.0974],[100.3044,6.0933],[100.3026,6.0958],[100.2908,6.0879],[100.2952,6.0864],[100.312,6.0678],[100.3269,6.0455],[100.35,5.9738],[100.3557,5.9748],[100.3604,5.9705],[100.365,5.9703],[100.367,5.9743],[100.3811,5.9761],[100.3892,5.9799],[100.3926,5.9759],[100.3915,5.9721],[100.4124,5.9725],[100.4132,5.9761],[100.4074,5.984],[100.4082,5.99],[100.3891,6.0464],[100.3788,6.0436],[100.3661,6.08],[100.3672,6.0957]]]}},{"type":"Feature","properties":{"c":"N.18","n":"Tokai","w":"PN","p":"PAS","cand":"Mohd Hayati bin Othman","pct":84.4,"maj":23919,"nc":2,"tv":34739,"unc":false,"rw":"PH","rp":"AMANAH","rcand":"Zainal Abidin bin Saad","rpct":15.6},"geometry":{"type":"Polygon","coordinates":[[[100.4783,6.0831],[100.477,6.078],[100.4653,6.0755],[100.469,6.0681],[100.4664,6.0658],[100.466,6.0606],[100.4632,6.0599],[100.4642,6.0575],[100.461,6.0564],[100.4619,6.0541],[100.4453,6.0435],[100.4433,6.0454],[100.4314,6.043],[100.4314,6.045],[100.3895,6.0453],[100.4082,5.99],[100.4074,5.984],[100.4132,5.9761],[100.4124,5.9725],[100.4295,5.9671],[100.4383,5.9509],[100.443,5.9473],[100.4455,5.9494],[100.4487,5.9477],[100.4564,5.9493],[100.4522,5.9572],[100.454,5.9592],[100.4782,5.9616],[100.4765,5.9702],[100.4735,5.9713],[100.4749,5.9782],[100.4874,5.9751],[100.4898,5.9708],[100.4926,5.9709],[100.4938,5.9737],[100.4995,5.9737],[100.5052,5.9712],[100.5052,5.9685],[100.5139,5.9672],[100.5157,5.9993],[100.5327,5.9959],[100.5449,5.9992],[100.5458,6.0013],[100.5372,6.0124],[100.5318,6.0344],[100.5261,6.0371],[100.5212,6.0456],[100.5323,6.0664],[100.5303,6.0745],[100.5225,6.0818],[100.5192,6.0777],[100.5064,6.0842],[100.497,6.0811],[100.4923,6.0866],[100.489,6.0853],[100.4883,6.0814],[100.4848,6.0836],[100.4819,6.0808],[100.4811,6.0831],[100.4783,6.0831]]]}},{"type":"Feature","properties":{"c":"N.19","n":"Sungai Tiang","w":"PN","p":"BERSATU","cand":"Abdul Razak bin Khamis","pct":73.0,"maj":17099,"nc":2,"tv":37209,"unc":false,"rw":"BN","rp":"UMNO","rcand":"Mohamad Fadzil bin Zolkipli","rpct":27.0},"geometry":{"type":"Polygon","coordinates":[[[100.6429,6.1142],[100.6358,6.1116],[100.6271,6.114],[100.6245,6.1192],[100.6201,6.1184],[100.6097,6.1228],[100.6061,6.1182],[100.6048,6.1113],[100.5989,6.1098],[100.5936,6.1126],[100.5862,6.1088],[100.5869,6.107],[100.5838,6.1094],[100.5745,6.1074],[100.5702,6.1121],[100.5613,6.1105],[100.556,6.1052],[100.5498,6.1094],[100.5453,6.1084],[100.5446,6.1061],[100.5414,6.1068],[100.5383,6.0946],[100.5227,6.0841],[100.523,6.0802],[100.5322,6.0709],[100.5323,6.0664],[100.5212,6.0456],[100.5261,6.0371],[100.5318,6.0344],[100.5372,6.0124],[100.5458,6.0013],[100.5449,5.9992],[100.5327,5.9959],[100.5157,5.9993],[100.5139,5.9672],[100.5052,5.9685],[100.5052,5.9712],[100.4995,5.9737],[100.4938,5.9737],[100.4926,5.9709],[100.4898,5.9708],[100.4874,5.9751],[100.4749,5.9782],[100.4735,5.9713],[100.4765,5.9702],[100.4782,5.9616],[100.454,5.9592],[100.4522,5.9572],[100.4564,5.9493],[100.4487,5.9477],[100.4455,5.9494],[100.443,5.9473],[100.4565,5.9224],[100.4555,5.9011],[100.4504,5.899],[100.4656,5.8695],[100.4761,5.8713],[100.4799,5.8634],[100.485,5.8639],[100.4859,5.8609],[100.4925,5.8607],[100.493,5.869],[100.5211,5.8725],[100.5212,5.8648],[100.5542,5.8558],[100.5655,5.8461],[100.5863,5.8398],[100.6035,5.8408],[100.6067,5.8459],[100.6074,5.8545],[100.6102,5.8565],[100.6091,5.8629],[100.6127,5.8648],[100.6126,5.8685],[100.6161,5.8714],[100.6139,5.8756],[100.6082,5.8771],[100.6108,5.8796],[100.612,5.8905],[100.6292,5.9082],[100.6326,5.9225],[100.6417,5.9226],[100.6443,5.9268],[100.6424,5.9325],[100.6552,5.9466],[100.6575,5.957],[100.6676,5.9618],[100.6722,5.9678],[100.675,5.9674],[100.6753,5.9717],[100.6888,5.9781],[100.6888,5.9822],[100.6914,5.9826],[100.6998,5.9934],[100.6987,5.9964],[100.7011,5.9972],[100.7011,6.0],[100.6954,6.0007],[100.6927,6.0078],[100.6827,6.0176],[100.678,6.0156],[100.6755,6.021],[100.6582,6.0296],[100.6525,6.056],[100.6435,6.0607],[100.645,6.0648],[100.6391,6.0749],[100.6478,6.1054],[100.6429,6.1142]]]}},{"type":"Feature","properties":{"c":"N.20","n":"Sungai Limau","w":"PN","p":"PAS","cand":"Mohd Azam bin Abd Samat","pct":84.9,"maj":18904,"nc":2,"tv":27096,"unc":false,"rw":"PH","rp":"AMANAH","rcand":"Siti Balkhis binti Husain","rpct":15.1},"geometry":{"type":"Polygon","coordinates":[[[100.35,5.9738],[100.3579,5.8932],[100.357,5.8803],[100.3547,5.8788],[100.3567,5.8786],[100.3613,5.8681],[100.3656,5.8325],[100.3822,5.8321],[100.3822,5.8351],[100.3916,5.8366],[100.398,5.8426],[100.3961,5.8446],[100.4069,5.8528],[100.4207,5.8544],[100.4228,5.8494],[100.4468,5.8621],[100.449,5.8569],[100.455,5.8699],[100.4656,5.8695],[100.4504,5.899],[100.4555,5.9011],[100.4565,5.9224],[100.4295,5.9671],[100.4124,5.9725],[100.3915,5.9721],[100.3926,5.9759],[100.3892,5.9799],[100.3811,5.9761],[100.367,5.9743],[100.365,5.9703],[100.3604,5.9705],[100.3557,5.9748],[100.35,5.9738]]]}},{"type":"Feature","properties":{"c":"N.21","n":"Guar Chempedak","w":"PN","p":"BERSATU","cand":"Abdul Ghafar bin Saad","pct":76.4,"maj":12109,"nc":3,"tv":22599,"unc":false,"rw":"BN","rp":"UMNO","rcand":"Abdul Paris bin Abdul Hamid","rpct":22.8},"geometry":{"type":"Polygon","coordinates":[[[100.3656,5.8325],[100.3686,5.8137],[100.3672,5.7716],[100.3615,5.7523],[100.3577,5.7497],[100.3625,5.7457],[100.3625,5.7413],[100.3553,5.7195],[100.3644,5.7165],[100.3939,5.7193],[100.3954,5.7245],[100.3931,5.7277],[100.3981,5.7358],[100.3983,5.7419],[100.4053,5.7615],[100.4127,5.7644],[100.4241,5.7814],[100.4365,5.7874],[100.4399,5.7992],[100.4386,5.8098],[100.4461,5.8185],[100.4429,5.8292],[100.4475,5.833],[100.4536,5.8332],[100.4564,5.8379],[100.4622,5.8366],[100.4639,5.8426],[100.4682,5.8453],[100.4636,5.8507],[100.4704,5.8515],[100.4717,5.854],[100.4656,5.8695],[100.455,5.8699],[100.449,5.8569],[100.4468,5.8621],[100.4228,5.8494],[100.4207,5.8544],[100.4069,5.8528],[100.3961,5.8446],[100.398,5.8426],[100.3916,5.8366],[100.3822,5.8351],[100.3822,5.8321],[100.3762,5.8308],[100.3656,5.8325]]]}},{"type":"Feature","properties":{"c":"N.22","n":"Gurun","w":"PN","p":"PAS","cand":"Baddrol bin Bakhtiar","pct":61.4,"maj":6584,"nc":2,"tv":28958,"unc":false,"rw":"PH","rp":"PKR","rcand":"Mohammed Firdaus bin Johari","rpct":38.6},"geometry":{"type":"Polygon","coordinates":[[[100.4656,5.8695],[100.4718,5.8527],[100.4636,5.8507],[100.4682,5.8453],[100.4639,5.8426],[100.4622,5.8366],[100.4564,5.8379],[100.4536,5.8332],[100.4475,5.833],[100.4429,5.8292],[100.4461,5.8185],[100.4386,5.8098],[100.4399,5.7992],[100.4365,5.7874],[100.4453,5.7833],[100.4509,5.7725],[100.4555,5.7704],[100.4546,5.7664],[100.458,5.7579],[100.4538,5.7404],[100.4496,5.7385],[100.4493,5.732],[100.4522,5.7309],[100.4542,5.7329],[100.4568,5.732],[100.4565,5.729],[100.4604,5.7285],[100.4683,5.7321],[100.4703,5.7309],[100.4737,5.7352],[100.4753,5.7301],[100.4863,5.7381],[100.4951,5.7402],[100.4977,5.7457],[100.5004,5.7395],[100.501,5.7428],[100.5052,5.7389],[100.5087,5.74],[100.5122,5.7304],[100.5084,5.7291],[100.509,5.7241],[100.5057,5.7232],[100.5081,5.7194],[100.5126,5.7195],[100.5127,5.7233],[100.5174,5.7235],[100.5234,5.7304],[100.5181,5.74],[100.5199,5.747],[100.5526,5.7588],[100.5489,5.7687],[100.5542,5.7737],[100.5893,5.7744],[100.5886,5.7649],[100.5918,5.7645],[100.5986,5.7686],[100.6119,5.7687],[100.6139,5.7718],[100.6198,5.7727],[100.6219,5.7777],[100.6252,5.7769],[100.628,5.7822],[100.6233,5.7856],[100.6235,5.7911],[100.6093,5.7994],[100.6189,5.8047],[100.6196,5.8028],[100.6239,5.804],[100.6253,5.8098],[100.6334,5.8144],[100.6273,5.8234],[100.6271,5.8283],[100.6193,5.8298],[100.6115,5.8253],[100.6054,5.8255],[100.6035,5.8408],[100.5863,5.8398],[100.5655,5.8461],[100.5542,5.8558],[100.5212,5.8648],[100.5211,5.8725],[100.493,5.869],[100.4925,5.8607],[100.4859,5.8609],[100.485,5.8639],[100.4799,5.8634],[100.4761,5.8713],[100.4656,5.8695]]]}},{"type":"Feature","properties":{"c":"N.23","n":"Belantek","w":"PN","p":"PAS","cand":"Ahmad bin Sulaiman","pct":83.1,"maj":14156,"nc":2,"tv":21408,"unc":false,"rw":"PH","rp":"AMANAH","rcand":"Mazli binti Saipi","rpct":16.9},"geometry":{"type":"Polygon","coordinates":[[[100.7219,5.9754],[100.7328,5.9743],[100.7346,5.9698],[100.737,5.9717],[100.7414,5.9686],[100.7544,5.9682],[100.7556,5.9626],[100.7616,5.9638],[100.7636,5.9605],[100.7665,5.9625],[100.7681,5.9593],[100.7702,5.9607],[100.7704,5.9553],[100.7597,5.9505],[100.7621,5.9401],[100.755,5.9351],[100.7571,5.9328],[100.7523,5.9295],[100.7539,5.9167],[100.7499,5.9147],[100.7454,5.9057],[100.7387,5.9072],[100.7349,5.904],[100.731,5.9088],[100.7292,5.913],[100.7347,5.9154],[100.7315,5.9255],[100.7267,5.924],[100.7228,5.934],[100.7063,5.9396],[100.7027,5.9379],[100.7081,5.9324],[100.7077,5.9198],[100.7124,5.9125],[100.7084,5.9],[100.7185,5.8954],[100.7129,5.8906],[100.7066,5.8905],[100.6944,5.8833],[100.6897,5.8757],[100.6896,5.8708],[100.6936,5.8651],[100.7033,5.8601],[100.6997,5.8507],[100.7059,5.8388],[100.7169,5.8383],[100.7216,5.8272],[100.7277,5.824],[100.7287,5.821],[100.7133,5.8097],[100.7199,5.8043],[100.7173,5.7984],[100.7212,5.7954],[100.7424,5.7937],[100.749,5.788],[100.7648,5.7885],[100.7624,5.7844],[100.7656,5.7794],[100.7587,5.7753],[100.7661,5.7717],[100.7683,5.7663],[100.7652,5.7607],[100.7615,5.7591],[100.7613,5.7452],[100.7564,5.7363],[100.7588,5.7341],[100.7585,5.7303],[100.766,5.7279],[100.7715,5.7197],[100.7776,5.7206],[100.7789,5.7242],[100.7818,5.7232],[100.7855,5.71],[100.789,5.7139],[100.799,5.7177],[100.801,5.721],[100.8051,5.7212],[100.8097,5.7162],[100.8168,5.7152],[100.8266,5.7156],[100.8309,5.7195],[100.8428,5.71],[100.8527,5.7164],[100.8512,5.7199],[100.8537,5.7219],[100.8621,5.7212],[100.8634,5.7189],[100.8598,5.7148],[100.8612,5.7027],[100.8654,5.6944],[100.8691,5.6938],[100.8714,5.7009],[100.87,5.7148],[100.868,5.7168],[100.8838,5.7142],[100.8887,5.7333],[100.8848,5.7332],[100.8849,5.7363],[100.8828,5.7369],[100.8721,5.7347],[100.8768,5.7363],[100.873,5.7453],[100.8706,5.7454],[100.8746,5.7484],[100.8585,5.7612],[100.8612,5.7629],[100.8578,5.7637],[100.8581,5.7676],[100.8628,5.769],[100.8635,5.7747],[100.8759,5.7825],[100.8797,5.7938],[100.8818,5.8059],[100.8751,5.8072],[100.8747,5.8119],[100.876,5.8179],[100.8784,5.818],[100.8807,5.8242],[100.8734,5.8301],[100.8824,5.8427],[100.8834,5.853],[100.8863,5.8554],[100.8849,5.8586],[100.8868,5.8579],[100.8902,5.8653],[100.8853,5.8766],[100.8879,5.8812],[100.884,5.8837],[100.8885,5.8888],[100.8894,5.8953],[100.8949,5.8963],[100.8999,5.9165],[100.8938,5.922],[100.8927,5.9284],[100.8872,5.9283],[100.8878,5.932],[100.8955,5.9316],[100.8967,5.9345],[100.8933,5.94],[100.8895,5.937],[100.8901,5.9394],[100.885,5.945],[100.885,5.9496],[100.8906,5.9449],[100.8868,5.9508],[100.8826,5.952],[100.8858,5.9525],[100.8766,5.9652],[100.878,5.9676],[100.8724,5.9701],[100.8741,5.9727],[100.8656,5.9798],[100.8654,5.9829],[100.8724,5.9874],[100.8713,5.9945],[100.8911,6.0015],[100.9558,6.0349],[100.9594,6.0396],[100.9654,6.0387],[100.968,6.0351],[100.9732,6.0359],[100.976,6.0331],[100.9838,6.0325],[100.9822,6.0387],[100.9863,6.042],[100.9949,6.0422],[100.998,6.0445],[101.0978,6.0497],[101.1003,6.0518],[101.1048,6.0633],[101.1111,6.0666],[101.11,6.0741],[101.1154,6.0806],[101.1167,6.087],[101.1145,6.0925],[101.1261,6.0951],[101.1262,6.1071],[101.1184,6.1146],[101.1059,6.1134],[101.1075,6.1184],[101.1048,6.1241],[101.1014,6.1237],[101.089,6.1343],[101.0749,6.1354],[101.0708,6.1401],[101.0607,6.1406],[101.0588,6.1416],[101.0589,6.1459],[101.0703,6.1593],[101.0758,6.1607],[101.075,6.1712],[101.0849,6.1749],[101.0858,6.179],[101.0929,6.176],[101.0967,6.1796],[101.1036,6.1783],[101.1091,6.18],[101.1264,6.1927],[101.1223,6.2013],[101.1151,6.2041],[101.1186,6.2127],[101.1153,6.2172],[101.1157,6.2212],[101.1127,6.2227],[101.1131,6.2269],[101.1046,6.2393],[101.1119,6.2516],[101.1028,6.2538],[101.095,6.2604],[101.0822,6.2596],[101.0749,6.2554],[101.0726,6.2579],[101.0668,6.2559],[101.0638,6.2593],[101.0597,6.2535],[101.0493,6.2541],[101.0316,6.2443],[101.0221,6.2496],[101.0197,6.2466],[101.0159,6.2465],[101.0125,6.2488],[101.0102,6.2558],[100.9895,6.266],[100.9835,6.2781],[100.9681,6.283],[100.9678,6.275],[100.9656,6.2723],[100.956,6.2689],[100.9549,6.2656],[100.9469,6.2635],[100.9476,6.2523],[100.9447,6.2433],[100.9222,6.2446],[100.9175,6.2479],[100.9079,6.2407],[100.9073,6.2366],[100.9034,6.2335],[100.8927,6.2393],[100.8914,6.2497],[100.8863,6.2498],[100.8844,6.2549],[100.8803,6.2543],[100.876,6.2582],[100.8749,6.2632],[100.8709,6.264],[100.8699,6.253],[100.866,6.2446],[100.8704,6.2406],[100.8602,6.2355],[100.8539,6.2288],[100.8589,6.2188],[100.8578,6.195],[100.8557,6.1913],[100.8585,6.1887],[100.8578,6.1568],[100.8544,6.1522],[100.8411,6.1536],[100.8341,6.1512],[100.8255,6.156],[100.8214,6.1561],[100.818,6.1517],[100.8161,6.1556],[100.8102,6.1589],[100.8059,6.1574],[100.8078,6.1513],[100.807,6.1133],[100.7986,6.1031],[100.7955,6.1037],[100.7885,6.0938],[100.7879,6.0885],[100.793,6.0816],[100.7886,6.0796],[100.7897,6.0711],[100.7827,6.0699],[100.7861,6.0665],[100.784,6.0636],[100.7855,6.0594],[100.7759,6.0607],[100.7752,6.0578],[100.7789,6.056],[100.7768,6.0509],[100.7699,6.0541],[100.768,6.0598],[100.7659,6.0595],[100.7665,6.0532],[100.7567,6.0509],[100.7521,6.0447],[100.753,6.0379],[100.7556,6.0372],[100.7543,6.0322],[100.749,6.03],[100.7458,6.033],[100.7428,6.0295],[100.7397,6.0341],[100.7411,6.0367],[100.7373,6.0386],[100.7366,6.0262],[100.7308,6.0226],[100.7356,6.0185],[100.7306,6.0117],[100.7335,6.0082],[100.7283,6.0032],[100.7336,6.0021],[100.731,5.9955],[100.7337,5.9976],[100.7383,5.9965],[100.7386,5.994],[100.735,5.992],[100.736,5.9843],[100.7237,5.9794],[100.7244,5.9773],[100.7219,5.9754]]]}},{"type":"Feature","properties":{"c":"N.24","n":"Jeneri","w":"PN","p":"PAS","cand":"Muhammad Sanusi bin Md Nor","pct":79.1,"maj":16050,"nc":2,"tv":27596,"unc":false,"rw":"BN","rp":"UMNO","rcand":"Muhamad Khizri bin Abu Kassim","rpct":20.9},"geometry":{"type":"Polygon","coordinates":[[[100.6851,5.9759],[100.6753,5.9717],[100.675,5.9674],[100.6722,5.9678],[100.6676,5.9618],[100.6575,5.957],[100.6552,5.9466],[100.6424,5.9325],[100.6443,5.9268],[100.6417,5.9226],[100.6326,5.9225],[100.6292,5.9082],[100.612,5.8905],[100.6108,5.8796],[100.6082,5.8771],[100.6139,5.8756],[100.6161,5.8714],[100.6126,5.8685],[100.6127,5.8648],[100.6091,5.8629],[100.6102,5.8565],[100.6055,5.8496],[100.6067,5.8459],[100.6039,5.844],[100.6033,5.8323],[100.6054,5.8255],[100.6115,5.8253],[100.6193,5.8298],[100.6271,5.8283],[100.6273,5.8234],[100.6334,5.8144],[100.6253,5.8098],[100.6239,5.804],[100.6262,5.8005],[100.6301,5.8004],[100.6286,5.7975],[100.6344,5.7973],[100.6335,5.7875],[100.6498,5.7891],[100.6455,5.7831],[100.6487,5.7728],[100.6525,5.7704],[100.6562,5.7722],[100.6594,5.7655],[100.6573,5.7592],[100.6589,5.7556],[100.6522,5.7461],[100.6555,5.7392],[100.6619,5.7447],[100.6647,5.7348],[100.6695,5.7341],[100.6697,5.7298],[100.6632,5.7229],[100.6685,5.7168],[100.6674,5.7148],[100.6734,5.7128],[100.6689,5.708],[100.682,5.6912],[100.6979,5.683],[100.7012,5.6847],[100.7009,5.6945],[100.7079,5.6968],[100.7142,5.6919],[100.7175,5.692],[100.7189,5.6981],[100.7152,5.7036],[100.7185,5.7009],[100.7222,5.7065],[100.7256,5.707],[100.7261,5.7022],[100.7315,5.711],[100.7386,5.7117],[100.7385,5.7165],[100.7453,5.7186],[100.7474,5.7169],[100.7663,5.7183],[100.7855,5.71],[100.7818,5.7232],[100.7789,5.7242],[100.7776,5.7206],[100.7715,5.7197],[100.766,5.7279],[100.7585,5.7303],[100.7588,5.7341],[100.7564,5.7363],[100.7613,5.7452],[100.7615,5.7591],[100.7652,5.7607],[100.7683,5.7663],[100.7661,5.7717],[100.7587,5.7753],[100.7656,5.7794],[100.7624,5.7844],[100.7648,5.7885],[100.749,5.788],[100.7424,5.7937],[100.7212,5.7954],[100.7173,5.7984],[100.7199,5.8043],[100.7133,5.8097],[100.7287,5.821],[100.7277,5.824],[100.7216,5.8272],[100.7169,5.8383],[100.7059,5.8388],[100.6997,5.8507],[100.7033,5.8601],[100.6936,5.8651],[100.6896,5.8708],[100.6897,5.8757],[100.6944,5.8833],[100.7066,5.8905],[100.7129,5.8906],[100.7185,5.8954],[100.7084,5.9],[100.7124,5.9125],[100.7077,5.9198],[100.7081,5.9324],[100.7027,5.9379],[100.7063,5.9396],[100.7228,5.934],[100.7267,5.924],[100.7315,5.9255],[100.7347,5.9154],[100.7292,5.913],[100.731,5.9088],[100.7349,5.904],[100.7387,5.9072],[100.7454,5.9057],[100.7499,5.9147],[100.7539,5.9167],[100.7523,5.9295],[100.7571,5.9328],[100.755,5.9351],[100.7621,5.9401],[100.7597,5.9505],[100.7689,5.953],[100.7702,5.9607],[100.7681,5.9593],[100.7665,5.9625],[100.7636,5.9605],[100.7616,5.9638],[100.7556,5.9626],[100.7544,5.9682],[100.7414,5.9686],[100.737,5.9717],[100.7346,5.9698],[100.7328,5.9743],[100.7183,5.9757],[100.7163,5.9724],[100.7192,5.9599],[100.7176,5.9575],[100.7159,5.9614],[100.7109,5.9634],[100.7027,5.9594],[100.7031,5.9623],[100.6996,5.9643],[100.7008,5.9694],[100.688,5.9711],[100.6851,5.9759]]]}},{"type":"Feature","properties":{"c":"N.25","n":"Bukit Selambau","w":"PN","p":"PAS","cand":"Azizan bin Hamzah ","pct":60.1,"maj":11665,"nc":3,"tv":55726,"unc":false,"rw":"PH","rp":"PKR","rcand":"Summugam a/l Rengasamy","rpct":39.2},"geometry":{"type":"Polygon","coordinates":[[[100.5113,5.7195],[100.5067,5.7132],[100.5084,5.7117],[100.5071,5.7085],[100.5096,5.7076],[100.5055,5.7027],[100.5057,5.6996],[100.5,5.7008],[100.4985,5.6943],[100.4942,5.6934],[100.4919,5.6962],[100.4886,5.6914],[100.4892,5.6821],[100.4968,5.6774],[100.4913,5.646],[100.51,5.6468],[100.5101,5.6525],[100.5177,5.6547],[100.5185,5.6527],[100.5276,5.6577],[100.5273,5.6458],[100.519,5.6459],[100.5192,5.6429],[100.5332,5.6408],[100.5412,5.636],[100.5556,5.6369],[100.5569,5.6319],[100.5617,5.6309],[100.5596,5.6239],[100.571,5.6204],[100.5723,5.6003],[100.577,5.6007],[100.5777,5.5971],[100.5955,5.5912],[100.6145,5.5874],[100.6159,5.5979],[100.6208,5.5993],[100.6245,5.5964],[100.6276,5.5999],[100.6325,5.5997],[100.6269,5.6031],[100.6229,5.6115],[100.6327,5.6146],[100.6354,5.6095],[100.6437,5.6109],[100.6431,5.6173],[100.645,5.6182],[100.6488,5.6112],[100.6517,5.611],[100.6567,5.6153],[100.6584,5.626],[100.6641,5.6351],[100.6598,5.6354],[100.6592,5.6376],[100.6635,5.6384],[100.6642,5.6406],[100.6605,5.643],[100.6608,5.654],[100.6632,5.6554],[100.6624,5.6595],[100.6648,5.6623],[100.6687,5.663],[100.6658,5.6667],[100.6714,5.6662],[100.6714,5.6693],[100.6684,5.6694],[100.6675,5.6719],[100.664,5.6707],[100.6608,5.6738],[100.6633,5.675],[100.6596,5.6829],[100.6614,5.6918],[100.6557,5.6916],[100.6522,5.6969],[100.6466,5.6963],[100.6466,5.6987],[100.6536,5.701],[100.6523,5.7081],[100.6548,5.7101],[100.653,5.714],[100.6545,5.7191],[100.6516,5.7207],[100.6502,5.7271],[100.6525,5.7349],[100.658,5.7356],[100.6522,5.7461],[100.6589,5.7556],[100.6573,5.7592],[100.6594,5.7655],[100.6562,5.7722],[100.6525,5.7704],[100.6487,5.7728],[100.6455,5.7831],[100.6498,5.7891],[100.6335,5.7875],[100.6344,5.7973],[100.6286,5.7975],[100.6301,5.8004],[100.6189,5.8047],[100.6093,5.7994],[100.6235,5.7911],[100.6233,5.7856],[100.628,5.7822],[100.6252,5.7769],[100.6219,5.7777],[100.6198,5.7727],[100.6139,5.7718],[100.6119,5.7687],[100.5986,5.7686],[100.5918,5.7645],[100.5886,5.7649],[100.5893,5.7744],[100.5542,5.7737],[100.5489,5.7687],[100.5526,5.7588],[100.5199,5.747],[100.5181,5.74],[100.5234,5.7304],[100.5174,5.7235],[100.5127,5.7233],[100.5113,5.7195]]]}},{"type":"Feature","properties":{"c":"N.26","n":"Tanjong Dawai","w":"PN","p":"PAS","cand":"Hanif bin Ghazali","pct":76.9,"maj":22405,"nc":2,"tv":41587,"unc":false,"rw":"BN","rp":"UMNO","rcand":"Shaiful Hazizy bin Zainol Abidin (Tok Pon)","rpct":23.1},"geometry":{"type":"Polygon","coordinates":[[[100.3553,5.7195],[100.3506,5.7011],[100.3539,5.6923],[100.364,5.6802],[100.3715,5.6787],[100.3726,5.6743],[100.3786,5.6723],[100.384,5.6628],[100.4021,5.6547],[100.4045,5.6502],[100.4042,5.6351],[100.4095,5.6332],[100.4219,5.6429],[100.434,5.6355],[100.4389,5.6371],[100.446,5.6471],[100.4563,5.6427],[100.4622,5.6457],[100.4655,5.6426],[100.466,5.6491],[100.4774,5.648],[100.4767,5.6551],[100.4731,5.6542],[100.4749,5.6589],[100.4788,5.6585],[100.4818,5.6463],[100.4838,5.648],[100.4889,5.6458],[100.4901,5.6515],[100.488,5.6542],[100.4925,5.6542],[100.4968,5.6774],[100.4892,5.6821],[100.4886,5.6914],[100.4919,5.6962],[100.4942,5.6934],[100.4985,5.6943],[100.5,5.7008],[100.5043,5.6986],[100.5055,5.7027],[100.5085,5.7041],[100.5096,5.7076],[100.5071,5.7085],[100.5084,5.7117],[100.5067,5.7132],[100.5113,5.7195],[100.5081,5.7194],[100.5057,5.7232],[100.509,5.7241],[100.5084,5.7291],[100.5122,5.7304],[100.5087,5.74],[100.5052,5.7389],[100.501,5.7428],[100.5004,5.7395],[100.4977,5.7457],[100.4951,5.7402],[100.4863,5.7381],[100.4753,5.7301],[100.4737,5.7352],[100.4703,5.7309],[100.4683,5.7321],[100.4604,5.7285],[100.4565,5.729],[100.4568,5.732],[100.4542,5.7329],[100.4522,5.7309],[100.4493,5.732],[100.4496,5.7385],[100.4538,5.7404],[100.458,5.7579],[100.4546,5.7664],[100.4555,5.7704],[100.4509,5.7725],[100.4453,5.7833],[100.4365,5.7874],[100.4241,5.7814],[100.4127,5.7644],[100.4053,5.7615],[100.3983,5.7419],[100.3981,5.7358],[100.3931,5.7277],[100.3954,5.7245],[100.3939,5.7193],[100.3644,5.7165],[100.3553,5.7195]]]}},{"type":"Feature","properties":{"c":"N.27","n":"Pantai Merdeka","w":"PN","p":"PAS","cand":"Sharir bin Long","pct":79.1,"maj":23691,"nc":2,"tv":40759,"unc":false,"rw":"BN","rp":"UMNO","rcand":"Wan Mohalina binti Wan Mohammad","rpct":20.9},"geometry":{"type":"Polygon","coordinates":[[[100.3726,5.6743],[100.3734,5.6711],[100.3657,5.6655],[100.3571,5.6641],[100.3435,5.6735],[100.3389,5.6629],[100.3324,5.6615],[100.3337,5.6566],[100.3314,5.6537],[100.3349,5.6548],[100.3389,5.6527],[100.3418,5.6326],[100.34,5.5774],[100.3612,5.5735],[100.3664,5.5755],[100.3702,5.5852],[100.3725,5.5852],[100.3749,5.5804],[100.3793,5.5796],[100.3837,5.5849],[100.3874,5.5775],[100.3936,5.5795],[100.4042,5.5739],[100.4098,5.5663],[100.4248,5.5625],[100.4317,5.5654],[100.4334,5.5607],[100.436,5.5647],[100.443,5.5672],[100.4479,5.5608],[100.4518,5.5676],[100.4597,5.5635],[100.4693,5.5654],[100.4743,5.5618],[100.4785,5.5652],[100.4853,5.5609],[100.4871,5.5614],[100.4871,5.5701],[100.4916,5.5667],[100.5048,5.5671],[100.4957,5.5822],[100.493,5.5956],[100.4943,5.601],[100.4922,5.5989],[100.4855,5.5998],[100.4834,5.6028],[100.4788,5.6034],[100.4733,5.6124],[100.4727,5.6094],[100.4662,5.6087],[100.4651,5.612],[100.4617,5.6125],[100.4618,5.6151],[100.4582,5.6156],[100.4573,5.6205],[100.4398,5.6189],[100.4399,5.6221],[100.4346,5.6241],[100.4368,5.6247],[100.4346,5.6277],[100.4382,5.6315],[100.4327,5.6325],[100.434,5.6355],[100.4244,5.6423],[100.419,5.6421],[100.4119,5.6345],[100.4065,5.6333],[100.4042,5.6351],[100.4045,5.6502],[100.4021,5.6547],[100.3874,5.6602],[100.3786,5.6723],[100.3726,5.6743]]]}},{"type":"Feature","properties":{"c":"N.28","n":"Bakar Arang","w":"PH","p":"PKR","cand":"Loh Wei Chai (Adam Loh Wei Chai)","pct":54.4,"maj":3683,"nc":3,"tv":40233,"unc":false,"rw":"PN","rp":"GERAKAN","rcand":"Tai Kuang Tee (Raymond Tai Kuang Tee)","rpct":45.3},"geometry":{"type":"Polygon","coordinates":[[[100.4925,5.6542],[100.488,5.6542],[100.4901,5.6515],[100.4889,5.6458],[100.4838,5.648],[100.4818,5.6463],[100.4788,5.6585],[100.4749,5.6589],[100.4731,5.6542],[100.4767,5.6551],[100.4774,5.648],[100.466,5.6491],[100.4655,5.6426],[100.4622,5.6457],[100.4563,5.6427],[100.446,5.6471],[100.441,5.6389],[100.434,5.6355],[100.4327,5.6325],[100.4382,5.6315],[100.4346,5.6277],[100.4368,5.6247],[100.4346,5.6241],[100.4399,5.6221],[100.4398,5.6189],[100.4573,5.6205],[100.4582,5.6156],[100.4618,5.6151],[100.4617,5.6125],[100.4651,5.612],[100.4662,5.6087],[100.4727,5.6094],[100.4733,5.6124],[100.4788,5.6034],[100.4834,5.6028],[100.4855,5.5998],[100.4994,5.6009],[100.5057,5.6067],[100.5244,5.6035],[100.5297,5.621],[100.5248,5.623],[100.5245,5.6258],[100.5159,5.6261],[100.5105,5.6237],[100.5104,5.6208],[100.5123,5.6208],[100.5105,5.6192],[100.5061,5.6189],[100.497,5.6258],[100.4986,5.6275],[100.4935,5.6268],[100.4899,5.6382],[100.4984,5.6368],[100.492,5.6404],[100.4956,5.6459],[100.4913,5.646],[100.4925,5.6542]]]}},{"type":"Feature","properties":{"c":"N.29","n":"Sidam","w":"PH","p":"PKR","cand":"Bau Wong a/l Bau Ek","pct":51.1,"maj":954,"nc":2,"tv":42764,"unc":false,"rw":"PN","rp":"BERSATU","rcand":"Juliana binti Abdul Ghani","rpct":48.9},"geometry":{"type":"Polygon","coordinates":[[[100.4956,5.6459],[100.492,5.6404],[100.4984,5.6361],[100.4899,5.6382],[100.4935,5.6268],[100.4986,5.6275],[100.497,5.6258],[100.5061,5.6189],[100.5105,5.6192],[100.5123,5.6208],[100.5104,5.6208],[100.5105,5.6237],[100.5159,5.6261],[100.5245,5.6258],[100.5248,5.623],[100.5297,5.621],[100.5244,5.6035],[100.5057,5.6067],[100.4994,5.6009],[100.4943,5.601],[100.493,5.5956],[100.4957,5.5822],[100.5046,5.5697],[100.5069,5.5602],[100.5144,5.5613],[100.5223,5.559],[100.5257,5.5494],[100.5275,5.5543],[100.5339,5.558],[100.5357,5.5623],[100.5421,5.5639],[100.545,5.559],[100.5435,5.5499],[100.548,5.5489],[100.5532,5.5512],[100.559,5.5425],[100.5555,5.5363],[100.5653,5.5356],[100.5674,5.5292],[100.5749,5.5314],[100.5716,5.5373],[100.5727,5.5392],[100.576,5.5376],[100.5784,5.5413],[100.5849,5.54],[100.5875,5.5435],[100.5948,5.5446],[100.5947,5.5497],[100.5984,5.5545],[100.6032,5.5495],[100.6048,5.5639],[100.6112,5.5607],[100.6099,5.5649],[100.6143,5.5694],[100.6136,5.5726],[100.6088,5.5754],[100.612,5.5787],[100.6115,5.5833],[100.6145,5.5874],[100.5955,5.5912],[100.5777,5.5971],[100.577,5.6007],[100.5723,5.6003],[100.571,5.6204],[100.5596,5.6239],[100.5617,5.6309],[100.5569,5.6319],[100.5556,5.6369],[100.5412,5.636],[100.5332,5.6408],[100.5192,5.6429],[100.519,5.6459],[100.5273,5.6458],[100.5276,5.6577],[100.5185,5.6527],[100.5177,5.6547],[100.5101,5.6525],[100.51,5.6468],[100.4956,5.6459]]]}},{"type":"Feature","properties":{"c":"N.30","n":"Bayu","w":"PN","p":"BERSATU","cand":"Mohd Taufik bin Yaacob","pct":73.8,"maj":17582,"nc":2,"tv":36992,"unc":false,"rw":"BN","rp":"UMNO","rcand":"Ishak bin Mat","rpct":26.2},"geometry":{"type":"Polygon","coordinates":[[[100.8691,5.6938],[100.8695,5.6903],[100.8725,5.6895],[100.8711,5.6877],[100.8809,5.6923],[100.8809,5.6808],[100.8865,5.6765],[100.8832,5.6762],[100.8834,5.6719],[100.8801,5.6681],[100.8841,5.6622],[100.8777,5.6622],[100.8761,5.6646],[100.8675,5.6639],[100.8739,5.6536],[100.8736,5.6465],[100.8756,5.6555],[100.8809,5.655],[100.8783,5.651],[100.8839,5.6558],[100.8863,5.655],[100.8853,5.6475],[100.8682,5.6309],[100.8654,5.6233],[100.8663,5.6185],[100.8684,5.6187],[100.8771,5.604],[100.864,5.597],[100.8606,5.5885],[100.858,5.589],[100.8591,5.5757],[100.8655,5.5595],[100.8446,5.5126],[100.8788,5.4969],[100.8811,5.4917],[100.8932,5.4977],[100.8956,5.4918],[100.9034,5.4908],[100.9079,5.494],[100.9104,5.4917],[100.9174,5.4951],[100.9284,5.5069],[100.9293,5.5141],[100.9342,5.5191],[100.9324,5.5224],[100.934,5.5304],[100.9355,5.5363],[100.9405,5.5408],[100.9414,5.5535],[100.9338,5.5625],[100.9342,5.5718],[100.9448,5.58],[100.9408,5.5902],[100.9344,5.5897],[100.9339,5.5934],[100.9296,5.5936],[100.9297,5.5985],[100.9224,5.6022],[100.9251,5.6129],[100.9239,5.6171],[100.9472,5.628],[100.9385,5.6472],[100.9489,5.6483],[100.9528,5.6424],[100.9576,5.6421],[100.9604,5.6479],[100.9647,5.6459],[100.9664,5.6485],[100.9651,5.6614],[100.9699,5.6671],[100.9672,5.6744],[100.9708,5.6773],[100.971,5.6827],[100.9756,5.6843],[100.9737,5.6928],[100.9815,5.7088],[100.9785,5.7116],[100.9785,5.7182],[100.9815,5.7182],[100.9836,5.7223],[100.9782,5.7221],[100.9758,5.7259],[100.9649,5.7281],[100.9614,5.731],[100.9607,5.7365],[100.9485,5.7434],[100.9503,5.7543],[100.946,5.7607],[100.941,5.7635],[100.9446,5.7674],[100.9552,5.7732],[100.9603,5.7729],[100.9624,5.7759],[100.966,5.7741],[100.9726,5.7758],[100.9799,5.7728],[100.9912,5.7834],[100.9884,5.7852],[100.9883,5.797],[100.9834,5.8083],[100.9977,5.8177],[101.0017,5.829],[101.0118,5.8383],[101.0061,5.8514],[101.0098,5.8577],[101.009,5.8744],[101.0122,5.874],[101.014,5.8828],[101.0229,5.8926],[101.0244,5.8981],[101.0288,5.9006],[101.0258,5.913],[101.0374,5.918],[101.0445,5.9161],[101.0513,5.9102],[101.0619,5.9199],[101.0707,5.9174],[101.0751,5.9184],[101.0849,5.9095],[101.089,5.9216],[101.0877,5.9259],[101.0917,5.926],[101.0921,5.9328],[101.0995,5.9433],[101.095,5.9507],[101.1012,5.9522],[101.1091,5.9595],[101.111,5.9577],[101.1134,5.9598],[101.1146,5.9674],[101.1243,5.9772],[101.1225,5.9823],[101.1161,5.9843],[101.1137,5.9889],[101.107,5.9904],[101.1063,6.0005],[101.1124,6.0093],[101.1081,6.0168],[101.1109,6.0203],[101.1077,6.028],[101.1117,6.0317],[101.1137,6.0396],[101.1062,6.0453],[101.1056,6.0483],[101.1004,6.0497],[101.1003,6.0518],[101.0978,6.0497],[100.998,6.0445],[100.9949,6.0422],[100.9863,6.042],[100.9822,6.0387],[100.9838,6.0325],[100.976,6.0331],[100.9732,6.0359],[100.968,6.0351],[100.9654,6.0387],[100.9594,6.0396],[100.9558,6.0349],[100.8911,6.0015],[100.8713,5.9945],[100.8724,5.9874],[100.8654,5.9829],[100.8656,5.9798],[100.8741,5.9727],[100.8724,5.9701],[100.8749,5.9675],[100.878,5.9676],[100.8766,5.9652],[100.8858,5.9525],[100.8826,5.952],[100.8868,5.9508],[100.8906,5.9449],[100.885,5.9496],[100.885,5.945],[100.8901,5.9394],[100.8895,5.937],[100.8933,5.94],[100.8967,5.9345],[100.8955,5.9316],[100.8878,5.932],[100.8872,5.9283],[100.8927,5.9284],[100.8938,5.922],[100.8999,5.9165],[100.8999,5.9129],[100.8948,5.9016],[100.8949,5.8963],[100.8894,5.8953],[100.8885,5.8888],[100.884,5.8837],[100.8879,5.8812],[100.8853,5.8766],[100.8902,5.8653],[100.8868,5.8579],[100.8849,5.8586],[100.8863,5.8554],[100.8834,5.853],[100.8824,5.8427],[100.8734,5.8301],[100.8807,5.8242],[100.8784,5.818],[100.876,5.8179],[100.8747,5.8119],[100.8751,5.8072],[100.8818,5.8059],[100.8797,5.7938],[100.8759,5.7825],[100.8635,5.7747],[100.8628,5.769],[100.8581,5.7676],[100.8578,5.7637],[100.8612,5.7629],[100.8585,5.7612],[100.8746,5.7484],[100.8706,5.7454],[100.873,5.7453],[100.8768,5.7363],[100.8721,5.7347],[100.8828,5.7369],[100.8849,5.7363],[100.8848,5.7332],[100.8887,5.7333],[100.8838,5.7142],[100.868,5.7168],[100.87,5.7148],[100.8714,5.7009],[100.8691,5.6938]]]}},{"type":"Feature","properties":{"c":"N.31","n":"Kupang","w":"PN","p":"PAS","cand":"Najmi bin Ahmad","pct":78.8,"maj":19275,"nc":2,"tv":33457,"unc":false,"rw":"PH","rp":"AMANAH","rcand":"Muhammad Suhaimi bin Hamzah (Cikgu Mi)","rpct":21.2},"geometry":{"type":"Polygon","coordinates":[[[100.7524,5.7171],[100.7545,5.7067],[100.7581,5.7024],[100.7567,5.6963],[100.7506,5.6953],[100.7495,5.697],[100.7458,5.6951],[100.745,5.6869],[100.7489,5.6849],[100.7477,5.6777],[100.7536,5.6677],[100.76,5.6449],[100.7582,5.6429],[100.7655,5.6307],[100.771,5.6291],[100.7745,5.6185],[100.7776,5.6178],[100.7818,5.61],[100.7834,5.6125],[100.806,5.57],[100.7975,5.5702],[100.7972,5.5724],[100.782,5.5659],[100.7791,5.5696],[100.7669,5.5695],[100.767,5.5736],[100.7586,5.5734],[100.7587,5.5715],[100.7486,5.5715],[100.7492,5.5633],[100.7352,5.5611],[100.7351,5.5351],[100.7459,5.5352],[100.7436,5.5308],[100.7388,5.5288],[100.7397,5.5259],[100.7439,5.5242],[100.7426,5.522],[100.7467,5.5174],[100.7468,5.5137],[100.7397,5.5079],[100.7225,5.5026],[100.7075,5.4938],[100.7069,5.4884],[100.7037,5.4863],[100.7069,5.479],[100.7014,5.4771],[100.6971,5.4649],[100.7002,5.4587],[100.6985,5.4575],[100.7002,5.4514],[100.7077,5.4506],[100.7077,5.4407],[100.7208,5.4431],[100.7239,5.4391],[100.7244,5.4347],[100.7225,5.4343],[100.7297,5.4126],[100.7345,5.4153],[100.7409,5.411],[100.7433,5.4056],[100.7529,5.4045],[100.7544,5.3987],[100.7548,5.4015],[100.7583,5.4025],[100.7562,5.4039],[100.7621,5.4038],[100.7698,5.4075],[100.7723,5.4045],[100.7745,5.4083],[100.7816,5.4072],[100.7907,5.4117],[100.7975,5.4096],[100.7994,5.3993],[100.8064,5.3955],[100.808,5.3911],[100.8109,5.3898],[100.8462,5.4154],[100.8674,5.4401],[100.8688,5.4583],[100.8658,5.4603],[100.8672,5.4682],[100.8748,5.4795],[100.8848,5.484],[100.8788,5.4969],[100.8446,5.5126],[100.8655,5.5595],[100.8591,5.5757],[100.858,5.589],[100.8606,5.5885],[100.864,5.597],[100.8771,5.604],[100.8684,5.6187],[100.8663,5.6185],[100.8654,5.6233],[100.8682,5.6309],[100.8853,5.6475],[100.8863,5.655],[100.8839,5.6558],[100.8783,5.651],[100.8809,5.655],[100.8756,5.6555],[100.8736,5.6465],[100.8739,5.6536],[100.8675,5.6639],[100.8761,5.6646],[100.8777,5.6622],[100.8841,5.6622],[100.8801,5.6681],[100.8834,5.6719],[100.8832,5.6762],[100.8865,5.6765],[100.8809,5.6808],[100.8809,5.6923],[100.8711,5.6877],[100.8725,5.6895],[100.8695,5.6903],[100.8691,5.6938],[100.8654,5.6944],[100.8612,5.7027],[100.8598,5.7148],[100.8634,5.7189],[100.8621,5.7212],[100.8537,5.7219],[100.8512,5.7199],[100.8527,5.7164],[100.8428,5.71],[100.8309,5.7195],[100.8266,5.7156],[100.8168,5.7152],[100.8097,5.7162],[100.8051,5.7212],[100.801,5.721],[100.799,5.7177],[100.789,5.7139],[100.7855,5.71],[100.7663,5.7183],[100.7524,5.7171]]]}},{"type":"Feature","properties":{"c":"N.32","n":"Kuala Ketil","w":"PN","p":"PAS","cand":"Mansor bin Zakaria","pct":75.0,"maj":16565,"nc":2,"tv":33179,"unc":false,"rw":"BN","rp":"UMNO","rcand":"Suriati binti Che Mid","rpct":25.0},"geometry":{"type":"Polygon","coordinates":[[[100.6555,5.7392],[100.658,5.7356],[100.6525,5.7349],[100.6502,5.7271],[100.6516,5.7207],[100.6545,5.7191],[100.653,5.714],[100.6548,5.7101],[100.6523,5.7081],[100.6536,5.701],[100.6466,5.6987],[100.6466,5.6963],[100.6522,5.6969],[100.6557,5.6916],[100.6614,5.6918],[100.6596,5.6829],[100.6633,5.675],[100.6608,5.6738],[100.664,5.6707],[100.6675,5.6719],[100.6684,5.6694],[100.6714,5.6693],[100.6714,5.6662],[100.6658,5.6667],[100.6687,5.663],[100.6624,5.6595],[100.6632,5.6554],[100.6595,5.6484],[100.6605,5.643],[100.6642,5.6406],[100.6635,5.6384],[100.6592,5.6376],[100.6598,5.6354],[100.6641,5.6351],[100.6633,5.6314],[100.6584,5.626],[100.6567,5.6153],[100.6517,5.611],[100.6488,5.6112],[100.645,5.6182],[100.6431,5.6173],[100.6437,5.6109],[100.6354,5.6095],[100.6327,5.6146],[100.6229,5.6115],[100.6269,5.6031],[100.6325,5.5997],[100.6276,5.5999],[100.6245,5.5964],[100.6208,5.5993],[100.6159,5.5979],[100.612,5.5787],[100.6088,5.5754],[100.6136,5.5726],[100.6143,5.5694],[100.6099,5.5649],[100.6112,5.5607],[100.6048,5.5639],[100.6032,5.5495],[100.6114,5.5482],[100.6128,5.5551],[100.6161,5.5583],[100.6229,5.5579],[100.6372,5.5658],[100.6435,5.5636],[100.6415,5.5587],[100.6441,5.5585],[100.6466,5.5501],[100.6541,5.5514],[100.6553,5.5491],[100.668,5.5482],[100.668,5.5464],[100.6788,5.5436],[100.6836,5.5357],[100.6819,5.5346],[100.684,5.5233],[100.6889,5.5128],[100.6969,5.509],[100.6988,5.4994],[100.7075,5.4938],[100.7108,5.4944],[100.7156,5.4994],[100.7329,5.5047],[100.7468,5.5137],[100.7467,5.5174],[100.7426,5.522],[100.7439,5.5242],[100.7397,5.5259],[100.7388,5.5288],[100.7436,5.5308],[100.7459,5.5352],[100.7351,5.5351],[100.7352,5.5611],[100.7492,5.5633],[100.7486,5.5715],[100.7587,5.5715],[100.7586,5.5734],[100.767,5.5736],[100.7669,5.5695],[100.7791,5.5696],[100.782,5.5659],[100.7972,5.5724],[100.7975,5.5702],[100.806,5.57],[100.7834,5.6125],[100.7818,5.61],[100.7776,5.6178],[100.7745,5.6185],[100.771,5.6291],[100.7655,5.6307],[100.7582,5.6429],[100.76,5.6449],[100.7536,5.6677],[100.7477,5.6777],[100.7489,5.6849],[100.745,5.6869],[100.7458,5.6951],[100.7495,5.697],[100.7506,5.6953],[100.7567,5.6963],[100.7581,5.7024],[100.7545,5.7067],[100.7524,5.7171],[100.7453,5.7186],[100.7385,5.7165],[100.7386,5.7117],[100.7315,5.711],[100.7261,5.7022],[100.7256,5.707],[100.7222,5.7065],[100.7185,5.7009],[100.7152,5.7036],[100.7189,5.6981],[100.7175,5.692],[100.7048,5.6966],[100.7009,5.6945],[100.7012,5.6847],[100.6979,5.683],[100.6775,5.6956],[100.6748,5.7028],[100.6689,5.708],[100.6734,5.7128],[100.6674,5.7148],[100.6685,5.7168],[100.6632,5.7229],[100.6697,5.7298],[100.6695,5.7341],[100.6647,5.7348],[100.6619,5.7447],[100.6555,5.7392]]]}},{"type":"Feature","properties":{"c":"N.33","n":"Merbau Pulas","w":"PN","p":"PAS","cand":"Siti Ashah binti Ghazali","pct":73.8,"maj":19285,"nc":2,"tv":40553,"unc":false,"rw":"BN","rp":"UMNO","rcand":"Asmadi bin Abu Talib (Chegu Madi)","rpct":26.2},"geometry":{"type":"Polygon","coordinates":[[[100.5292,5.5562],[100.5287,5.5413],[100.5343,5.5415],[100.5384,5.5371],[100.5366,5.5364],[100.5387,5.531],[100.5356,5.5306],[100.539,5.5147],[100.5466,5.515],[100.547,5.5224],[100.5507,5.5227],[100.5508,5.5208],[100.5559,5.5201],[100.5573,5.5155],[100.5629,5.5156],[100.5608,5.5047],[100.5896,5.5036],[100.5998,5.4928],[100.599,5.491],[100.5962,5.4926],[100.5976,5.4887],[100.5912,5.4833],[100.5928,5.4797],[100.5707,5.4496],[100.5728,5.4441],[100.5698,5.4457],[100.5575,5.4382],[100.5576,5.4366],[100.5613,5.437],[100.5605,5.4327],[100.5641,5.4306],[100.5605,5.4275],[100.5648,5.4243],[100.5618,5.4175],[100.5589,5.4183],[100.559,5.4168],[100.567,5.4065],[100.5617,5.4016],[100.5593,5.3945],[100.5629,5.3888],[100.5594,5.3861],[100.56,5.3816],[100.5703,5.3716],[100.5805,5.3715],[100.5804,5.3631],[100.5882,5.3681],[100.5906,5.3631],[100.5995,5.3656],[100.6052,5.3644],[100.6145,5.374],[100.6146,5.3681],[100.6278,5.3683],[100.6278,5.3955],[100.6374,5.3952],[100.6376,5.4004],[100.6438,5.4129],[100.6486,5.4143],[100.644,5.4213],[100.6483,5.4275],[100.6534,5.4262],[100.6535,5.4239],[100.6584,5.4249],[100.6628,5.4132],[100.6666,5.4141],[100.6642,5.4164],[100.6657,5.4245],[100.6689,5.4201],[100.6723,5.4206],[100.672,5.417],[100.6774,5.4179],[100.683,5.4139],[100.688,5.4161],[100.7099,5.4162],[100.7134,5.4227],[100.7067,5.4252],[100.7058,5.4297],[100.7092,5.4375],[100.7077,5.4506],[100.7002,5.4514],[100.6985,5.4575],[100.7002,5.4587],[100.6971,5.4649],[100.7014,5.4771],[100.7069,5.479],[100.7037,5.4863],[100.7069,5.4884],[100.7075,5.4938],[100.6988,5.4994],[100.6969,5.509],[100.6889,5.5128],[100.684,5.5233],[100.6819,5.5346],[100.6836,5.5357],[100.6788,5.5436],[100.668,5.5464],[100.668,5.5482],[100.6553,5.5491],[100.6541,5.5514],[100.6466,5.5501],[100.6441,5.5585],[100.6415,5.5587],[100.6435,5.5636],[100.6372,5.5658],[100.6229,5.5579],[100.6161,5.5583],[100.6128,5.5551],[100.6114,5.5482],[100.6034,5.5487],[100.5984,5.5545],[100.5947,5.5497],[100.5948,5.5446],[100.5875,5.5435],[100.5849,5.54],[100.5784,5.5413],[100.576,5.5376],[100.5727,5.5392],[100.5716,5.5373],[100.5749,5.5314],[100.5674,5.5292],[100.5653,5.5356],[100.5555,5.5363],[100.559,5.5425],[100.5532,5.5512],[100.548,5.5489],[100.5435,5.5499],[100.545,5.559],[100.5421,5.5639],[100.5357,5.5623],[100.5339,5.558],[100.5292,5.5562]]]}},{"type":"Feature","properties":{"c":"N.34","n":"Lunas","w":"PN","p":"BERSATU","cand":"Khairul Anuar bin Ramli","pct":53.0,"maj":4483,"nc":5,"tv":59520,"unc":false,"rw":"PH","rp":"PKR","rcand":"Shamsul Anuar bin Abdullah","rpct":45.5},"geometry":{"type":"Polygon","coordinates":[[[100.5287,5.5413],[100.5244,5.3653],[100.5247,5.3627],[100.5361,5.3649],[100.543,5.3631],[100.5508,5.3678],[100.551,5.3733],[100.5582,5.3724],[100.5645,5.3741],[100.5652,5.3762],[100.56,5.3816],[100.5594,5.3861],[100.5629,5.3888],[100.5593,5.3945],[100.5617,5.4016],[100.567,5.4065],[100.559,5.4168],[100.5631,5.4193],[100.5648,5.4243],[100.5605,5.4275],[100.5641,5.4315],[100.5605,5.4327],[100.5613,5.437],[100.5576,5.4366],[100.5575,5.4382],[100.5698,5.4457],[100.5728,5.4441],[100.5707,5.4496],[100.5928,5.4797],[100.5912,5.4833],[100.5976,5.4887],[100.5962,5.4926],[100.599,5.491],[100.5998,5.4928],[100.5896,5.5036],[100.5608,5.5047],[100.5629,5.5156],[100.5573,5.5155],[100.5559,5.5201],[100.5508,5.5208],[100.5507,5.5227],[100.547,5.5224],[100.5466,5.515],[100.539,5.5147],[100.5356,5.5306],[100.5387,5.531],[100.5366,5.5364],[100.5384,5.5371],[100.5343,5.5415],[100.5287,5.5413]]]}},{"type":"Feature","properties":{"c":"N.35","n":"Kulim","w":"PN","p":"GERAKAN","cand":"Wong Chia Zhen","pct":60.0,"maj":7742,"nc":2,"tv":38814,"unc":false,"rw":"PH","rp":"PKR","rcand":"Teh Lean Ong (Awang Teh)","rpct":40.0},"geometry":{"type":"Polygon","coordinates":[[[100.5247,5.3627],[100.5384,5.2479],[100.5418,5.251],[100.5427,5.248],[100.5458,5.2475],[100.5512,5.2597],[100.557,5.2583],[100.5575,5.2612],[100.5596,5.2592],[100.5647,5.2608],[100.5673,5.2601],[100.5669,5.2578],[100.5718,5.2591],[100.5732,5.2547],[100.5803,5.2584],[100.5837,5.2573],[100.5822,5.2524],[100.6302,5.2362],[100.6311,5.2565],[100.6349,5.2551],[100.6354,5.2635],[100.6386,5.2625],[100.636,5.268],[100.6405,5.2704],[100.6372,5.2739],[100.6404,5.2784],[100.6496,5.2733],[100.6515,5.2658],[100.6473,5.267],[100.6468,5.265],[100.65,5.2621],[100.6666,5.2746],[100.6644,5.2798],[100.6613,5.2768],[100.6623,5.2835],[100.6724,5.2812],[100.6755,5.2839],[100.6748,5.2927],[100.6847,5.2861],[100.6872,5.2883],[100.6862,5.2918],[100.6911,5.3016],[100.6874,5.3018],[100.683,5.307],[100.686,5.3103],[100.6894,5.3228],[100.6874,5.3266],[100.7034,5.3291],[100.7095,5.3356],[100.7108,5.3303],[100.7201,5.3309],[100.7201,5.3224],[100.7181,5.3204],[100.7214,5.3172],[100.7214,5.3093],[100.7232,5.3086],[100.725,5.3106],[100.7329,5.3084],[100.7348,5.312],[100.7511,5.3197],[100.7592,5.3191],[100.7616,5.315],[100.772,5.3193],[100.783,5.3145],[100.787,5.3182],[100.7862,5.3233],[100.792,5.3238],[100.7927,5.3209],[100.7961,5.3197],[100.7994,5.3227],[100.8028,5.3184],[100.8082,5.3188],[100.8087,5.3229],[100.8127,5.3204],[100.8148,5.3238],[100.8186,5.3209],[100.8181,5.3263],[100.822,5.3322],[100.8487,5.3516],[100.8503,5.3706],[100.848,5.379],[100.8609,5.3989],[100.8548,5.4023],[100.8532,5.4069],[100.8649,5.422],[100.8674,5.4401],[100.8462,5.4154],[100.8109,5.3898],[100.808,5.3911],[100.8064,5.3955],[100.7994,5.3993],[100.7975,5.4096],[100.7907,5.4117],[100.7816,5.4072],[100.7745,5.4083],[100.7723,5.4045],[100.7698,5.4075],[100.7621,5.4038],[100.7562,5.4039],[100.7583,5.4025],[100.7548,5.4015],[100.7544,5.3987],[100.7529,5.4045],[100.7433,5.4056],[100.7409,5.411],[100.7345,5.4153],[100.7297,5.4126],[100.7225,5.4343],[100.7244,5.4347],[100.7239,5.4391],[100.7208,5.4431],[100.7077,5.4407],[100.7092,5.4375],[100.7058,5.4297],[100.7067,5.4252],[100.7134,5.4227],[100.7099,5.4162],[100.688,5.4161],[100.683,5.4139],[100.6774,5.4179],[100.672,5.417],[100.6723,5.4206],[100.6689,5.4201],[100.6657,5.4245],[100.6642,5.4164],[100.6666,5.4141],[100.6628,5.4132],[100.6584,5.4249],[100.6535,5.4239],[100.6534,5.4262],[100.6483,5.4275],[100.644,5.4213],[100.6486,5.4143],[100.6438,5.4129],[100.6376,5.4004],[100.6374,5.3952],[100.6278,5.3955],[100.6278,5.3683],[100.6146,5.3681],[100.6145,5.374],[100.6052,5.3644],[100.5995,5.3656],[100.5906,5.3631],[100.5882,5.3681],[100.5804,5.3631],[100.5805,5.3715],[100.575,5.3701],[100.5639,5.3762],[100.5645,5.3741],[100.5582,5.3724],[100.551,5.3733],[100.5508,5.3678],[100.543,5.3631],[100.5361,5.3649],[100.5247,5.3627]]]}},{"type":"Feature","properties":{"c":"N.36","n":"Bandar Baharu","w":"PN","p":"PAS","cand":"Mohd Suffian bin Yusoff","pct":71.4,"maj":11577,"nc":2,"tv":27077,"unc":false,"rw":"BN","rp":"UMNO","rcand":"Nuraini binti Yusoff (Noni)","rpct":28.6},"geometry":{"type":"Polygon","coordinates":[[[100.5384,5.2479],[100.5507,5.1428],[100.5391,5.1377],[100.5072,5.1451],[100.5001,5.141],[100.4984,5.1423],[100.4921,5.1328],[100.4987,5.1261],[100.4994,5.1182],[100.5034,5.1187],[100.5054,5.1261],[100.5093,5.1263],[100.5193,5.1161],[100.5175,5.1122],[100.5115,5.1113],[100.5121,5.0955],[100.5225,5.096],[100.5288,5.0876],[100.5358,5.0872],[100.5358,5.0939],[100.5429,5.096],[100.5452,5.0881],[100.5544,5.0905],[100.5537,5.0851],[100.5493,5.0797],[100.5515,5.0765],[100.5551,5.0801],[100.5657,5.0815],[100.5641,5.0869],[100.5783,5.0964],[100.585,5.0973],[100.5826,5.1048],[100.5889,5.1066],[100.588,5.1093],[100.5913,5.1141],[100.5893,5.1211],[100.5965,5.1265],[100.6048,5.127],[100.6062,5.1331],[100.619,5.1326],[100.6272,5.1475],[100.6288,5.1643],[100.6387,5.1679],[100.643,5.1726],[100.6466,5.1724],[100.6516,5.1797],[100.6515,5.1835],[100.656,5.1806],[100.661,5.1817],[100.6658,5.198],[100.6702,5.1978],[100.679,5.2193],[100.6867,5.2218],[100.691,5.2455],[100.6945,5.2489],[100.699,5.2485],[100.7099,5.2586],[100.7155,5.2566],[100.7193,5.2609],[100.7238,5.2613],[100.7305,5.2677],[100.7283,5.2752],[100.7335,5.3023],[100.7362,5.3021],[100.7376,5.3066],[100.7348,5.312],[100.7329,5.3084],[100.725,5.3106],[100.7214,5.3093],[100.7214,5.3172],[100.7181,5.3204],[100.7201,5.3224],[100.7201,5.3309],[100.7108,5.3303],[100.7095,5.3356],[100.7034,5.3291],[100.6874,5.3266],[100.6894,5.3228],[100.686,5.3103],[100.683,5.307],[100.6874,5.3018],[100.6911,5.3016],[100.6862,5.2918],[100.6872,5.2883],[100.6847,5.2861],[100.6748,5.2927],[100.6755,5.2839],[100.6724,5.2812],[100.6623,5.2835],[100.6613,5.2768],[100.6644,5.2798],[100.6666,5.2746],[100.65,5.2621],[100.6468,5.265],[100.6473,5.267],[100.6515,5.2658],[100.6496,5.2733],[100.6404,5.2784],[100.6372,5.2739],[100.6405,5.2704],[100.636,5.268],[100.6386,5.2625],[100.6354,5.2635],[100.6349,5.2551],[100.6311,5.2565],[100.6302,5.2362],[100.5822,5.2524],[100.5837,5.2573],[100.5803,5.2584],[100.5732,5.2547],[100.5718,5.2591],[100.5669,5.2578],[100.5673,5.2601],[100.5647,5.2608],[100.5596,5.2592],[100.5575,5.2612],[100.557,5.2583],[100.5512,5.2597],[100.5458,5.2475],[100.5427,5.248],[100.5418,5.251],[100.5384,5.2479]]]}}]}