{"type":"FeatureCollection","features":[{"type":"Feature","properties":{"c":"N.01","n":"Pengkalan Kubor","w":"PN","p":"PAS","cand":"Wan Roslan bin Wan Hamat (Ustaz Lan)","pct":63.7},"geometry":{"type":"MultiPolygon","coordinates":[[[[102.1462,6.213],[102.1118,6.2296],[102.0952,6.2432],[102.0932,6.2351],[102.0814,6.2256],[102.0788,6.1892],[102.0821,6.1826],[102.0794,6.172],[102.0823,6.1714],[102.0858,6.1655],[102.0839,6.1616],[102.0852,6.1576],[102.0897,6.1591],[102.0906,6.1501],[102.0932,6.1483],[102.1307,6.1479],[102.1352,6.155],[102.1343,6.1632],[102.1322,6.1637],[102.1332,6.1671],[102.1352,6.1688],[102.1367,6.1659],[102.1389,6.1668],[102.1455,6.1871],[102.1407,6.1887],[102.1418,6.1949],[102.1276,6.1993],[102.1207,6.1977],[102.1212,6.2001],[102.1313,6.2027],[102.1301,6.2054],[102.1353,6.2124],[102.1462,6.213]]]]}},{"type":"Feature","properties":{"c":"N.02","n":"Kelaboran","w":"PN","p":"PAS","cand":"Mohd Adanan bin Hassan (Cikgu Nan)","pct":70.9},"geometry":{"type":"Polygon","coordinates":[[[102.1423,6.1768],[102.1555,6.1708],[102.1543,6.1656],[102.156,6.1627],[102.1598,6.1621],[102.1611,6.1576],[102.164,6.1622],[102.1669,6.1613],[102.1681,6.1633],[102.1793,6.1604],[102.1845,6.1509],[102.1993,6.1476],[102.1991,6.1515],[102.2025,6.1552],[102.208,6.1522],[102.2077,6.1574],[102.2011,6.164],[102.2009,6.1678],[102.2065,6.1718],[102.2072,6.1702],[102.2177,6.1736],[102.2229,6.1698],[102.2231,6.1654],[102.2299,6.1689],[102.2317,6.1671],[102.2346,6.1687],[102.2345,6.1713],[102.2407,6.1738],[102.238,6.1806],[102.2404,6.184],[102.2374,6.1854],[102.2348,6.2023],[102.2286,6.2087],[102.2265,6.2175],[102.2362,6.2147],[102.2395,6.2087],[102.2381,6.2154],[102.2216,6.2237],[102.2054,6.2207],[102.1931,6.225],[102.171,6.2262],[102.1676,6.2253],[102.161,6.2139],[102.1559,6.2096],[102.1462,6.213],[102.1353,6.2124],[102.1301,6.2054],[102.1313,6.2027],[102.1212,6.2001],[102.1207,6.1977],[102.1276,6.1993],[102.1418,6.1949],[102.1407,6.1887],[102.1455,6.1871],[102.1423,6.1768]]]}},{"type":"Feature","properties":{"c":"N.03","n":"Pasir Pekan","w":"PN","p":"PAS","cand":"Ahmad bin Yakob (Ustaz Mad)","pct":75.9},"geometry":{"type":"Polygon","coordinates":[[[102.208,6.1522],[102.2069,6.1403],[102.2109,6.1364],[102.2093,6.1315],[102.2109,6.1249],[102.204,6.1122],[102.1982,6.1136],[102.1876,6.103],[102.1903,6.1014],[102.1909,6.0969],[102.2106,6.0899],[102.2219,6.0891],[102.2221,6.1036],[102.2296,6.1121],[102.2339,6.124],[102.2336,6.1429],[102.2382,6.1559],[102.2505,6.1683],[102.2498,6.1752],[102.2452,6.1816],[102.2404,6.184],[102.238,6.1806],[102.2407,6.1738],[102.2345,6.1713],[102.2346,6.1687],[102.2317,6.1671],[102.2299,6.1689],[102.2231,6.1654],[102.2229,6.1698],[102.2177,6.1736],[102.2072,6.1702],[102.2065,6.1718],[102.2009,6.1678],[102.2011,6.164],[102.2077,6.1574],[102.208,6.1522]]]}},{"type":"Feature","properties":{"c":"N.04","n":"Wakaf Bharu","w":"PN","p":"PAS","cand":"Mohd Rusli bin Abdullah","pct":67.7},"geometry":{"type":"Polygon","coordinates":[[[102.1307,6.1479],[102.1368,6.1428],[102.1356,6.1381],[102.13,6.1379],[102.1281,6.1414],[102.1238,6.1364],[102.1269,6.1272],[102.1418,6.1268],[102.1488,6.115],[102.1558,6.1133],[102.1661,6.1164],[102.189,6.1121],[102.1907,6.1079],[102.1982,6.1136],[102.204,6.1122],[102.2109,6.1249],[102.2093,6.1315],[102.2109,6.1364],[102.2069,6.1403],[102.208,6.1522],[102.2025,6.1552],[102.1991,6.1515],[102.1993,6.1476],[102.1845,6.1509],[102.1793,6.1604],[102.1681,6.1633],[102.1669,6.1613],[102.164,6.1622],[102.1611,6.1576],[102.1598,6.1621],[102.156,6.1627],[102.1543,6.1656],[102.1555,6.1708],[102.1423,6.1768],[102.1389,6.1668],[102.1367,6.1659],[102.1352,6.1688],[102.1332,6.1671],[102.1322,6.1637],[102.1343,6.1632],[102.1352,6.155],[102.1307,6.1479]]]}},{"type":"Feature","properties":{"c":"N.05","n":"Kijang","w":"PN","p":"PAS","cand":"Izani bin Husin","pct":75.8},"geometry":{"type":"MultiPolygon","coordinates":[[[[102.2404,6.184],[102.2452,6.1816],[102.2498,6.1752],[102.2505,6.1683],[102.2382,6.1559],[102.2336,6.1429],[102.2351,6.1348],[102.2377,6.1349],[102.2418,6.1446],[102.2481,6.1473],[102.2495,6.1515],[102.2522,6.1519],[102.253,6.1455],[102.2588,6.1447],[102.2607,6.15],[102.2652,6.1472],[102.2659,6.1613],[102.2701,6.1685],[102.2637,6.17],[102.2637,6.1736],[102.2548,6.1757],[102.2592,6.1806],[102.2619,6.1784],[102.2657,6.1795],[102.2689,6.1856],[102.2793,6.1839],[102.2805,6.1892],[102.2831,6.1884],[102.2846,6.1911],[102.271,6.1986],[102.2672,6.198],[102.2383,6.2184],[102.2323,6.2192],[102.2381,6.2154],[102.2395,6.2087],[102.2362,6.2147],[102.2265,6.2175],[102.2286,6.2087],[102.2348,6.2023],[102.2374,6.1854],[102.2404,6.184]]]]}},{"type":"Feature","properties":{"c":"N.06","n":"Chempaka","w":"PN","p":"PAS","cand":"Nik Asma' Bahrum bin Nik Abdullah","pct":74.5},"geometry":{"type":"Polygon","coordinates":[[[102.2657,6.1526],[102.2719,6.1503],[102.2691,6.1399],[102.2704,6.1364],[102.2883,6.1368],[102.2928,6.1419],[102.2912,6.149],[102.2841,6.1559],[102.2874,6.163],[102.2973,6.1647],[102.3031,6.1615],[102.3162,6.1597],[102.3292,6.1621],[102.3297,6.1566],[102.3246,6.1511],[102.3206,6.1408],[102.322,6.1367],[102.3353,6.1552],[102.3448,6.164],[102.3449,6.1679],[102.3401,6.1664],[102.3219,6.1789],[102.312,6.1794],[102.3047,6.1845],[102.2846,6.1911],[102.2831,6.1884],[102.2805,6.1892],[102.2793,6.1839],[102.2689,6.1856],[102.2657,6.1795],[102.2619,6.1784],[102.2592,6.1806],[102.2548,6.1757],[102.2637,6.1736],[102.2637,6.17],[102.2701,6.1685],[102.2659,6.1613],[102.2657,6.1526]]]}},{"type":"Feature","properties":{"c":"N.07","n":"Panchor","w":"PN","p":"PAS","cand":"Mohd Amar bin Abdullah (Nik Amar)","pct":70.0},"geometry":{"type":"Polygon","coordinates":[[[102.2704,6.1364],[102.273,6.1274],[102.2778,6.1272],[102.2793,6.1232],[102.2895,6.1161],[102.2916,6.1177],[102.2954,6.1161],[102.2931,6.1069],[102.3003,6.1013],[102.3078,6.1023],[102.3108,6.1135],[102.3293,6.1145],[102.3383,6.1119],[102.3367,6.1318],[102.3386,6.1371],[102.3356,6.1393],[102.3324,6.1478],[102.3353,6.1552],[102.325,6.1389],[102.322,6.1367],[102.3206,6.1388],[102.3246,6.1511],[102.3297,6.1566],[102.3292,6.1621],[102.3162,6.1597],[102.2907,6.1649],[102.2847,6.1597],[102.2841,6.1559],[102.2912,6.149],[102.2928,6.1419],[102.2883,6.1368],[102.2704,6.1364]]]}},{"type":"Feature","properties":{"c":"N.08","n":"Tanjong Mas","w":"PN","p":"PAS","cand":"Rohani binti Ibrahim (Kak Ani)","pct":66.2},"geometry":{"type":"Polygon","coordinates":[[[102.2397,6.14],[102.2541,6.1345],[102.2518,6.1146],[102.269,6.0995],[102.2719,6.1059],[102.2939,6.11],[102.2954,6.1161],[102.2916,6.1177],[102.2895,6.1161],[102.2793,6.1232],[102.2778,6.1272],[102.273,6.1274],[102.2691,6.1399],[102.2719,6.1503],[102.2657,6.1526],[102.2652,6.1472],[102.2607,6.15],[102.2597,6.1456],[102.2568,6.1447],[102.2518,6.1472],[102.2522,6.1519],[102.2495,6.1515],[102.2481,6.1473],[102.2418,6.1446],[102.2397,6.14]]]}},{"type":"Feature","properties":{"c":"N.09","n":"Kota Lama","w":"PH","p":"AMANAH","cand":"Hafidzah binti Mustakim","pct":50.0},"geometry":{"type":"Polygon","coordinates":[[[102.2308,6.1157],[102.2464,6.1168],[102.2518,6.1146],[102.2541,6.1345],[102.2397,6.14],[102.2377,6.1349],[102.2351,6.1348],[102.2308,6.1157]]]}},{"type":"Feature","properties":{"c":"N.10","n":"Bunut Payong","w":"PN","p":"PAS","cand":"Shaari bin Mat Yaman","pct":62.7},"geometry":{"type":"Polygon","coordinates":[[[102.2219,6.0891],[102.2233,6.0841],[102.2415,6.084],[102.2602,6.0948],[102.2671,6.0955],[102.269,6.0995],[102.2518,6.1146],[102.2464,6.1168],[102.2308,6.1157],[102.2221,6.1036],[102.2219,6.0891]]]}},{"type":"Feature","properties":{"c":"N.11","n":"Tendong","w":"PN","p":"PAS","cand":"Rozi bin Muhamad","pct":61.9},"geometry":{"type":"Polygon","coordinates":[[[102.1907,6.1079],[102.189,6.1121],[102.1661,6.1164],[102.1558,6.1133],[102.1488,6.115],[102.1418,6.1268],[102.1269,6.1272],[102.1238,6.1364],[102.1281,6.1414],[102.13,6.1379],[102.1356,6.1381],[102.1368,6.1428],[102.129,6.1494],[102.1035,6.1486],[102.1059,6.1434],[102.1041,6.1368],[102.1091,6.1243],[102.1074,6.1171],[102.1145,6.1134],[102.1197,6.1056],[102.1224,6.1075],[102.1273,6.1064],[102.129,6.085],[102.1332,6.0806],[102.136,6.0846],[102.1533,6.0858],[102.1579,6.0828],[102.1617,6.0757],[102.1682,6.074],[102.1724,6.0758],[102.1723,6.0802],[102.178,6.0781],[102.1721,6.0638],[102.1731,6.0519],[102.1776,6.0567],[102.1837,6.0572],[102.1874,6.0601],[102.1947,6.044],[102.2038,6.0481],[102.2173,6.0586],[102.2234,6.0701],[102.2239,6.0765],[102.2219,6.0891],[102.2106,6.0899],[102.1909,6.0969],[102.1903,6.1014],[102.1876,6.103],[102.1907,6.1079]]]}},{"type":"Feature","properties":{"c":"N.12","n":"Pengkalan Pasir","w":"PN","p":"PAS","cand":"Mohamad Nasriff bin Daud @ Daud Yatimee","pct":70.7},"geometry":{"type":"Polygon","coordinates":[[[102.1332,6.0806],[102.1337,6.0732],[102.1377,6.0654],[102.1354,6.0628],[102.1269,6.0618],[102.1228,6.0638],[102.1192,6.0583],[102.1253,6.0533],[102.1221,6.0475],[102.1172,6.0476],[102.1207,6.0385],[102.1246,6.0377],[102.1238,6.0336],[102.1426,6.0383],[102.1464,6.0365],[102.1547,6.0442],[102.1947,6.044],[102.1874,6.0601],[102.1837,6.0572],[102.1776,6.0567],[102.1731,6.0519],[102.1721,6.0638],[102.178,6.0781],[102.1723,6.0802],[102.1724,6.0758],[102.1682,6.074],[102.1617,6.0757],[102.1579,6.0828],[102.1533,6.0858],[102.136,6.0846],[102.1332,6.0806]]]}},{"type":"Feature","properties":{"c":"N.13","n":"Meranti","w":"PN","p":"PAS","cand":"Mohd Nassuruddin bin Daud","pct":76.4},"geometry":{"type":"Polygon","coordinates":[[[102.1035,6.1486],[102.0932,6.1483],[102.0903,6.1441],[102.0877,6.14],[102.0893,6.1385],[102.087,6.1387],[102.0707,6.1092],[102.0621,6.1037],[102.0596,6.0957],[102.0612,6.0908],[102.0583,6.0912],[102.0544,6.0792],[102.0392,6.0731],[102.0249,6.063],[102.0301,6.0609],[102.0277,6.0521],[102.0324,6.0497],[102.0328,6.0437],[102.0375,6.0461],[102.044,6.028],[102.0579,6.0262],[102.1238,6.0336],[102.1248,6.0355],[102.1246,6.0377],[102.1207,6.0385],[102.1172,6.0476],[102.1221,6.0475],[102.1253,6.0533],[102.1192,6.0583],[102.1228,6.0638],[102.1269,6.0618],[102.1354,6.0628],[102.1377,6.0654],[102.1337,6.0732],[102.1344,6.0785],[102.129,6.085],[102.1273,6.1064],[102.1224,6.1075],[102.1197,6.1056],[102.1145,6.1134],[102.1074,6.1171],[102.1091,6.1243],[102.1041,6.1368],[102.1059,6.1434],[102.1035,6.1486]]]}},{"type":"Feature","properties":{"c":"N.14","n":"Chetok","w":"PN","p":"PAS","cand":"Zuraidin bin Abdullah","pct":74.4},"geometry":{"type":"Polygon","coordinates":[[[102.1321,6.0351],[102.1357,6.0312],[102.1352,6.0201],[102.1554,6.0209],[102.1547,6.0128],[102.1582,6.0076],[102.1625,6.0066],[102.1624,5.9997],[102.1585,5.9976],[102.1634,5.9882],[102.1593,5.9818],[102.1579,5.9727],[102.16,5.9707],[102.1564,5.9618],[102.1453,5.9621],[102.1443,5.9581],[102.1365,5.9542],[102.1359,5.9523],[102.1414,5.9475],[102.1295,5.934],[102.1314,5.9285],[102.1381,5.9244],[102.138,5.9172],[102.129,5.9123],[102.1288,5.897],[102.1354,5.8965],[102.1452,5.9061],[102.1478,5.9061],[102.149,5.9039],[102.1523,5.9044],[102.1526,5.8982],[102.1635,5.898],[102.1662,5.8946],[102.1721,5.893],[102.174,5.8849],[102.1752,5.888],[102.1843,5.8866],[102.1969,5.9095],[102.2083,5.9563],[102.2083,5.9721],[102.1928,5.9933],[102.1903,6.0026],[102.1856,6.0089],[102.1547,6.0266],[102.149,6.0311],[102.1464,6.0365],[102.1426,6.0383],[102.1321,6.0351]]]}},{"type":"Feature","properties":{"c":"N.15","n":"Gual Periok","w":"PN","p":"PAS","cand":"Kamaruzaman bin Mohamad","pct":64.2},"geometry":{"type":"Polygon","coordinates":[[[102.0249,6.063],[102.0201,6.0524],[102.0051,6.0511],[102.0043,6.0444],[101.999,6.0397],[101.9915,6.0406],[101.984,6.0297],[101.9724,6.0194],[101.9723,6.0055],[101.9633,5.996],[101.9611,5.9967],[101.9528,5.9902],[101.952,5.9869],[101.9486,5.9869],[101.9487,5.9835],[101.9468,5.9855],[101.9437,5.9784],[101.9467,5.9771],[101.9408,5.9717],[101.9446,5.955],[101.937,5.948],[101.9299,5.949],[101.9299,5.9439],[101.9323,5.945],[101.9302,5.9428],[101.9321,5.9417],[101.93,5.94],[101.9321,5.936],[101.93,5.9363],[101.9301,5.925],[101.9233,5.9235],[101.9223,5.9111],[101.9263,5.9084],[101.9269,5.9107],[101.9301,5.91],[101.9308,5.9053],[101.9342,5.9073],[101.9392,5.9046],[101.9752,5.9351],[101.9855,5.9326],[101.999,5.9206],[102.0122,5.9234],[102.0141,5.9291],[102.0316,5.9283],[102.0383,5.9294],[102.0386,5.9325],[102.0554,5.9315],[102.0551,5.9515],[102.0596,5.9613],[102.0593,5.9679],[102.0571,5.9672],[102.0565,5.9701],[102.0591,5.9707],[102.06,6.0152],[102.0557,6.0265],[102.044,6.028],[102.0375,6.0461],[102.0328,6.0437],[102.0324,6.0497],[102.0277,6.0521],[102.0301,6.0609],[102.0249,6.063]]]}},{"type":"Feature","properties":{"c":"N.16","n":"Apam Putra","w":"PN","p":"PAS","cand":"Zamakhshari bin Muhamad (Abe Zam)","pct":61.1},"geometry":{"type":"Polygon","coordinates":[[[102.1238,6.0336],[102.0557,6.0265],[102.06,6.0152],[102.0591,5.9707],[102.0565,5.9701],[102.0571,5.9672],[102.0593,5.9679],[102.0596,5.9613],[102.0551,5.9515],[102.0554,5.9315],[102.0386,5.9325],[102.0383,5.9294],[102.0316,5.9283],[102.0141,5.9291],[102.0122,5.9234],[102.0099,5.9243],[102.0056,5.9209],[102.0081,5.9149],[102.034,5.8949],[102.0517,5.8946],[102.0577,5.8921],[102.0944,5.8939],[102.1006,5.8997],[102.1034,5.897],[102.1108,5.897],[102.1102,5.9033],[102.1128,5.9063],[102.1242,5.9035],[102.1294,5.9045],[102.129,5.9123],[102.138,5.9172],[102.1381,5.9244],[102.1314,5.9285],[102.1299,5.9361],[102.138,5.9415],[102.1414,5.9475],[102.1359,5.9523],[102.1365,5.9542],[102.1443,5.9581],[102.1453,5.9621],[102.1564,5.9618],[102.16,5.9707],[102.1579,5.9727],[102.1593,5.9818],[102.1634,5.9882],[102.1585,5.9987],[102.1631,6.0014],[102.1625,6.0066],[102.1582,6.0076],[102.1547,6.0128],[102.1554,6.0209],[102.1352,6.0201],[102.1357,6.0312],[102.1321,6.0351],[102.1238,6.0336]]]}},{"type":"Feature","properties":{"c":"N.17","n":"Salor","w":"PN","p":"PAS","cand":"Saizol bin Ismail (Abe Joe)","pct":71.2},"geometry":{"type":"Polygon","coordinates":[[[102.2233,6.0841],[102.2234,6.0701],[102.2211,6.0641],[102.2038,6.0481],[102.1879,6.0434],[102.1547,6.0442],[102.1464,6.0365],[102.149,6.0311],[102.1547,6.0266],[102.1856,6.0089],[102.1903,6.0026],[102.1928,5.9933],[102.2083,5.9721],[102.2229,5.9768],[102.222,5.9828],[102.2243,5.9882],[102.2283,5.9895],[102.2298,5.996],[102.2303,6.0013],[102.2272,6.0048],[102.229,6.0084],[102.2371,6.0056],[102.236,6.0103],[102.239,6.0156],[102.2356,6.0245],[102.2425,6.0236],[102.2383,6.0342],[102.2442,6.0376],[102.2488,6.0367],[102.2458,6.0447],[102.2436,6.0463],[102.2391,6.0435],[102.2366,6.046],[102.2396,6.0564],[102.2416,6.0571],[102.2415,6.084],[102.2233,6.0841]]]}},{"type":"Feature","properties":{"c":"N.18","n":"Pasir Tumboh","w":"PN","p":"PAS","cand":"Abd Rahman bin Yunus","pct":76.6},"geometry":{"type":"Polygon","coordinates":[[[102.2415,6.084],[102.2416,6.0571],[102.2396,6.0564],[102.2366,6.046],[102.2391,6.0435],[102.2436,6.0463],[102.2491,6.039],[102.2488,6.0367],[102.2442,6.0376],[102.2383,6.0342],[102.2434,6.0222],[102.2548,6.021],[102.2556,6.0237],[102.265,6.0222],[102.2735,6.0251],[102.2839,6.025],[102.2855,6.0286],[102.2939,6.0315],[102.3079,6.0207],[102.3211,6.0239],[102.3187,6.0322],[102.3193,6.0442],[102.3135,6.0478],[102.312,6.0517],[102.3129,6.06],[102.3177,6.0629],[102.3079,6.0685],[102.3004,6.0695],[102.2997,6.0669],[102.2968,6.0679],[102.2924,6.0603],[102.2793,6.0601],[102.2757,6.0651],[102.2759,6.0791],[102.2691,6.0958],[102.2602,6.0948],[102.2415,6.084]]]}},{"type":"Feature","properties":{"c":"N.19","n":"Demit","w":"PN","p":"PAS","cand":"Mohd Asri bin Mat Daud","pct":75.4},"geometry":{"type":"Polygon","coordinates":[[[102.2939,6.11],[102.2719,6.1059],[102.2671,6.0955],[102.2691,6.0958],[102.272,6.0912],[102.2723,6.0854],[102.2759,6.0791],[102.2745,6.07],[102.2793,6.0601],[102.2924,6.0603],[102.2968,6.0679],[102.3079,6.0685],[102.3177,6.0629],[102.3129,6.06],[102.312,6.0517],[102.3135,6.0478],[102.3193,6.0442],[102.3207,6.0486],[102.3263,6.0519],[102.3319,6.048],[102.3349,6.0523],[102.3445,6.0538],[102.3498,6.0642],[102.3439,6.061],[102.3459,6.0714],[102.3386,6.0739],[102.3372,6.0815],[102.3275,6.0833],[102.3224,6.0871],[102.3223,6.0929],[102.3072,6.102],[102.3003,6.1013],[102.2944,6.1041],[102.2939,6.11]]]}},{"type":"Feature","properties":{"c":"N.20","n":"Tawang","w":"PN","p":"PAS","cand":"Harun bin Ismail","pct":79.2},"geometry":{"type":"Polygon","coordinates":[[[102.3353,6.1552],[102.3324,6.1478],[102.3356,6.1393],[102.3386,6.1371],[102.3367,6.1318],[102.3383,6.1119],[102.3293,6.1145],[102.3108,6.1135],[102.3072,6.102],[102.3223,6.0929],[102.3224,6.0871],[102.3275,6.0833],[102.3372,6.0815],[102.3386,6.0739],[102.3459,6.0714],[102.3439,6.061],[102.3498,6.0642],[102.3445,6.0538],[102.3349,6.0523],[102.3319,6.048],[102.3263,6.0519],[102.3207,6.0486],[102.3187,6.0322],[102.3229,6.0323],[102.3239,6.0281],[102.328,6.0273],[102.329,6.0245],[102.3346,6.0321],[102.3493,6.0333],[102.3647,6.0166],[102.3708,6.0218],[102.3767,6.0228],[102.3745,6.0272],[102.3789,6.0295],[102.3752,6.0326],[102.3758,6.0356],[102.389,6.0375],[102.3927,6.0435],[102.39,6.0457],[102.3877,6.061],[102.3813,6.0681],[102.3854,6.0753],[102.3803,6.0765],[102.3758,6.0846],[102.3744,6.0946],[102.377,6.099],[102.3726,6.1003],[102.3702,6.1073],[102.3658,6.1089],[102.3615,6.1162],[102.3605,6.1214],[102.372,6.1287],[102.3452,6.1677],[102.3448,6.164],[102.3353,6.1552]]]}},{"type":"Feature","properties":{"c":"N.21","n":"Pantai Irama","w":"PN","p":"PAS","cand":"Mohd Huzaimy bin Che Husin (Haji Mie)","pct":70.8},"geometry":{"type":"Polygon","coordinates":[[[102.3772,6.0246],[102.3813,6.024],[102.3832,6.0201],[102.3797,6.014],[102.3801,6.0065],[102.404,5.9539],[102.4094,5.9481],[102.4227,5.9582],[102.4267,5.9489],[102.4297,5.9477],[102.4332,5.9383],[102.4313,5.9379],[102.4485,5.9057],[102.4703,5.9166],[102.4517,5.9523],[102.372,6.1287],[102.3605,6.1214],[102.3615,6.1162],[102.3658,6.1089],[102.3702,6.1073],[102.3726,6.1003],[102.377,6.099],[102.3744,6.0946],[102.3758,6.0846],[102.3803,6.0765],[102.3854,6.0753],[102.3813,6.0681],[102.3877,6.061],[102.39,6.0457],[102.3927,6.0435],[102.389,6.0375],[102.3758,6.0356],[102.3752,6.0326],[102.3789,6.0295],[102.3745,6.0272],[102.3772,6.0246]]]}},{"type":"Feature","properties":{"c":"N.22","n":"Jelawat","w":"PN","p":"PAS","cand":"Zameri bin Mat Nawang (Loyar Zameri)","pct":69.1},"geometry":{"type":"Polygon","coordinates":[[[102.329,6.0245],[102.3365,6.0188],[102.3364,6.016],[102.3421,6.0149],[102.344,6.0077],[102.335,6.0075],[102.3342,5.9799],[102.3315,5.9734],[102.3287,5.9698],[102.3057,5.9666],[102.2993,5.9612],[102.2999,5.9554],[102.2963,5.9517],[102.2809,5.9527],[102.2835,5.9388],[102.2953,5.9402],[102.2958,5.9354],[102.3035,5.9353],[102.3076,5.9388],[102.3265,5.9376],[102.3304,5.9353],[102.3373,5.9357],[102.3381,5.9379],[102.3477,5.9407],[102.3652,5.9184],[102.3664,5.913],[102.3694,5.9143],[102.374,5.9082],[102.3792,5.9095],[102.3822,5.9072],[102.3827,5.9005],[102.3857,5.9007],[102.3912,5.8903],[102.397,5.8899],[102.4051,5.8838],[102.4239,5.8918],[102.434,5.9009],[102.4485,5.9057],[102.4313,5.9379],[102.4332,5.9383],[102.4297,5.9477],[102.4267,5.9489],[102.4227,5.9582],[102.4094,5.9481],[102.404,5.9539],[102.3801,6.0065],[102.3797,6.014],[102.3832,6.0201],[102.3813,6.024],[102.3708,6.0218],[102.3647,6.0166],[102.3493,6.0333],[102.3397,6.0334],[102.3346,6.0321],[102.329,6.0245]]]}},{"type":"Feature","properties":{"c":"N.23","n":"Melor","w":"PN","p":"PAS","cand":"Wan Rohimi bin Wan Daud","pct":70.1},"geometry":{"type":"Polygon","coordinates":[[[102.2693,6.0237],[102.2713,6.0204],[102.2688,6.021],[102.2669,6.016],[102.2691,6.0138],[102.2656,6.0097],[102.27,6.0018],[102.2725,5.985],[102.2764,5.9815],[102.2722,5.9727],[102.2759,5.9732],[102.2802,5.968],[102.2738,5.9561],[102.2668,5.9553],[102.2752,5.9502],[102.2792,5.9501],[102.2837,5.9537],[102.2963,5.9517],[102.2999,5.9554],[102.2993,5.9612],[102.3057,5.9666],[102.3287,5.9698],[102.3342,5.9799],[102.335,6.0075],[102.344,6.0077],[102.3421,6.0149],[102.3364,6.016],[102.3365,6.0188],[102.328,6.0273],[102.3239,6.0281],[102.3229,6.0323],[102.3187,6.0322],[102.3211,6.0239],[102.3143,6.0207],[102.3079,6.0207],[102.2939,6.0315],[102.2855,6.0286],[102.2839,6.025],[102.2693,6.0237]]]}},{"type":"Feature","properties":{"c":"N.24","n":"Kadok","w":"PN","p":"PAS","cand":"Azami bin Mohd Nor","pct":77.0},"geometry":{"type":"Polygon","coordinates":[[[102.2058,5.9456],[102.2146,5.943],[102.2143,5.9466],[102.2172,5.9481],[102.2174,5.9528],[102.2147,5.9537],[102.2158,5.9668],[102.2331,5.9675],[102.2353,5.9605],[102.2444,5.961],[102.2474,5.9638],[102.2533,5.9595],[102.2668,5.9553],[102.2759,5.9582],[102.2801,5.97],[102.2759,5.9732],[102.2722,5.9727],[102.2764,5.9815],[102.2725,5.985],[102.27,6.0018],[102.2656,6.0097],[102.2691,6.0138],[102.2669,6.016],[102.2688,6.021],[102.2713,6.0204],[102.2693,6.0237],[102.265,6.0222],[102.2556,6.0237],[102.2548,6.021],[102.2356,6.0245],[102.239,6.0156],[102.236,6.0103],[102.2371,6.0056],[102.229,6.0084],[102.2272,6.0048],[102.2303,6.0013],[102.2298,5.996],[102.2283,5.9895],[102.2243,5.9882],[102.222,5.9828],[102.2229,5.9768],[102.2083,5.9721],[102.2094,5.9641],[102.2058,5.9456]]]}},{"type":"Feature","properties":{"c":"N.25","n":"Kok Lanas","w":"PN","p":"BERSATU","cand":"Mohamed Farid bin Mohamed Zawawi","pct":68.1},"geometry":{"type":"Polygon","coordinates":[[[102.1984,5.9153],[102.2104,5.9136],[102.2073,5.9088],[102.2096,5.9058],[102.2119,5.9073],[102.2174,5.9035],[102.2163,5.9013],[102.2264,5.8952],[102.2387,5.8947],[102.2386,5.8885],[102.2427,5.889],[102.2429,5.8969],[102.257,5.8922],[102.257,5.8992],[102.2652,5.8937],[102.2651,5.898],[102.2723,5.8999],[102.2751,5.9043],[102.2716,5.906],[102.2748,5.9112],[102.2726,5.9306],[102.2819,5.9312],[102.2805,5.9376],[102.2835,5.9388],[102.2811,5.9509],[102.2752,5.9502],[102.2747,5.9522],[102.2718,5.9515],[102.2474,5.9638],[102.2444,5.961],[102.2353,5.9605],[102.2331,5.9675],[102.2158,5.9668],[102.2147,5.9537],[102.2174,5.9528],[102.2172,5.9481],[102.2143,5.9466],[102.2146,5.943],[102.2058,5.9456],[102.1984,5.9153]]]}},{"type":"Feature","properties":{"c":"N.26","n":"Bukit Panau","w":"PN","p":"PAS","cand":"Abdul Fattah bin Mahmood","pct":79.1},"geometry":{"type":"Polygon","coordinates":[[[102.1294,5.9045],[102.1242,5.9035],[102.1128,5.9063],[102.1102,5.9033],[102.1108,5.8947],[102.1253,5.8957],[102.1249,5.8925],[102.1319,5.8923],[102.1367,5.8857],[102.1379,5.8764],[102.1352,5.8671],[102.1386,5.8608],[102.1465,5.8637],[102.1504,5.862],[102.1524,5.8578],[102.1511,5.8521],[102.1434,5.8482],[102.101,5.8515],[102.0778,5.8323],[102.0775,5.8205],[102.0736,5.8085],[102.0773,5.8022],[102.0816,5.8022],[102.092,5.7958],[102.1059,5.7969],[102.1189,5.7928],[102.122,5.796],[102.1308,5.794],[102.1341,5.7889],[102.1313,5.7863],[102.1315,5.7709],[102.1376,5.7674],[102.1385,5.7608],[102.1412,5.76],[102.1448,5.7613],[102.1455,5.7643],[102.1513,5.7646],[102.1546,5.7861],[102.1725,5.7994],[102.1731,5.8115],[102.1653,5.8225],[102.1699,5.8328],[102.1776,5.8367],[102.1832,5.8433],[102.1841,5.8489],[102.1789,5.8564],[102.1843,5.8866],[102.1752,5.888],[102.174,5.8849],[102.1721,5.893],[102.1662,5.8946],[102.1635,5.898],[102.1526,5.8982],[102.1523,5.9044],[102.149,5.9039],[102.1478,5.9061],[102.1452,5.9061],[102.1354,5.8965],[102.1288,5.897],[102.1294,5.9045]]]}},{"type":"Feature","properties":{"c":"N.27","n":"Gual Ipoh","w":"PN","p":"BERSATU","cand":"Bahari bin Mohamad Nor","pct":70.3},"geometry":{"type":"Polygon","coordinates":[[[102.0736,5.8085],[102.065,5.8042],[102.057,5.7959],[102.055,5.7894],[102.0509,5.7894],[102.0506,5.7951],[102.0269,5.793],[102.0239,5.7917],[102.0246,5.7881],[102.0132,5.784],[102.0119,5.7783],[102.0163,5.7711],[102.0132,5.7682],[102.0156,5.7627],[102.0114,5.7585],[102.0125,5.7525],[102.0062,5.7442],[102.0055,5.7387],[101.9904,5.7298],[101.9809,5.7312],[101.9688,5.7274],[101.968,5.7246],[101.9723,5.7169],[101.9571,5.7035],[101.9601,5.6963],[101.9591,5.6895],[101.9613,5.6798],[101.9666,5.6745],[101.9771,5.6527],[101.9681,5.646],[101.9677,5.6276],[101.961,5.623],[101.9518,5.6272],[101.9483,5.6223],[101.9467,5.6107],[101.9508,5.5989],[101.9558,5.5992],[101.9642,5.595],[101.9676,5.5804],[101.9661,5.5788],[101.9692,5.5706],[101.9731,5.5688],[101.9751,5.5563],[101.9702,5.5504],[101.966,5.5501],[101.9664,5.545],[101.9717,5.5375],[101.9749,5.537],[101.9754,5.5414],[101.9811,5.5412],[101.987,5.535],[101.9882,5.5288],[101.9911,5.5308],[101.9995,5.5302],[102.0012,5.533],[102.0055,5.525],[102.0126,5.5177],[102.0151,5.5177],[102.0167,5.512],[102.0329,5.5179],[102.0306,5.5334],[102.0392,5.5447],[102.0355,5.5516],[102.0412,5.5534],[102.0457,5.5588],[102.0469,5.5716],[102.0547,5.5808],[102.0611,5.5845],[102.066,5.5821],[102.0751,5.5833],[102.0766,5.5814],[102.0891,5.5864],[102.0895,5.5939],[102.0958,5.5945],[102.1013,5.5992],[102.0958,5.617],[102.0974,5.6217],[102.1078,5.625],[102.1079,5.6319],[102.1146,5.6399],[102.1075,5.6624],[102.1099,5.6886],[102.1206,5.6931],[102.1273,5.6935],[102.1434,5.688],[102.1478,5.6914],[102.149,5.7045],[102.1438,5.719],[102.1504,5.7351],[102.1477,5.7562],[102.1513,5.7646],[102.1385,5.7608],[102.1376,5.7674],[102.1315,5.7709],[102.1313,5.7863],[102.1341,5.7889],[102.1308,5.794],[102.122,5.796],[102.1189,5.7928],[102.1059,5.7969],[102.092,5.7958],[102.0816,5.8022],[102.0773,5.8022],[102.0736,5.8085]]]}},{"type":"Feature","properties":{"c":"N.28","n":"Kemahang","w":"PN","p":"PAS","cand":"Md Anizam bin Ab Rahman","pct":77.2},"geometry":{"type":"Polygon","coordinates":[[[101.9617,5.9241],[101.9618,5.903],[101.9736,5.87],[101.9772,5.8663],[101.9756,5.8628],[101.9783,5.8543],[101.9828,5.8546],[101.992,5.8481],[101.9948,5.8297],[102.0213,5.8303],[102.0266,5.8204],[102.0103,5.8092],[102.0075,5.8037],[102.0132,5.784],[102.0246,5.7881],[102.0239,5.7917],[102.0269,5.793],[102.0506,5.7951],[102.0509,5.7894],[102.055,5.7894],[102.057,5.7959],[102.065,5.8042],[102.0736,5.8085],[102.0775,5.8205],[102.0778,5.8323],[102.101,5.8515],[102.1434,5.8482],[102.1511,5.8521],[102.1524,5.8578],[102.1504,5.862],[102.1465,5.8637],[102.1386,5.8608],[102.1352,5.8671],[102.1379,5.8764],[102.1367,5.8857],[102.1319,5.8923],[102.1249,5.8925],[102.1253,5.8957],[102.1108,5.8947],[102.1108,5.897],[102.1034,5.897],[102.1006,5.8997],[102.0944,5.8939],[102.0915,5.8951],[102.0875,5.893],[102.0577,5.8921],[102.0517,5.8946],[102.034,5.8949],[102.0081,5.9149],[102.0056,5.9209],[101.999,5.9206],[101.9855,5.9326],[101.9752,5.9351],[101.9617,5.9241]]]}},{"type":"Feature","properties":{"c":"N.29","n":"Selising","w":"PN","p":"PAS","cand":"Tuan Mohd Saripudin bin Tuan Ismail","pct":69.1},"geometry":{"type":"Polygon","coordinates":[[[102.2835,5.9388],[102.2805,5.9376],[102.2819,5.9312],[102.2726,5.9306],[102.2748,5.9112],[102.2716,5.906],[102.2751,5.9043],[102.2723,5.8999],[102.2651,5.898],[102.2652,5.8937],[102.2678,5.89],[102.28,5.8829],[102.2836,5.8751],[102.2812,5.8712],[102.2826,5.8674],[102.2776,5.8626],[102.2759,5.8563],[102.2788,5.8386],[102.2833,5.8296],[102.2796,5.8243],[102.2814,5.8236],[102.2803,5.8171],[102.2958,5.8023],[102.2995,5.8075],[102.2996,5.8327],[102.3062,5.8366],[102.3107,5.8365],[102.3181,5.8331],[102.3205,5.827],[102.3248,5.8267],[102.3282,5.8294],[102.3248,5.8395],[102.3295,5.8564],[102.3392,5.8579],[102.3415,5.8611],[102.3486,5.8622],[102.3521,5.8655],[102.3611,5.8657],[102.3635,5.8744],[102.3624,5.8825],[102.365,5.8885],[102.3631,5.889],[102.3633,5.8922],[102.374,5.8933],[102.3745,5.9053],[102.3766,5.9084],[102.374,5.9082],[102.3694,5.9143],[102.3664,5.913],[102.3652,5.9184],[102.3477,5.9407],[102.3381,5.9379],[102.3373,5.9357],[102.3304,5.9353],[102.3265,5.9376],[102.3076,5.9388],[102.3035,5.9353],[102.2958,5.9354],[102.2953,5.9402],[102.2835,5.9388]]]}},{"type":"Feature","properties":{"c":"N.30","n":"Limbongan","w":"PN","p":"PAS","cand":"Nor Asilah binti Mohamed Zin","pct":73.0},"geometry":{"type":"Polygon","coordinates":[[[102.3766,5.9084],[102.3745,5.9053],[102.374,5.8933],[102.3633,5.8922],[102.3631,5.889],[102.365,5.8885],[102.3624,5.8825],[102.3635,5.8744],[102.3611,5.8657],[102.3521,5.8655],[102.3486,5.8622],[102.3415,5.8611],[102.3392,5.8579],[102.3295,5.8564],[102.3248,5.8395],[102.3282,5.8294],[102.3248,5.8267],[102.3205,5.827],[102.3181,5.8331],[102.3107,5.8365],[102.3062,5.8366],[102.2996,5.8327],[102.2995,5.8075],[102.3023,5.8096],[102.3056,5.8038],[102.3265,5.8012],[102.3291,5.8045],[102.339,5.7944],[102.343,5.7962],[102.3444,5.804],[102.3459,5.8026],[102.3495,5.8088],[102.3603,5.8036],[102.3626,5.8072],[102.3653,5.8068],[102.3666,5.8044],[102.3778,5.8028],[102.3917,5.7947],[102.3988,5.8019],[102.4036,5.8011],[102.4245,5.816],[102.4191,5.823],[102.4192,5.8354],[102.4127,5.8353],[102.4112,5.8384],[102.4158,5.8406],[102.4144,5.8454],[102.419,5.8533],[102.4168,5.8555],[102.4146,5.8523],[102.4063,5.8524],[102.403,5.8553],[102.4062,5.8643],[102.4098,5.8667],[102.4099,5.8698],[102.4029,5.8729],[102.407,5.8738],[102.4021,5.8783],[102.4051,5.8838],[102.397,5.8899],[102.3912,5.8903],[102.3857,5.9007],[102.3827,5.9005],[102.3822,5.9072],[102.3792,5.9095],[102.3766,5.9084]]]}},{"type":"Feature","properties":{"c":"N.31","n":"Semerak","w":"PN","p":"PAS","cand":"Nor Sham bin Sulaiman (Norsham Cikgu Abang)","pct":66.9},"geometry":{"type":"Polygon","coordinates":[[[102.4485,5.9057],[102.434,5.9009],[102.4239,5.8918],[102.4051,5.8838],[102.4021,5.8783],[102.407,5.8738],[102.4029,5.8729],[102.4099,5.8698],[102.4098,5.8667],[102.4062,5.8643],[102.403,5.8553],[102.4063,5.8524],[102.4146,5.8523],[102.4168,5.8555],[102.419,5.8533],[102.4144,5.8454],[102.4158,5.8406],[102.4112,5.8384],[102.4127,5.8353],[102.4261,5.8374],[102.4269,5.8344],[102.4243,5.8321],[102.4344,5.8357],[102.4374,5.8308],[102.4331,5.8214],[102.4362,5.8145],[102.4453,5.8087],[102.4459,5.8039],[102.4423,5.8035],[102.4396,5.7998],[102.4386,5.7912],[102.4557,5.7835],[102.466,5.7843],[102.4679,5.7865],[102.4754,5.7799],[102.4892,5.7913],[102.5355,5.8463],[102.4822,5.8986],[102.4703,5.9166],[102.4485,5.9057]]]}},{"type":"Feature","properties":{"c":"N.32","n":"Gaal","w":"PN","p":"PAS","cand":"Mohd Rodzi bin Ja'afar","pct":72.6},"geometry":{"type":"Polygon","coordinates":[[[102.3056,5.8038],[102.3066,5.7965],[102.3033,5.7938],[102.3028,5.7822],[102.3108,5.7815],[102.3112,5.7737],[102.3142,5.7711],[102.3127,5.7604],[102.3161,5.756],[102.3229,5.7546],[102.328,5.748],[102.3329,5.7516],[102.3404,5.7521],[102.3459,5.7471],[102.3481,5.7495],[102.353,5.7491],[102.353,5.7458],[102.3591,5.7457],[102.362,5.7501],[102.3668,5.7509],[102.377,5.7417],[102.3808,5.746],[102.3772,5.7517],[102.3763,5.7593],[102.3789,5.7614],[102.375,5.7665],[102.3854,5.773],[102.3893,5.7725],[102.3901,5.7699],[102.3989,5.7732],[102.4017,5.7728],[102.4015,5.7672],[102.4,5.7596],[102.3948,5.7593],[102.3974,5.7567],[102.3959,5.7473],[102.3988,5.749],[102.4001,5.7535],[102.4033,5.7531],[102.4059,5.7557],[102.4093,5.7531],[102.4062,5.7399],[102.4115,5.7414],[102.4157,5.7472],[102.428,5.7437],[102.4283,5.7471],[102.4341,5.7473],[102.4754,5.7799],[102.4679,5.7865],[102.466,5.7843],[102.4557,5.7835],[102.4386,5.7912],[102.4396,5.7998],[102.4423,5.8035],[102.4459,5.8039],[102.4453,5.8087],[102.4362,5.8145],[102.4331,5.8214],[102.4374,5.8308],[102.4344,5.8357],[102.4262,5.8315],[102.424,5.8331],[102.4269,5.8344],[102.4261,5.8374],[102.4192,5.8354],[102.4191,5.823],[102.4245,5.816],[102.4036,5.8011],[102.3988,5.8019],[102.3917,5.7947],[102.3778,5.8028],[102.3666,5.8044],[102.3626,5.8072],[102.3603,5.8036],[102.3495,5.8088],[102.3459,5.8026],[102.3444,5.804],[102.343,5.7962],[102.339,5.7944],[102.3291,5.8045],[102.3265,5.8012],[102.3056,5.8038]]]}},{"type":"Feature","properties":{"c":"N.33","n":"Pulai Chondong","w":"PN","p":"PAS","cand":"Azhar bin Salleh","pct":67.5},"geometry":{"type":"Polygon","coordinates":[[[102.1843,5.8866],[102.1789,5.8564],[102.1841,5.8489],[102.1832,5.8433],[102.1776,5.8367],[102.1699,5.8328],[102.1653,5.8225],[102.1731,5.8115],[102.1777,5.8152],[102.1853,5.8159],[102.1902,5.8097],[102.1973,5.8085],[102.198,5.8062],[102.2036,5.8074],[102.2033,5.8001],[102.2157,5.8],[102.2159,5.796],[102.2204,5.7964],[102.2227,5.7996],[102.2269,5.7974],[102.2323,5.7983],[102.2298,5.7961],[102.2315,5.783],[102.2396,5.7828],[102.2425,5.7784],[102.2623,5.7794],[102.275,5.7752],[102.2752,5.779],[102.2811,5.7796],[102.305,5.7717],[102.3052,5.7737],[102.3112,5.7737],[102.3108,5.7815],[102.3028,5.7822],[102.3022,5.785],[102.3043,5.789],[102.3033,5.7938],[102.3066,5.7965],[102.3047,5.808],[102.3023,5.8096],[102.2972,5.8058],[102.298,5.8035],[102.2944,5.8023],[102.2806,5.8159],[102.2814,5.8236],[102.2796,5.8243],[102.2833,5.8296],[102.2788,5.8386],[102.2759,5.8563],[102.2776,5.8626],[102.2826,5.8674],[102.2812,5.8712],[102.2836,5.8751],[102.28,5.8829],[102.257,5.8992],[102.257,5.8922],[102.2429,5.8969],[102.2427,5.889],[102.2386,5.8885],[102.2387,5.8947],[102.2264,5.8952],[102.2163,5.9013],[102.2174,5.9035],[102.2119,5.9073],[102.2096,5.9058],[102.2073,5.9088],[102.2104,5.9136],[102.1984,5.9153],[102.1843,5.8866]]]}},{"type":"Feature","properties":{"c":"N.34","n":"Temangan","w":"PN","p":"PAS","cand":"Mohamed Fadzli bin Hassan","pct":73.3},"geometry":{"type":"Polygon","coordinates":[[[102.1513,5.7646],[102.1477,5.7562],[102.1504,5.7351],[102.1438,5.719],[102.149,5.7045],[102.1471,5.6894],[102.1434,5.688],[102.1273,5.6935],[102.1152,5.6921],[102.1099,5.6886],[102.1082,5.6815],[102.1075,5.6624],[102.1146,5.6399],[102.1228,5.6272],[102.1401,5.6381],[102.161,5.6436],[102.1593,5.6507],[102.1642,5.6513],[102.1655,5.6381],[102.169,5.6327],[102.1716,5.6331],[102.172,5.6295],[102.1826,5.6376],[102.1963,5.6348],[102.1916,5.6464],[102.2021,5.6493],[102.1994,5.6522],[102.1963,5.6507],[102.1965,5.6581],[102.1914,5.6693],[102.1963,5.6693],[102.1978,5.6833],[102.2034,5.6859],[102.2028,5.6879],[102.2144,5.689],[102.2119,5.6996],[102.2173,5.7121],[102.2131,5.7132],[102.2156,5.7203],[102.2148,5.7321],[102.2122,5.7321],[102.2102,5.7459],[102.2022,5.7625],[102.1993,5.7637],[102.1938,5.7786],[102.1956,5.7829],[102.2039,5.7826],[102.2022,5.7931],[102.2042,5.7967],[102.2036,5.8074],[102.198,5.8062],[102.1973,5.8085],[102.1902,5.8097],[102.1853,5.8159],[102.1777,5.8152],[102.1731,5.8115],[102.1725,5.7994],[102.1546,5.7861],[102.1513,5.7646]]]}},{"type":"Feature","properties":{"c":"N.35","n":"Kemuning","w":"PN","p":"PAS","cand":"Ahmad Zakhran bin Mat Noor","pct":63.8},"geometry":{"type":"Polygon","coordinates":[[[102.3112,5.7737],[102.3052,5.7737],[102.305,5.7717],[102.2811,5.7796],[102.2752,5.779],[102.275,5.7752],[102.2623,5.7794],[102.2425,5.7784],[102.2396,5.7828],[102.2315,5.783],[102.2298,5.7961],[102.2323,5.7983],[102.2269,5.7974],[102.2227,5.7996],[102.2204,5.7964],[102.2159,5.796],[102.2157,5.8],[102.2033,5.8001],[102.2039,5.7826],[102.1956,5.7829],[102.1938,5.7786],[102.1993,5.7637],[102.2022,5.7625],[102.2102,5.7459],[102.2122,5.7321],[102.2148,5.7321],[102.2156,5.7203],[102.2131,5.7132],[102.2173,5.7121],[102.2119,5.6996],[102.2144,5.689],[102.2061,5.6892],[102.1978,5.6833],[102.1963,5.6693],[102.2207,5.6644],[102.2231,5.6614],[102.2429,5.6705],[102.2446,5.6609],[102.2779,5.654],[102.282,5.6552],[102.2813,5.6593],[102.284,5.6599],[102.2848,5.6634],[102.2912,5.6663],[102.3034,5.663],[102.3044,5.6667],[102.3102,5.6701],[102.3306,5.6636],[102.3355,5.6703],[102.3412,5.6712],[102.3471,5.6677],[102.3608,5.6697],[102.3666,5.6748],[102.3696,5.6822],[102.3804,5.6827],[102.3802,5.6933],[102.392,5.6997],[102.3965,5.6962],[102.4036,5.7123],[102.4114,5.7207],[102.4161,5.7207],[102.4176,5.727],[102.4326,5.7463],[102.4283,5.7471],[102.428,5.7437],[102.4238,5.7439],[102.4203,5.7473],[102.4157,5.7472],[102.4115,5.7414],[102.4062,5.7399],[102.4093,5.7531],[102.4059,5.7557],[102.4033,5.7531],[102.4001,5.7535],[102.3988,5.749],[102.3959,5.7473],[102.3974,5.7567],[102.3948,5.7593],[102.4,5.7596],[102.4015,5.7672],[102.4017,5.7728],[102.3989,5.7732],[102.3901,5.7699],[102.3893,5.7725],[102.3854,5.773],[102.375,5.7665],[102.3789,5.7614],[102.3763,5.7593],[102.3772,5.7517],[102.3808,5.746],[102.377,5.7417],[102.3668,5.7509],[102.362,5.7501],[102.3591,5.7457],[102.353,5.7458],[102.353,5.7491],[102.3481,5.7495],[102.3459,5.7471],[102.3404,5.7521],[102.3329,5.7516],[102.328,5.748],[102.3229,5.7546],[102.3161,5.756],[102.3127,5.7604],[102.3142,5.7711],[102.3112,5.7737]]]}},{"type":"Feature","properties":{"c":"N.36","n":"Bukit Bunga","w":"PN","p":"BERSATU","cand":"Mohd Almidi bin Jaafar","pct":66.1},"geometry":{"type":"Polygon","coordinates":[[[101.9325,5.9054],[101.9409,5.8892],[101.9403,5.8789],[101.9442,5.8725],[101.9384,5.8617],[101.936,5.8633],[101.9304,5.8605],[101.9275,5.8553],[101.9302,5.8533],[101.9169,5.842],[101.9057,5.8409],[101.8994,5.844],[101.8971,5.8426],[101.896,5.8454],[101.8924,5.8381],[101.8873,5.8389],[101.8805,5.8324],[101.8769,5.8202],[101.8805,5.8112],[101.8849,5.8093],[101.8856,5.8014],[101.8927,5.7938],[101.8942,5.797],[101.9108,5.7952],[101.9096,5.7899],[101.9125,5.7847],[101.9124,5.7739],[101.9141,5.7739],[101.9122,5.7528],[101.9155,5.7539],[101.9193,5.7511],[101.9179,5.749],[101.9225,5.7425],[101.9242,5.7301],[101.9272,5.7303],[101.9272,5.7331],[101.9316,5.7333],[101.9392,5.7259],[101.9374,5.7228],[101.9395,5.7067],[101.9316,5.6891],[101.931,5.6768],[101.9239,5.669],[101.9288,5.6662],[101.9317,5.6595],[101.9459,5.6609],[101.971,5.6496],[101.9771,5.6527],[101.9666,5.6745],[101.9613,5.6798],[101.9591,5.6895],[101.9601,5.6963],[101.9571,5.7035],[101.9723,5.7169],[101.968,5.7246],[101.9688,5.7274],[101.9809,5.7312],[101.9904,5.7298],[102.0055,5.7387],[102.0062,5.7442],[102.0125,5.7525],[102.0114,5.7585],[102.0156,5.7627],[102.0132,5.7682],[102.0163,5.7711],[102.0119,5.7783],[102.0132,5.7849],[102.0075,5.8037],[102.0103,5.8092],[102.0266,5.8204],[102.0213,5.8303],[101.9948,5.8297],[101.992,5.8481],[101.9828,5.8546],[101.9783,5.8543],[101.9756,5.8628],[101.9772,5.8663],[101.9736,5.87],[101.9618,5.903],[101.9617,5.9241],[101.9392,5.9046],[101.9342,5.9073],[101.9325,5.9054]]]}},{"type":"Feature","properties":{"c":"N.37","n":"Air Lanas","w":"PN","p":"BERSATU","cand":"Kamarudin bin Mohd Nor","pct":67.8},"geometry":{"type":"Polygon","coordinates":[[[101.6892,5.7266],[101.6967,5.723],[101.7149,5.734],[101.7218,5.7344],[101.7393,5.7283],[101.7395,5.7185],[101.7438,5.7175],[101.7456,5.682],[101.768,5.6814],[101.7727,5.6873],[101.7753,5.6973],[101.7885,5.6984],[101.7941,5.7017],[101.7993,5.696],[101.801,5.6738],[101.7954,5.6682],[101.7877,5.6665],[101.79,5.66],[101.7762,5.6417],[101.7768,5.6348],[101.7807,5.6325],[101.7854,5.6219],[101.7911,5.6162],[101.7959,5.6181],[101.7996,5.6229],[101.8071,5.6238],[101.8123,5.6322],[101.8188,5.6335],[101.8228,5.6371],[101.8339,5.6221],[101.8356,5.6155],[101.8436,5.6144],[101.8511,5.6179],[101.8604,5.6178],[101.8645,5.6209],[101.8713,5.6197],[101.8799,5.6224],[101.8801,5.6298],[101.8834,5.632],[101.8871,5.631],[101.8911,5.6342],[101.9011,5.6264],[101.9011,5.6235],[101.9104,5.6201],[101.918,5.6225],[101.9302,5.6204],[101.9364,5.6231],[101.9428,5.6169],[101.9436,5.6107],[101.9467,5.6107],[101.9483,5.6223],[101.9518,5.6272],[101.961,5.623],[101.9677,5.6276],[101.9681,5.646],[101.971,5.6496],[101.9459,5.6609],[101.9317,5.6595],[101.9288,5.6662],[101.9239,5.669],[101.931,5.6768],[101.9316,5.6891],[101.9395,5.7067],[101.9374,5.7228],[101.9392,5.7259],[101.9316,5.7333],[101.9272,5.7331],[101.9272,5.7303],[101.9242,5.7301],[101.9225,5.7425],[101.9179,5.749],[101.9193,5.7511],[101.9155,5.7539],[101.9122,5.7528],[101.9141,5.7739],[101.9124,5.7739],[101.9125,5.7847],[101.9096,5.7899],[101.9108,5.7952],[101.8942,5.797],[101.8927,5.7938],[101.8856,5.8014],[101.8849,5.8093],[101.8824,5.811],[101.8726,5.8027],[101.8699,5.8046],[101.8679,5.802],[101.8667,5.8036],[101.8618,5.8014],[101.8664,5.7907],[101.8573,5.7932],[101.8438,5.7889],[101.8427,5.791],[101.8364,5.7893],[101.8187,5.7555],[101.8246,5.7515],[101.8273,5.7359],[101.8255,5.733],[101.816,5.7332],[101.8093,5.7434],[101.8038,5.7446],[101.7989,5.7505],[101.7929,5.7507],[101.7897,5.7534],[101.7765,5.7656],[101.7742,5.7735],[101.7762,5.7844],[101.7657,5.7896],[101.761,5.7952],[101.753,5.7969],[101.7483,5.7929],[101.7447,5.794],[101.7445,5.788],[101.7387,5.7814],[101.7331,5.7847],[101.7265,5.7844],[101.7229,5.7799],[101.7198,5.7882],[101.7181,5.7878],[101.7155,5.764],[101.7104,5.7624],[101.7074,5.7552],[101.7002,5.752],[101.6919,5.7547],[101.6907,5.7464],[101.6937,5.7307],[101.6892,5.7266]]]}},{"type":"Feature","properties":{"c":"N.38","n":"Kuala Balah","w":"PN","p":"PAS","cand":"Abdul Hadi bin Awang Kechil","pct":63.3},"geometry":{"type":"Polygon","coordinates":[[[101.7401,5.3984],[101.854,5.3528],[101.9056,5.348],[101.9441,5.4003],[101.9507,5.4047],[101.9541,5.4119],[101.9572,5.411],[101.9776,5.4359],[101.9632,5.4343],[101.9608,5.4556],[101.9901,5.4579],[101.9921,5.4622],[101.9896,5.4732],[101.9957,5.475],[101.9898,5.5036],[101.9907,5.5095],[101.9942,5.5107],[101.9922,5.5184],[101.9964,5.5293],[101.9911,5.5308],[101.9882,5.5288],[101.987,5.535],[101.9811,5.5412],[101.9754,5.5414],[101.9749,5.537],[101.9717,5.5375],[101.9664,5.545],[101.966,5.5501],[101.9702,5.5504],[101.9751,5.5563],[101.9731,5.5688],[101.9692,5.5706],[101.9661,5.5788],[101.9676,5.5804],[101.9642,5.595],[101.9558,5.5992],[101.9508,5.5989],[101.9494,5.6061],[101.9467,5.6107],[101.9436,5.6107],[101.9428,5.6169],[101.9364,5.6231],[101.9302,5.6204],[101.918,5.6225],[101.9104,5.6201],[101.9011,5.6235],[101.9011,5.6264],[101.8911,5.6342],[101.8871,5.631],[101.8834,5.632],[101.8801,5.6298],[101.8799,5.6224],[101.8713,5.6197],[101.8645,5.6209],[101.8604,5.6178],[101.8511,5.6179],[101.8436,5.6144],[101.8356,5.6155],[101.8339,5.6221],[101.8228,5.6371],[101.8188,5.6335],[101.8123,5.6322],[101.8071,5.6238],[101.7996,5.6229],[101.7959,5.6181],[101.7911,5.6162],[101.7854,5.6219],[101.7807,5.6325],[101.7768,5.6348],[101.7762,5.6417],[101.79,5.66],[101.7877,5.6665],[101.7954,5.6682],[101.801,5.6738],[101.7993,5.696],[101.7941,5.7017],[101.7885,5.6984],[101.7753,5.6973],[101.7727,5.6873],[101.768,5.6814],[101.7456,5.682],[101.7438,5.7175],[101.7395,5.7185],[101.7393,5.7283],[101.7218,5.7344],[101.7149,5.734],[101.6967,5.723],[101.6892,5.7266],[101.6922,5.7204],[101.6917,5.7096],[101.6952,5.7028],[101.6881,5.6923],[101.6854,5.6931],[101.6641,5.6675],[101.6599,5.6683],[101.6584,5.6615],[101.6605,5.66],[101.6605,5.6544],[101.6569,5.6428],[101.6577,5.6389],[101.6614,5.6375],[101.6631,5.6309],[101.6547,5.6201],[101.6567,5.6136],[101.6506,5.6134],[101.6547,5.6058],[101.6886,5.5867],[101.6713,5.5464],[101.656,5.5208],[101.6646,5.5074],[101.6738,5.5114],[101.6804,5.5106],[101.6831,5.5054],[101.6905,5.5033],[101.6932,5.4985],[101.6973,5.4999],[101.7027,5.5081],[101.7209,5.5128],[101.7231,5.5001],[101.7294,5.497],[101.7333,5.5047],[101.7407,5.5096],[101.7483,5.4999],[101.7492,5.4827],[101.7472,5.4712],[101.7346,5.4583],[101.74,5.4521],[101.7393,5.4291],[101.7445,5.42],[101.7401,5.3984]]]}},{"type":"Feature","properties":{"c":"N.39","n":"Mengkebang","w":"PN","p":"PAS","cand":"Zubir bin Abu Bakar","pct":78.6},"geometry":{"type":"Polygon","coordinates":[[[102.0329,5.5179],[102.0363,5.5137],[102.0398,5.5152],[102.0403,5.519],[102.049,5.5214],[102.0506,5.518],[102.0564,5.5186],[102.0608,5.5126],[102.0656,5.511],[102.0668,5.5052],[102.0835,5.5018],[102.0901,5.4899],[102.1084,5.5177],[102.108,5.524],[102.1126,5.5232],[102.1365,5.5519],[102.1428,5.5498],[102.1568,5.5523],[102.161,5.5506],[102.1546,5.5645],[102.1532,5.5735],[102.151,5.5716],[102.1482,5.5727],[102.15,5.5777],[102.153,5.5756],[102.1578,5.577],[102.1729,5.559],[102.1825,5.5571],[102.1829,5.5587],[102.19,5.557],[102.2021,5.5632],[102.2091,5.5641],[102.2104,5.5617],[102.2221,5.5605],[102.2356,5.5673],[102.2334,5.5576],[102.245,5.5576],[102.246,5.5611],[102.2509,5.5618],[102.2708,5.561],[102.2684,5.548],[102.2761,5.5306],[102.2763,5.5173],[102.2728,5.5071],[102.276,5.4986],[102.2786,5.4982],[102.2773,5.4931],[102.2857,5.4923],[102.2889,5.485],[102.2954,5.4867],[102.3018,5.4835],[102.3018,5.4732],[102.3068,5.4697],[102.3055,5.457],[102.3304,5.4449],[102.3385,5.4501],[102.3403,5.4539],[102.3449,5.454],[102.3547,5.4685],[102.3603,5.4715],[102.3668,5.4793],[102.3792,5.4784],[102.3808,5.4825],[102.3904,5.4861],[102.393,5.4995],[102.3808,5.5187],[102.3828,5.5237],[102.3906,5.5225],[102.3983,5.5289],[102.4025,5.5419],[102.4077,5.5445],[102.4025,5.5691],[102.3964,5.5821],[102.397,5.6053],[102.4023,5.6139],[102.3926,5.6297],[102.387,5.6341],[102.3906,5.6403],[102.3866,5.6536],[102.3858,5.6776],[102.3804,5.6827],[102.3696,5.6822],[102.3666,5.6748],[102.3608,5.6697],[102.3471,5.6677],[102.3412,5.6712],[102.3355,5.6703],[102.3306,5.6636],[102.3102,5.6701],[102.3044,5.6667],[102.3034,5.663],[102.2912,5.6663],[102.2848,5.6634],[102.284,5.6599],[102.2813,5.6593],[102.282,5.6552],[102.2779,5.654],[102.2446,5.6609],[102.2429,5.6705],[102.2231,5.6614],[102.2207,5.6644],[102.1914,5.6693],[102.1965,5.6581],[102.1963,5.6507],[102.1994,5.6522],[102.2021,5.6493],[102.1916,5.6464],[102.1963,5.6348],[102.1826,5.6376],[102.172,5.6295],[102.1716,5.6331],[102.169,5.6327],[102.1655,5.6381],[102.1642,5.6513],[102.1593,5.6507],[102.161,5.6436],[102.1401,5.6381],[102.1228,5.6272],[102.1146,5.6399],[102.1123,5.6391],[102.1079,5.6319],[102.1078,5.625],[102.0974,5.6217],[102.0958,5.617],[102.1013,5.5992],[102.0958,5.5945],[102.0895,5.5939],[102.0891,5.5864],[102.0766,5.5814],[102.0751,5.5833],[102.066,5.5821],[102.0611,5.5845],[102.0547,5.5808],[102.0469,5.5716],[102.0457,5.5588],[102.0412,5.5534],[102.0355,5.5516],[102.0392,5.5447],[102.0306,5.5334],[102.0329,5.5179]]]}},{"type":"Feature","properties":{"c":"N.40","n":"Guchil","w":"PN","p":"PAS","cand":"Hilmi bin Abdullah (Lawyer Mie)","pct":70.5},"geometry":{"type":"Polygon","coordinates":[[[102.0901,5.4899],[102.0937,5.4896],[102.0939,5.4848],[102.0971,5.4842],[102.0973,5.4664],[102.1058,5.4611],[102.1078,5.4561],[102.1023,5.4471],[102.1041,5.4408],[102.1078,5.4358],[102.1139,5.4339],[102.1174,5.4364],[102.1272,5.4335],[102.131,5.4233],[102.1339,5.4232],[102.1672,5.4541],[102.1726,5.4536],[102.1764,5.4575],[102.1812,5.4533],[102.18,5.4509],[102.1835,5.4491],[102.1943,5.4493],[102.2091,5.4292],[102.2125,5.4376],[102.2123,5.4518],[102.228,5.4505],[102.2296,5.4452],[102.2405,5.4459],[102.2395,5.4505],[102.2335,5.4549],[102.2337,5.4654],[102.2302,5.4678],[102.2325,5.4757],[102.2385,5.4738],[102.2425,5.4758],[102.2416,5.4866],[102.2436,5.488],[102.2515,5.4841],[102.2591,5.484],[102.2614,5.4928],[102.2669,5.4909],[102.2694,5.4936],[102.2773,5.4931],[102.2784,5.4948],[102.2786,5.4982],[102.276,5.4986],[102.2728,5.5071],[102.2763,5.5173],[102.2761,5.5306],[102.2684,5.548],[102.2708,5.561],[102.2509,5.5618],[102.246,5.5611],[102.245,5.5576],[102.2334,5.5576],[102.2356,5.5673],[102.2221,5.5605],[102.2104,5.5617],[102.2091,5.5641],[102.2021,5.5632],[102.19,5.557],[102.1829,5.5587],[102.1825,5.5571],[102.1729,5.559],[102.1578,5.577],[102.153,5.5756],[102.15,5.5777],[102.1482,5.5727],[102.151,5.5716],[102.1532,5.5735],[102.1546,5.5645],[102.161,5.5506],[102.1568,5.5523],[102.1428,5.5498],[102.1365,5.5519],[102.1126,5.5232],[102.108,5.524],[102.1084,5.5177],[102.0901,5.4899]]]}},{"type":"Feature","properties":{"c":"N.41","n":"Manek Urai","w":"PN","p":"PAS","cand":"Mohd Fauzi bin Abdullah (Abe Uji)","pct":78.3},"geometry":{"type":"Polygon","coordinates":[[[102.2773,5.4931],[102.2721,5.4942],[102.2669,5.4909],[102.2614,5.4928],[102.2591,5.484],[102.2515,5.4841],[102.2436,5.488],[102.2416,5.4866],[102.2425,5.4758],[102.2385,5.4738],[102.2325,5.4757],[102.2302,5.4678],[102.2337,5.4654],[102.2335,5.4549],[102.2395,5.4505],[102.2405,5.4459],[102.2296,5.4452],[102.228,5.4505],[102.2123,5.4518],[102.2125,5.4376],[102.2091,5.4292],[102.1943,5.4493],[102.1835,5.4491],[102.18,5.4509],[102.1812,5.4533],[102.1764,5.4575],[102.1726,5.4536],[102.1672,5.4541],[102.1339,5.4232],[102.1368,5.4219],[102.1378,5.4181],[102.1408,5.4177],[102.1441,5.4206],[102.1571,5.4049],[102.1558,5.402],[102.1577,5.397],[102.1623,5.3969],[102.1714,5.3906],[102.1776,5.3735],[102.1877,5.3715],[102.1992,5.3626],[102.2011,5.3633],[102.2049,5.3572],[102.2077,5.3573],[102.2101,5.3531],[102.2091,5.3476],[102.2305,5.3441],[102.233,5.3478],[102.2426,5.3499],[102.252,5.3448],[102.2516,5.3307],[102.2548,5.3261],[102.2582,5.3096],[102.2717,5.3011],[102.2679,5.2935],[102.2667,5.274],[102.2733,5.2656],[102.2835,5.2589],[102.2837,5.2542],[102.2936,5.2548],[102.3513,5.2938],[102.4184,5.2991],[102.4224,5.3196],[102.4296,5.3222],[102.4276,5.3374],[102.4292,5.348],[102.4266,5.3516],[102.4286,5.3568],[102.4364,5.3565],[102.4427,5.3601],[102.4376,5.3728],[102.4286,5.3714],[102.4197,5.3852],[102.4201,5.3928],[102.4151,5.3904],[102.4115,5.392],[102.4087,5.3972],[102.4043,5.3968],[102.3987,5.4],[102.3894,5.4122],[102.385,5.411],[102.385,5.427],[102.3928,5.4262],[102.4019,5.4396],[102.3972,5.4548],[102.4005,5.4626],[102.3946,5.4716],[102.3884,5.4762],[102.3904,5.4861],[102.3808,5.4825],[102.3792,5.4784],[102.3668,5.4793],[102.3603,5.4715],[102.3547,5.4685],[102.3449,5.454],[102.3403,5.4539],[102.3385,5.4501],[102.3304,5.4449],[102.3055,5.457],[102.3068,5.4697],[102.3018,5.4732],[102.3018,5.4835],[102.2954,5.4867],[102.2889,5.485],[102.2857,5.4923],[102.2773,5.4931]]]}},{"type":"Feature","properties":{"c":"N.42","n":"Dabong","w":"PN","p":"PAS","cand":"Ku Mohd Zaki bin Ku Hussin (Tok Ime Ku Zaki)","pct":63.4},"geometry":{"type":"Polygon","coordinates":[[[101.7398,5.3967],[101.7883,5.3586],[101.8227,5.2884],[101.884,5.2668],[102.0133,5.1903],[102.0126,5.1865],[102.0758,5.1756],[102.1404,5.175],[102.1334,5.2546],[102.2539,5.2523],[102.2837,5.2542],[102.2835,5.2589],[102.2733,5.2656],[102.2667,5.274],[102.2679,5.2935],[102.2717,5.3011],[102.2582,5.3096],[102.2548,5.3261],[102.2516,5.3307],[102.252,5.3448],[102.2426,5.3499],[102.233,5.3478],[102.2305,5.3441],[102.2091,5.3476],[102.2101,5.3531],[102.2077,5.3573],[102.2023,5.3592],[102.2011,5.3633],[102.1992,5.3626],[102.1877,5.3715],[102.1776,5.3735],[102.1714,5.3906],[102.1623,5.3969],[102.1577,5.397],[102.1558,5.402],[102.1571,5.4049],[102.1441,5.4206],[102.1408,5.4177],[102.1378,5.4181],[102.1368,5.4219],[102.131,5.4233],[102.1272,5.4335],[102.1174,5.4364],[102.1139,5.4339],[102.1078,5.4358],[102.1041,5.4408],[102.1023,5.4471],[102.1078,5.4561],[102.1058,5.4611],[102.0973,5.4664],[102.0971,5.4842],[102.0939,5.4848],[102.0937,5.4896],[102.0901,5.4899],[102.0835,5.5018],[102.0668,5.5052],[102.0656,5.511],[102.0608,5.5126],[102.0564,5.5186],[102.0506,5.518],[102.049,5.5214],[102.0403,5.519],[102.0398,5.5152],[102.0363,5.5137],[102.0329,5.5179],[102.0167,5.512],[102.0151,5.5177],[102.0126,5.5177],[102.0055,5.525],[102.0012,5.533],[101.9964,5.5293],[101.9922,5.5184],[101.9942,5.5107],[101.9907,5.5095],[101.9898,5.5036],[101.9957,5.475],[101.9896,5.4732],[101.9921,5.4622],[101.9901,5.4579],[101.9608,5.4556],[101.9632,5.4343],[101.9776,5.4359],[101.9572,5.411],[101.9541,5.4119],[101.9507,5.4047],[101.9441,5.4003],[101.9056,5.348],[101.854,5.3528],[101.7401,5.3984],[101.7398,5.3967]]]}},{"type":"Feature","properties":{"c":"N.43","n":"Nenggiri","w":"PN","p":"BERSATU","cand":"Mohd Azizi bin Abu Naim","pct":53.3},"geometry":{"type":"Polygon","coordinates":[[[101.4818,5.1163],[101.4903,5.1081],[101.5277,5.085],[101.531,5.0787],[101.5333,5.0796],[101.5518,5.0654],[101.5686,5.0576],[101.5811,5.0569],[101.5858,5.0595],[101.5939,5.0595],[101.608,5.0477],[101.6342,5.0194],[101.672,4.9996],[101.6819,4.9973],[101.6976,4.9871],[101.7104,4.9753],[101.7383,4.9774],[101.7572,4.9882],[101.7705,4.9926],[101.7659,5.0073],[101.7609,5.0076],[101.7666,5.0183],[101.7636,5.022],[101.7842,5.021],[101.7957,5.017],[101.7995,5.0182],[101.8051,5.0092],[101.8344,5.0028],[101.8427,4.998],[101.852,4.998],[101.8575,5.0078],[101.8662,5.0096],[101.9049,5.0098],[101.9098,5.0076],[101.8778,4.9915],[101.8614,4.9594],[101.8789,4.9339],[101.9015,4.9304],[101.9086,4.9345],[101.9203,4.9311],[101.9302,4.9358],[101.9358,4.9339],[101.9382,4.9239],[101.9529,4.9194],[101.9562,4.9131],[101.9707,4.9151],[101.9737,4.9081],[101.9784,4.9153],[101.9819,4.9122],[101.9944,4.9124],[102.004,4.9183],[102.0264,4.9166],[102.0326,4.9224],[102.0329,4.9153],[102.0561,4.909],[102.0558,4.9015],[102.0625,4.9016],[102.074,4.8949],[102.0792,4.8974],[102.0908,4.8946],[102.0972,4.8904],[102.1084,4.9042],[102.1184,4.9558],[102.1332,5.0032],[102.1374,5.004],[102.1354,5.006],[102.152,5.0694],[102.1497,5.0745],[102.1404,5.175],[102.0758,5.1756],[102.0126,5.1865],[102.0133,5.1903],[101.884,5.2668],[101.8227,5.2884],[101.7883,5.3586],[101.7398,5.3967],[101.7429,5.3804],[101.7526,5.3713],[101.7349,5.351],[101.7238,5.35],[101.7168,5.3446],[101.7026,5.3388],[101.6993,5.3304],[101.6779,5.3338],[101.6727,5.3242],[101.6664,5.3256],[101.6633,5.3345],[101.6545,5.3367],[101.6543,5.3408],[101.6461,5.3448],[101.6394,5.3385],[101.6277,5.341],[101.6255,5.3474],[101.6194,5.3512],[101.6153,5.3473],[101.6052,5.346],[101.5996,5.3306],[101.5883,5.329],[101.5827,5.3311],[101.5752,5.3279],[101.5719,5.3019],[101.5692,5.3001],[101.5734,5.2914],[101.5671,5.2849],[101.5602,5.2892],[101.5586,5.2828],[101.5474,5.2786],[101.5473,5.2629],[101.5345,5.2613],[101.5284,5.2722],[101.521,5.2679],[101.5197,5.2527],[101.5241,5.2507],[101.5219,5.2421],[101.51,5.2317],[101.5113,5.2229],[101.5161,5.2156],[101.5088,5.203],[101.5102,5.1989],[101.4974,5.186],[101.4854,5.165],[101.4895,5.162],[101.4818,5.1519],[101.4805,5.1432],[101.4866,5.1326],[101.4818,5.1163]]]}},{"type":"Feature","properties":{"c":"N.44","n":"Paloh","w":"PN","p":"BERSATU","cand":"Shaari bin Mat Hussain","pct":58.7},"geometry":{"type":"Polygon","coordinates":[[[102.2837,5.2542],[102.2539,5.2523],[102.1334,5.2546],[102.1497,5.0745],[102.152,5.0694],[102.1354,5.006],[102.1374,5.004],[102.1332,5.0032],[102.1184,4.9558],[102.1084,4.9042],[102.0638,4.846],[102.0317,4.7508],[102.0321,4.747],[102.0277,4.7415],[102.034,4.7324],[102.0407,4.731],[102.043,4.7263],[102.0506,4.7256],[102.0513,4.736],[102.058,4.7435],[102.063,4.7389],[102.0785,4.7453],[102.0947,4.7584],[102.1161,4.762],[102.1274,4.7372],[102.1245,4.7222],[102.1312,4.7125],[102.151,4.7016],[102.1746,4.6761],[102.1746,4.6589],[102.1832,4.6564],[102.1913,4.649],[102.1988,4.6375],[102.2111,4.6336],[102.2168,4.6293],[102.2348,4.6335],[102.2296,4.6454],[102.2338,4.6513],[102.2381,4.6494],[102.25,4.6567],[102.2588,4.6555],[102.2726,4.6621],[102.3189,4.6352],[102.3327,4.6386],[102.3358,4.6438],[102.3385,4.6411],[102.3444,4.6416],[102.343,4.6486],[102.3464,4.6573],[102.355,4.6657],[102.3644,4.6703],[102.3657,4.6782],[102.372,4.6843],[102.3714,4.6929],[102.3628,4.6969],[102.3624,4.7053],[102.3702,4.7118],[102.3761,4.7111],[102.3792,4.7145],[102.4018,4.7116],[102.4081,4.7164],[102.4299,4.7102],[102.4463,4.7139],[102.4587,4.7059],[102.4567,4.7019],[102.481,4.6861],[102.5003,4.6691],[102.506,4.6716],[102.5123,4.6686],[102.524,4.6788],[102.5298,4.6775],[102.5307,4.6865],[102.5352,4.6868],[102.5452,4.7012],[102.5456,4.7069],[102.5488,4.7118],[102.5577,4.7062],[102.5722,4.6904],[102.5812,4.6965],[102.5972,4.6877],[102.6041,4.6877],[102.6062,4.7021],[102.6008,4.7338],[102.5956,4.739],[102.605,4.76],[102.6032,4.7668],[102.5989,4.7708],[102.612,4.7805],[102.6304,4.7718],[102.6368,4.765],[102.6581,4.7595],[102.6642,4.7701],[102.6665,4.7801],[102.659,4.7918],[102.6595,4.8009],[102.6523,4.8127],[102.644,4.8133],[102.6462,4.826],[102.6525,4.8353],[102.6509,4.8457],[102.6478,4.8502],[102.644,4.8479],[102.6208,4.8624],[102.6149,4.862],[102.6062,4.8741],[102.5927,4.8732],[102.5863,4.8828],[102.5715,4.8957],[102.5359,4.9074],[102.5296,4.8961],[102.506,4.9031],[102.5132,4.92],[102.5134,4.9382],[102.5211,4.9416],[102.5208,4.9479],[102.5148,4.9486],[102.5139,4.9524],[102.5224,4.9606],[102.51,4.9707],[102.5076,4.9791],[102.5033,4.9816],[102.4995,4.9938],[102.5017,5.0015],[102.4988,5.0082],[102.5121,5.0092],[102.5202,5.0264],[102.5087,5.0483],[102.5141,5.0546],[102.503,5.0743],[102.4992,5.0761],[102.5053,5.0834],[102.5138,5.0842],[102.5188,5.0894],[102.5209,5.0983],[102.5292,5.1082],[102.5139,5.1281],[102.4875,5.1363],[102.4842,5.148],[102.4749,5.1578],[102.4574,5.17],[102.4445,5.1682],[102.4378,5.1797],[102.4144,5.1808],[102.4105,5.1833],[102.4198,5.1958],[102.4229,5.2048],[102.4209,5.223],[102.4144,5.23],[102.4173,5.242],[102.4155,5.2603],[102.4202,5.2736],[102.4157,5.2836],[102.4182,5.2886],[102.4152,5.2932],[102.4184,5.2991],[102.3513,5.2938],[102.2936,5.2548],[102.2837,5.2542]]]}},{"type":"Feature","properties":{"c":"N.45","n":"Galas","w":"BN","p":"UMNO","cand":"Mohd Syahbuddin bin Hashim (Abe Din)","pct":59.2},"geometry":{"type":"Polygon","coordinates":[[[101.4491,5.0149],[101.4472,5.0125],[101.4528,5.0052],[101.4483,5.0021],[101.4487,4.9974],[101.4456,4.9946],[101.4411,4.9964],[101.4327,4.9924],[101.4233,4.9842],[101.4232,4.9785],[101.4257,4.9731],[101.4472,4.9555],[101.4491,4.9471],[101.4455,4.9403],[101.4535,4.9209],[101.4547,4.9051],[101.4513,4.9007],[101.4535,4.8916],[101.4448,4.8784],[101.4365,4.8779],[101.4381,4.8687],[101.4465,4.8589],[101.4411,4.8556],[101.4357,4.8598],[101.4287,4.8572],[101.4242,4.8506],[101.4107,4.8556],[101.4098,4.851],[101.4124,4.844],[101.4021,4.8431],[101.4032,4.839],[101.4001,4.8336],[101.4151,4.8133],[101.4111,4.7986],[101.3958,4.7731],[101.398,4.7624],[101.3873,4.7642],[101.3746,4.7613],[101.3875,4.7231],[101.3792,4.7081],[101.3728,4.7075],[101.3708,4.7125],[101.3654,4.714],[101.3584,4.7072],[101.3506,4.7064],[101.3476,4.7131],[101.3434,4.7134],[101.3404,4.7072],[101.3407,4.7003],[101.335,4.6987],[101.3337,4.6953],[101.334,4.6842],[101.3462,4.672],[101.3499,4.6713],[101.3519,4.6641],[101.3578,4.6602],[101.3627,4.6501],[101.3645,4.6349],[101.3708,4.6347],[101.3767,4.6299],[101.3702,4.6212],[101.3738,4.6101],[101.386,4.6097],[101.3986,4.6138],[101.4012,4.6182],[101.4253,4.6052],[101.4377,4.5895],[101.4434,4.5869],[101.4469,4.5767],[101.4521,4.5733],[101.4734,4.5758],[101.477,4.5793],[101.4771,4.5902],[101.4807,4.6006],[101.4848,4.6017],[101.4886,4.5988],[101.4953,4.6017],[101.5014,4.6106],[101.5073,4.607],[101.5163,4.6072],[101.5169,4.6113],[101.5223,4.6113],[101.5237,4.6051],[101.5334,4.604],[101.5345,4.5999],[101.5437,4.5934],[101.548,4.5778],[101.5512,4.5751],[101.5631,4.5791],[101.5716,4.5744],[101.5789,4.5627],[101.5852,4.5627],[101.5858,4.5564],[101.591,4.5518],[101.5939,4.5579],[101.6075,4.5606],[101.6133,4.559],[101.6192,4.5466],[101.6245,4.5466],[101.6264,4.5505],[101.6353,4.5557],[101.636,4.5591],[101.6432,4.5563],[101.6531,4.5568],[101.6682,4.5706],[101.6687,4.583],[101.6747,4.5952],[101.6779,4.5938],[101.7112,4.6047],[101.7128,4.6101],[101.7164,4.6061],[101.7263,4.6104],[101.7243,4.6155],[101.7256,4.6212],[101.7319,4.6232],[101.7414,4.6124],[101.7475,4.6128],[101.7499,4.6101],[101.7546,4.6112],[101.7551,4.6194],[101.7528,4.6219],[101.7583,4.6244],[101.7628,4.6226],[101.7682,4.6364],[101.7688,4.6551],[101.7744,4.6598],[101.7744,4.6718],[101.77,4.679],[101.7729,4.6911],[101.7709,4.6972],[101.7776,4.7071],[101.7751,4.71],[101.7735,4.7241],[101.7751,4.7512],[101.7807,4.7586],[101.7969,4.7559],[101.7967,4.7614],[101.8021,4.7632],[101.8165,4.7595],[101.8217,4.7509],[101.8192,4.7254],[101.8237,4.7172],[101.8318,4.7146],[101.8352,4.72],[101.8384,4.7213],[101.8418,4.7195],[101.846,4.7051],[101.8469,4.6872],[101.8508,4.684],[101.8586,4.6872],[101.8593,4.6915],[101.8624,4.6933],[101.8645,4.6824],[101.8701,4.6772],[101.8791,4.6782],[101.8893,4.6718],[101.8872,4.6666],[101.8931,4.6623],[101.8902,4.6547],[101.8928,4.6513],[101.8879,4.6433],[101.8895,4.6395],[101.8881,4.6356],[101.8933,4.628],[101.8938,4.6165],[101.901,4.6098],[101.9083,4.6096],[101.9121,4.6115],[101.9158,4.6321],[101.9225,4.6429],[101.9279,4.6585],[101.9385,4.6578],[101.9451,4.6773],[101.9437,4.6815],[101.9536,4.7141],[101.9514,4.7299],[101.9538,4.7335],[101.9478,4.7489],[101.9505,4.7579],[101.9637,4.7647],[101.9687,4.7597],[101.9703,4.7505],[101.9754,4.7496],[101.9781,4.7451],[101.9872,4.7399],[101.9854,4.7491],[101.9881,4.7525],[101.9874,4.76],[102.0018,4.7614],[102.0013,4.7532],[102.0128,4.7369],[102.02,4.732],[102.0234,4.7417],[102.0277,4.7415],[102.0321,4.747],[102.0317,4.7508],[102.0638,4.846],[102.0972,4.8904],[102.0908,4.8946],[102.0792,4.8974],[102.074,4.8949],[102.0625,4.9016],[102.0558,4.9015],[102.0561,4.909],[102.0329,4.9153],[102.0326,4.9224],[102.0264,4.9166],[102.004,4.9183],[101.9944,4.9124],[101.9819,4.9122],[101.9784,4.9153],[101.9737,4.9081],[101.9707,4.9151],[101.9562,4.9131],[101.9529,4.9194],[101.9382,4.9239],[101.9358,4.9339],[101.9302,4.9358],[101.9203,4.9311],[101.9086,4.9345],[101.9015,4.9304],[101.8789,4.9339],[101.8614,4.9594],[101.8778,4.9915],[101.9098,5.0076],[101.9049,5.0098],[101.8662,5.0096],[101.8575,5.0078],[101.852,4.998],[101.8427,4.998],[101.8344,5.0028],[101.8051,5.0092],[101.7995,5.0182],[101.7957,5.017],[101.7842,5.021],[101.7636,5.022],[101.7666,5.0183],[101.7609,5.0076],[101.7659,5.0073],[101.7705,4.9926],[101.7572,4.9882],[101.7383,4.9774],[101.7104,4.9753],[101.6976,4.9871],[101.6819,4.9973],[101.672,4.9996],[101.6342,5.0194],[101.608,5.0477],[101.5939,5.0595],[101.5858,5.0595],[101.5811,5.0569],[101.5686,5.0576],[101.5518,5.0654],[101.5333,5.0796],[101.531,5.0787],[101.5277,5.085],[101.4903,5.1081],[101.4818,5.1163],[101.4773,5.1086],[101.4852,5.0892],[101.4755,5.0792],[101.4656,5.0749],[101.4605,5.0645],[101.4645,5.0595],[101.4587,5.0482],[101.4602,5.031],[101.4491,5.0149]]]}}]}