{"type":"FeatureCollection","features":[{"type":"Feature","properties":{"c":"N.01","n":"Sungai Air Tawar","w":"BN","p":"UMNO","cand":"Rizam bin Ismail","pct":52.8},"geometry":{"type":"Polygon","coordinates":[[[100.8295,3.85],[100.8291,3.845],[100.82,3.8456],[100.8165,3.8359],[100.8107,3.8071],[100.8139,3.7846],[100.8273,3.7771],[100.8299,3.779],[100.8368,3.7782],[100.8389,3.7819],[100.8721,3.7678],[100.8958,3.7502],[100.9162,3.7264],[100.9224,3.7137],[100.925,3.715],[100.9395,3.7301],[100.9397,3.7356],[100.9484,3.7422],[100.9559,3.756],[100.9636,3.7634],[100.9659,3.7734],[100.9576,3.7819],[100.9594,3.797],[100.9763,3.8063],[100.9785,3.8167],[100.9641,3.829],[100.9414,3.8308],[100.9382,3.8419],[100.9449,3.868],[100.9317,3.8702],[100.8914,3.8541],[100.8659,3.8563],[100.8411,3.8494],[100.8295,3.85]]]}},{"type":"Feature","properties":{"c":"N.02","n":"Sabak","w":"PN","p":"PAS","cand":"Sallehen bin Mukhyi","pct":59.3},"geometry":{"type":"Polygon","coordinates":[[[100.9659,3.7734],[100.9636,3.7634],[100.9559,3.756],[100.9484,3.7422],[100.9397,3.7356],[100.9395,3.7301],[100.9224,3.7137],[100.926,3.7114],[100.929,3.6968],[100.9374,3.686],[100.9514,3.6803],[100.9554,3.684],[100.9577,3.6798],[100.9589,3.6812],[100.9633,3.6779],[100.9708,3.6853],[100.9756,3.6811],[100.9853,3.6904],[101.0145,3.6667],[101.0286,3.684],[101.0344,3.6961],[101.05,3.7114],[101.0461,3.7164],[101.0598,3.7329],[101.074,3.7318],[101.0726,3.7361],[101.0791,3.7451],[101.0726,3.7593],[101.0929,3.7568],[101.0978,3.7491],[101.1019,3.7505],[101.087,3.7675],[101.092,3.7798],[101.0885,3.7823],[101.0777,3.7674],[101.0652,3.7632],[101.0638,3.7552],[101.0597,3.7526],[101.0564,3.7557],[101.0577,3.7699],[101.0534,3.778],[101.0555,3.7848],[101.0614,3.7908],[101.0611,3.7955],[101.0548,3.7963],[101.0444,3.7851],[101.0249,3.7841],[101.031,3.7945],[101.0256,3.8078],[101.0044,3.7992],[100.9929,3.802],[100.9853,3.7938],[100.9846,3.7744],[100.9778,3.769],[100.9691,3.7701],[100.9659,3.7734]]]}},{"type":"Feature","properties":{"c":"N.03","n":"Sungai Panjang","w":"PN","p":"PAS","cand":"Mohd Razali bin Saari","pct":55.9},"geometry":{"type":"MultiPolygon","coordinates":[[[[101.074,3.7318],[101.0598,3.7329],[101.0461,3.7164],[101.05,3.7114],[101.0344,3.6961],[101.0286,3.684],[101.0145,3.6667],[100.9853,3.6904],[100.9756,3.6811],[100.9708,3.6853],[100.9633,3.6779],[100.9678,3.6735],[100.9773,3.6698],[100.9796,3.6651],[101.0171,3.6376],[101.0195,3.6385],[101.0182,3.6371],[101.0206,3.6342],[101.0377,3.6187],[101.0485,3.6004],[101.0552,3.5949],[101.0694,3.562],[101.1162,3.5773],[101.0969,3.6197],[101.1677,3.6446],[101.3112,3.635],[101.35,3.6005],[101.3467,3.6372],[101.3423,3.6599],[101.3466,3.6624],[101.3466,3.6775],[101.35,3.6804],[101.3476,3.6871],[101.3487,3.6909],[101.3428,3.6971],[101.3373,3.6894],[101.3209,3.6907],[101.3103,3.6821],[101.3103,3.677],[101.3006,3.6708],[101.2965,3.6776],[101.283,3.6733],[101.2821,3.6681],[101.2652,3.6681],[101.2504,3.6736],[101.2459,3.6884],[101.2473,3.6966],[101.2445,3.7013],[101.2501,3.7157],[101.2476,3.7182],[101.2409,3.7191],[101.2274,3.7128],[101.2209,3.7128],[101.216,3.7063],[101.2117,3.7087],[101.213,3.7158],[101.2088,3.7144],[101.2022,3.7207],[101.2043,3.7254],[101.1973,3.7266],[101.198,3.7166],[101.1898,3.7189],[101.1755,3.7094],[101.1696,3.7153],[101.17,3.7205],[101.175,3.7155],[101.1916,3.7311],[101.1707,3.7279],[101.1656,3.7496],[101.1637,3.7232],[101.1556,3.7438],[101.1504,3.7417],[101.154,3.7289],[101.1329,3.7365],[101.1451,3.7447],[101.1432,3.7485],[101.1347,3.7517],[101.1329,3.7647],[101.123,3.7473],[101.1232,3.735],[101.1189,3.7358],[101.1104,3.7473],[101.1064,3.7435],[101.1073,3.7333],[101.1028,3.7318],[101.0992,3.7354],[101.0978,3.7444],[101.092,3.7406],[101.084,3.7422],[101.0814,3.7297],[101.0749,3.7289],[101.074,3.7318]]]]}},{"type":"Feature","properties":{"c":"N.04","n":"Sekinchan","w":"PH","p":"DAP","cand":"Ng Suee Lim","pct":62.2},"geometry":{"type":"Polygon","coordinates":[[[101.0694,3.562],[101.1003,3.4877],[101.1772,3.5382],[101.35,3.6005],[101.3112,3.635],[101.1677,3.6446],[101.0969,3.6197],[101.1162,3.5773],[101.0694,3.562]]]}},{"type":"Feature","properties":{"c":"N.05","n":"Hulu Bernam","w":"PN","p":"PAS","cand":"Mu'Izzuddeen bin Mahyuddin (Muiz Mahyuddin)","pct":51.6},"geometry":{"type":"Polygon","coordinates":[[[101.3409,3.6969],[101.3487,3.6909],[101.3476,3.6871],[101.35,3.6804],[101.3466,3.6775],[101.3466,3.6624],[101.3423,3.6599],[101.3467,3.6372],[101.35,3.6005],[101.4092,3.5484],[101.4709,3.5757],[101.5012,3.6086],[101.5123,3.5995],[101.5222,3.5736],[101.5299,3.5814],[101.5364,3.5807],[101.536,3.5736],[101.5404,3.5655],[101.5472,3.565],[101.5468,3.5679],[101.5687,3.5838],[101.5822,3.5984],[101.5919,3.6028],[101.5977,3.6155],[101.6078,3.6161],[101.6074,3.6197],[101.6103,3.6206],[101.6138,3.6285],[101.623,3.6317],[101.6241,3.6351],[101.6205,3.6393],[101.6246,3.6458],[101.6237,3.6532],[101.6336,3.6572],[101.6346,3.6647],[101.6482,3.6728],[101.6499,3.6797],[101.6554,3.6806],[101.6541,3.6949],[101.6569,3.6982],[101.6564,3.7093],[101.6587,3.7169],[101.6564,3.726],[101.6406,3.7516],[101.632,3.7604],[101.623,3.7637],[101.6265,3.7719],[101.6065,3.774],[101.5909,3.7435],[101.5815,3.7397],[101.5817,3.7254],[101.5788,3.7209],[101.5703,3.7175],[101.5702,3.711],[101.5479,3.7],[101.5358,3.6783],[101.5174,3.6797],[101.5119,3.6873],[101.4957,3.6993],[101.4788,3.702],[101.4748,3.7135],[101.469,3.7167],[101.4618,3.7146],[101.4563,3.7225],[101.4518,3.7358],[101.4401,3.751],[101.421,3.7516],[101.4186,3.7584],[101.4057,3.7609],[101.3987,3.7699],[101.3911,3.7728],[101.3877,3.7713],[101.3857,3.7832],[101.3731,3.8017],[101.3548,3.8022],[101.3488,3.7947],[101.3371,3.7939],[101.3267,3.785],[101.3294,3.7688],[101.3262,3.7553],[101.3373,3.7474],[101.3411,3.7212],[101.3474,3.7097],[101.3409,3.6969]]]}},{"type":"Feature","properties":{"c":"N.06","n":"Kuala Kubu Baharu","w":"PH","p":"DAP","cand":"Lee Kee Hiong","pct":54.4},"geometry":{"type":"Polygon","coordinates":[[[101.7656,3.513],[101.7866,3.5469],[101.8057,3.5522],[101.8098,3.5879],[101.8154,3.5947],[101.815,3.6036],[101.8064,3.6036],[101.8076,3.6099],[101.7967,3.6155],[101.7947,3.6278],[101.785,3.6286],[101.7818,3.6375],[101.7838,3.6489],[101.7668,3.6647],[101.7693,3.6709],[101.7661,3.6782],[101.7487,3.6905],[101.7433,3.6901],[101.737,3.694],[101.7343,3.7007],[101.7297,3.6955],[101.7299,3.7022],[101.7358,3.7104],[101.7308,3.713],[101.7207,3.7069],[101.6979,3.7097],[101.6918,3.7059],[101.6761,3.7205],[101.6573,3.7261],[101.6578,3.7039],[101.6541,3.6949],[101.6554,3.6806],[101.6499,3.6797],[101.6482,3.6728],[101.6346,3.6647],[101.6336,3.6572],[101.6237,3.6532],[101.6246,3.6458],[101.6205,3.6393],[101.6241,3.6351],[101.623,3.6317],[101.6138,3.6285],[101.6103,3.6206],[101.6074,3.6197],[101.6078,3.6161],[101.5977,3.6155],[101.5919,3.6028],[101.5822,3.5984],[101.5687,3.5838],[101.5468,3.5679],[101.5472,3.565],[101.5404,3.5655],[101.536,3.5736],[101.5364,3.5807],[101.5299,3.5814],[101.5222,3.5736],[101.5123,3.5995],[101.5012,3.6086],[101.4709,3.5757],[101.4092,3.5484],[101.4583,3.4968],[101.5126,3.4947],[101.5132,3.4926],[101.5176,3.4922],[101.5177,3.4897],[101.516,3.4803],[101.5133,3.478],[101.5199,3.4784],[101.5203,3.4803],[101.5213,3.4786],[101.5209,3.4823],[101.5336,3.4888],[101.5411,3.482],[101.5437,3.4836],[101.5443,3.4813],[101.553,3.4797],[101.5581,3.4689],[101.5635,3.4634],[101.5626,3.4586],[101.5672,3.459],[101.5705,3.4568],[101.5703,3.4541],[101.573,3.4564],[101.5743,3.4539],[101.5772,3.4567],[101.5819,3.4539],[101.5921,3.4574],[101.5959,3.465],[101.6221,3.4695],[101.6251,3.4678],[101.627,3.4605],[101.6242,3.4615],[101.6221,3.4595],[101.6242,3.4576],[101.6228,3.4548],[101.6308,3.446],[101.631,3.4408],[101.6334,3.4428],[101.633,3.4375],[101.6413,3.4327],[101.643,3.4338],[101.6492,3.4281],[101.6578,3.4337],[101.6494,3.4473],[101.6454,3.4478],[101.6453,3.4502],[101.6397,3.4505],[101.64,3.4559],[101.6371,3.4582],[101.6381,3.4626],[101.6438,3.4572],[101.6471,3.4595],[101.6536,3.4558],[101.6555,3.4513],[101.6655,3.4526],[101.6571,3.4625],[101.6387,3.4708],[101.6397,3.4839],[101.6434,3.4908],[101.6392,3.5],[101.635,3.4979],[101.6333,3.5084],[101.6374,3.5107],[101.6327,3.5112],[101.6291,3.5173],[101.6309,3.5301],[101.6368,3.5411],[101.6512,3.5427],[101.6546,3.5379],[101.6518,3.5343],[101.6604,3.5327],[101.6595,3.5387],[101.6749,3.5352],[101.6763,3.5389],[101.6798,3.5396],[101.6847,3.5452],[101.6915,3.5389],[101.6894,3.5359],[101.6941,3.5285],[101.7057,3.527],[101.7138,3.5276],[101.7288,3.5361],[101.7372,3.5345],[101.7399,3.5303],[101.7461,3.5308],[101.7597,3.5232],[101.7656,3.513]]]}},{"type":"Feature","properties":{"c":"N.07","n":"Batang Kali","w":"PN","p":"BERSATU","cand":"Muhammad Muhaimin Harith bin Abdullah Sani","pct":52.4},"geometry":{"type":"Polygon","coordinates":[[[101.5133,3.478],[101.5147,3.4749],[101.5107,3.4749],[101.5102,3.47],[101.5122,3.4699],[101.5106,3.4643],[101.5033,3.4657],[101.4984,3.4619],[101.4979,3.4519],[101.5026,3.4531],[101.5033,3.4436],[101.5003,3.4377],[101.5013,3.4333],[101.4985,3.4331],[101.4984,3.4262],[101.4899,3.4215],[101.4884,3.4177],[101.4858,3.4179],[101.4863,3.4156],[101.4819,3.4133],[101.482,3.411],[101.4779,3.4123],[101.4754,3.4091],[101.4778,3.4007],[101.4685,3.3968],[101.4724,3.3882],[101.4766,3.3881],[101.4796,3.3766],[101.4783,3.3742],[101.4812,3.3702],[101.4963,3.3665],[101.4959,3.3619],[101.5048,3.3512],[101.5089,3.3541],[101.5212,3.3489],[101.5528,3.348],[101.5531,3.3457],[101.5606,3.3459],[101.5682,3.3404],[101.5783,3.3401],[101.587,3.3454],[101.5909,3.3434],[101.5877,3.3408],[101.5906,3.3283],[101.597,3.326],[101.6089,3.3267],[101.6147,3.3234],[101.6268,3.3243],[101.628,3.3225],[101.633,3.325],[101.6396,3.3218],[101.6497,3.3363],[101.6566,3.3338],[101.6565,3.3315],[101.6634,3.3294],[101.6652,3.3314],[101.6691,3.3286],[101.6772,3.3394],[101.6819,3.3325],[101.6867,3.3406],[101.6927,3.3433],[101.6952,3.3498],[101.7007,3.3513],[101.7024,3.3619],[101.7069,3.3637],[101.7167,3.3884],[101.722,3.389],[101.7287,3.3836],[101.7297,3.3799],[101.7368,3.3786],[101.7392,3.3746],[101.746,3.3749],[101.7517,3.3707],[101.7581,3.3724],[101.7661,3.3989],[101.7889,3.4235],[101.7616,3.4959],[101.762,3.5082],[101.7656,3.513],[101.7597,3.5232],[101.7461,3.5308],[101.7399,3.5303],[101.7372,3.5345],[101.7288,3.5361],[101.7138,3.5276],[101.6941,3.5285],[101.6894,3.5359],[101.6915,3.5389],[101.6847,3.5452],[101.6798,3.5396],[101.6763,3.5389],[101.6749,3.5352],[101.6595,3.5387],[101.6604,3.5327],[101.6518,3.5343],[101.6546,3.5379],[101.6512,3.5427],[101.6368,3.5411],[101.6309,3.5301],[101.6291,3.5173],[101.6327,3.5112],[101.6374,3.5107],[101.6333,3.5084],[101.635,3.4979],[101.6392,3.5],[101.6434,3.4908],[101.6397,3.4839],[101.6387,3.4708],[101.6571,3.4625],[101.6655,3.4526],[101.6555,3.4513],[101.6536,3.4558],[101.6471,3.4595],[101.6438,3.4572],[101.6381,3.4626],[101.6371,3.4582],[101.64,3.4559],[101.6397,3.4505],[101.6453,3.4502],[101.6454,3.4478],[101.6494,3.4473],[101.6578,3.4337],[101.6492,3.4281],[101.643,3.4338],[101.6413,3.4327],[101.633,3.4375],[101.6334,3.4428],[101.631,3.4408],[101.6308,3.446],[101.6228,3.4548],[101.6242,3.4576],[101.6221,3.4595],[101.6242,3.4615],[101.627,3.4605],[101.6251,3.4678],[101.6221,3.4695],[101.5959,3.465],[101.5921,3.4574],[101.5819,3.4539],[101.5772,3.4567],[101.5743,3.4539],[101.573,3.4564],[101.5703,3.4541],[101.5705,3.4568],[101.5672,3.459],[101.5626,3.4586],[101.5635,3.4634],[101.5581,3.4689],[101.553,3.4797],[101.5443,3.4813],[101.5437,3.4836],[101.5411,3.482],[101.5336,3.4888],[101.5209,3.4823],[101.5213,3.4786],[101.5203,3.4803],[101.5199,3.4784],[101.5133,3.478]]]}},{"type":"Feature","properties":{"c":"N.08","n":"Sungai Burong","w":"PN","p":"PAS","cand":"Mohd Zamri bin Mohd Zainuldin (Zamri Mantop)","pct":64.2},"geometry":{"type":"Polygon","coordinates":[[[101.1003,3.4877],[101.1136,3.4661],[101.1197,3.4608],[101.1223,3.4521],[101.1299,3.4478],[101.131,3.4423],[101.1488,3.4237],[101.1625,3.399],[101.1672,3.3959],[101.1721,3.4035],[101.1715,3.4083],[101.183,3.4201],[101.1892,3.421],[101.1961,3.4301],[101.2059,3.4301],[101.2057,3.4412],[101.2125,3.4515],[101.2061,3.4565],[101.2225,3.4816],[101.2347,3.4731],[101.3066,3.5859],[101.1772,3.5382],[101.1003,3.4877]]]}},{"type":"Feature","properties":{"c":"N.09","n":"Permatang","w":"PN","p":"BERSATU","cand":"Nurul Syazwani binti Noh","pct":53.6},"geometry":{"type":"Polygon","coordinates":[[[101.35,3.6005],[101.3066,3.5859],[101.2347,3.4731],[101.2225,3.4816],[101.2061,3.4565],[101.2125,3.4515],[101.2057,3.4412],[101.2059,3.4301],[101.1961,3.4301],[101.1892,3.421],[101.183,3.4201],[101.1715,3.4083],[101.1721,3.4035],[101.1672,3.3959],[101.1737,3.3945],[101.1768,3.3903],[101.1822,3.3673],[101.1892,3.3587],[101.1947,3.3464],[101.2081,3.3406],[101.2311,3.3398],[101.2335,3.3515],[101.2379,3.356],[101.2427,3.3559],[101.2505,3.3474],[101.2542,3.3371],[101.2616,3.3369],[101.2633,3.3432],[101.2563,3.3506],[101.2558,3.3548],[101.259,3.3648],[101.2604,3.3682],[101.2633,3.3684],[101.2703,3.3639],[101.2745,3.3645],[101.278,3.3721],[101.2825,3.3751],[101.2831,3.3781],[101.2797,3.3823],[101.2815,3.3861],[101.2889,3.3848],[101.2934,3.3888],[101.2971,3.3872],[101.2967,3.3839],[101.29,3.3824],[101.2865,3.3779],[101.2889,3.3733],[101.2949,3.3761],[101.2997,3.3741],[101.2971,3.3663],[101.2986,3.3632],[101.304,3.3641],[101.3027,3.3733],[101.3077,3.3763],[101.3104,3.3656],[101.3134,3.3657],[101.317,3.377],[101.3222,3.3757],[101.3232,3.373],[101.3303,3.3732],[101.3285,3.3629],[101.3305,3.3621],[101.3325,3.3668],[101.3401,3.3617],[101.3399,3.3663],[101.3464,3.3693],[101.3552,3.3663],[101.3539,3.3702],[101.3565,3.3723],[101.3619,3.3662],[101.3633,3.3683],[101.3602,3.3727],[101.3643,3.371],[101.3641,3.3769],[101.3659,3.3771],[101.3675,3.372],[101.3699,3.3759],[101.3719,3.3731],[101.3717,3.3779],[101.374,3.3758],[101.3738,3.3796],[101.3781,3.3785],[101.377,3.3837],[101.3795,3.3796],[101.3849,3.3813],[101.3869,3.3862],[101.3921,3.387],[101.3921,3.39],[101.3983,3.3884],[101.4024,3.3912],[101.4014,3.3873],[101.4042,3.3897],[101.4079,3.3848],[101.4143,3.3848],[101.4144,3.3867],[101.4189,3.388],[101.4168,3.3909],[101.4202,3.3901],[101.4195,3.3987],[101.4226,3.4052],[101.435,3.4099],[101.4382,3.4093],[101.4415,3.4014],[101.4584,3.4033],[101.463,3.3969],[101.4735,3.3977],[101.4778,3.4007],[101.4754,3.4091],[101.4779,3.4123],[101.482,3.411],[101.4819,3.4133],[101.4863,3.4156],[101.4858,3.4179],[101.4884,3.4177],[101.4899,3.4215],[101.4984,3.4262],[101.4985,3.4331],[101.5013,3.4333],[101.5003,3.4377],[101.5033,3.4436],[101.5026,3.4531],[101.4979,3.4519],[101.4984,3.4619],[101.5033,3.4657],[101.5045,3.464],[101.5114,3.4653],[101.5107,3.4749],[101.5147,3.4749],[101.5132,3.4788],[101.516,3.4803],[101.5176,3.4922],[101.5132,3.4926],[101.5126,3.4947],[101.4583,3.4968],[101.4092,3.5484],[101.35,3.6005]]]}},{"type":"Feature","properties":{"c":"N.10","n":"Bukit Melawati","w":"PN","p":"BERSATU","cand":"Noorazley bin Yahya","pct":51.5},"geometry":{"type":"Polygon","coordinates":[[[101.2311,3.3398],[101.2291,3.3329],[101.2418,3.3185],[101.2513,3.3136],[101.2593,3.3058],[101.2846,3.2729],[101.2924,3.2569],[101.2982,3.2552],[101.3,3.2501],[101.2986,3.2372],[101.3022,3.23],[101.3142,3.2298],[101.314,3.2327],[101.319,3.2351],[101.317,3.237],[101.3168,3.2446],[101.3299,3.2444],[101.3305,3.2685],[101.344,3.2598],[101.3477,3.2599],[101.349,3.2718],[101.3516,3.2722],[101.3506,3.2869],[101.3591,3.2914],[101.366,3.2906],[101.3689,3.2958],[101.3783,3.2969],[101.378,3.31],[101.3599,3.3074],[101.3599,3.3427],[101.3929,3.3438],[101.3927,3.3533],[101.3979,3.3533],[101.3983,3.3632],[101.382,3.3667],[101.3699,3.3759],[101.3675,3.372],[101.3659,3.3771],[101.3633,3.3755],[101.3643,3.371],[101.3602,3.3727],[101.3633,3.3683],[101.3619,3.3662],[101.3565,3.3723],[101.3539,3.3702],[101.3552,3.3663],[101.3464,3.3693],[101.3399,3.3663],[101.3401,3.3617],[101.3325,3.3668],[101.3305,3.3621],[101.3285,3.3629],[101.328,3.3682],[101.3311,3.3714],[101.3303,3.3732],[101.3232,3.373],[101.3222,3.3757],[101.317,3.377],[101.3134,3.3657],[101.3104,3.3656],[101.3092,3.3754],[101.3053,3.3759],[101.3027,3.3733],[101.304,3.3641],[101.3006,3.3626],[101.2971,3.3663],[101.2997,3.3741],[101.2949,3.3761],[101.2876,3.3739],[101.288,3.3811],[101.2967,3.3839],[101.2971,3.3872],[101.2934,3.3888],[101.2889,3.3848],[101.2797,3.3851],[101.2825,3.3751],[101.278,3.3721],[101.2745,3.3645],[101.2703,3.3639],[101.2604,3.3682],[101.2558,3.3548],[101.2563,3.3506],[101.2633,3.3432],[101.2616,3.3369],[101.2542,3.3371],[101.2505,3.3474],[101.2427,3.3559],[101.2379,3.356],[101.2335,3.3515],[101.2311,3.3398]]]}},{"type":"Feature","properties":{"c":"N.11","n":"Ijok","w":"PN","p":"PAS","cand":"Jefri bin Mejan","pct":51.5},"geometry":{"type":"Polygon","coordinates":[[[101.3719,3.3731],[101.382,3.3667],[101.3983,3.3632],[101.3979,3.3533],[101.3927,3.3533],[101.3929,3.3438],[101.3599,3.3427],[101.3599,3.3074],[101.378,3.31],[101.3783,3.2969],[101.3689,3.2958],[101.366,3.2906],[101.3591,3.2914],[101.3506,3.2869],[101.3518,3.2705],[101.3581,3.2664],[101.3603,3.2696],[101.3916,3.2457],[101.3964,3.2549],[101.4103,3.2442],[101.4232,3.2618],[101.4053,3.2759],[101.4195,3.2953],[101.4247,3.2979],[101.4264,3.2951],[101.4318,3.2936],[101.4327,3.3001],[101.4388,3.3004],[101.4343,3.3053],[101.4301,3.3053],[101.446,3.335],[101.4467,3.3569],[101.4437,3.3573],[101.4439,3.3981],[101.4496,3.4015],[101.4415,3.4014],[101.4382,3.4093],[101.4274,3.4078],[101.4206,3.4017],[101.4202,3.3901],[101.4168,3.3909],[101.4189,3.388],[101.4144,3.3867],[101.4143,3.3848],[101.4079,3.3848],[101.4042,3.3897],[101.4014,3.3873],[101.4024,3.3912],[101.3983,3.3884],[101.3921,3.39],[101.3921,3.387],[101.3869,3.3862],[101.3849,3.3813],[101.3795,3.3796],[101.377,3.3837],[101.3781,3.3785],[101.3738,3.3796],[101.374,3.3758],[101.3717,3.3779],[101.3719,3.3731]]]}},{"type":"Feature","properties":{"c":"N.12","n":"Jeram","w":"PN","p":"BERSATU","cand":"Harrison bin Hassan","pct":59.6},"geometry":{"type":"Polygon","coordinates":[[[101.3022,3.23],[101.3049,3.223],[101.3059,3.1918],[101.3089,3.174],[101.3069,3.1643],[101.3148,3.1663],[101.3228,3.1578],[101.3275,3.1635],[101.3426,3.163],[101.3426,3.176],[101.3692,3.1759],[101.3693,3.1868],[101.4001,3.1868],[101.4,3.1926],[101.4319,3.193],[101.433,3.1994],[101.4386,3.2035],[101.4388,3.2127],[101.4593,3.2409],[101.4698,3.2473],[101.4794,3.2366],[101.4792,3.2319],[101.4855,3.2242],[101.4921,3.2204],[101.4923,3.2758],[101.4625,3.2762],[101.4622,3.3002],[101.4327,3.3001],[101.4318,3.2936],[101.4264,3.2951],[101.4247,3.2979],[101.4195,3.2953],[101.4053,3.2759],[101.4232,3.2618],[101.4103,3.2442],[101.3964,3.2549],[101.3916,3.2457],[101.3603,3.2696],[101.3581,3.2664],[101.3516,3.2722],[101.349,3.2718],[101.3477,3.2599],[101.344,3.2598],[101.3305,3.2685],[101.3299,3.2444],[101.3168,3.2446],[101.317,3.237],[101.319,3.2351],[101.314,3.2327],[101.3142,3.2298],[101.3022,3.23]]]}},{"type":"Feature","properties":{"c":"N.13","n":"Kuang","w":"PN","p":"BERSATU","cand":"Mohd Rafiq bin Mohd Abdullah","pct":55.4},"geometry":{"type":"Polygon","coordinates":[[[101.4923,3.2313],[101.5011,3.2203],[101.5099,3.2229],[101.514,3.2181],[101.5161,3.2197],[101.5215,3.2175],[101.5236,3.2212],[101.5269,3.2212],[101.5303,3.2166],[101.5303,3.2184],[101.5472,3.2188],[101.5515,3.2262],[101.5523,3.2328],[101.5593,3.2326],[101.5604,3.2444],[101.5569,3.2493],[101.5533,3.2502],[101.556,3.2517],[101.5547,3.2556],[101.5691,3.2526],[101.5712,3.2481],[101.5736,3.2505],[101.5796,3.2358],[101.6123,3.2505],[101.6141,3.254],[101.605,3.2618],[101.5882,3.2658],[101.5889,3.2891],[101.5873,3.2902],[101.5825,3.2923],[101.5791,3.2867],[101.575,3.2864],[101.5625,3.2973],[101.5543,3.2865],[101.5465,3.2961],[101.5435,3.2924],[101.5326,3.3036],[101.5358,3.3063],[101.5322,3.3096],[101.5192,3.3099],[101.5182,3.3142],[101.5117,3.314],[101.5154,3.3187],[101.5114,3.3218],[101.5012,3.3177],[101.495,3.3207],[101.4986,3.3055],[101.4899,3.3018],[101.4878,3.2984],[101.478,3.3041],[101.4623,3.2888],[101.4625,3.2762],[101.4923,3.2758],[101.4923,3.2313]]]}},{"type":"Feature","properties":{"c":"N.14","n":"Rawang","w":"PH","p":"PKR","cand":"Chua Wei Kiat","pct":74.4},"geometry":{"type":"Polygon","coordinates":[[[101.4685,3.3968],[101.4622,3.3973],[101.4584,3.4033],[101.4439,3.3981],[101.4437,3.3573],[101.4467,3.3569],[101.446,3.335],[101.4301,3.3053],[101.4343,3.3053],[101.4388,3.3004],[101.4622,3.3002],[101.4623,3.2888],[101.478,3.3041],[101.4878,3.2984],[101.4899,3.3018],[101.4986,3.3055],[101.495,3.3207],[101.5012,3.3177],[101.5114,3.3218],[101.5154,3.3187],[101.5117,3.314],[101.5182,3.3142],[101.5192,3.3099],[101.5322,3.3096],[101.5358,3.3063],[101.5326,3.3036],[101.5435,3.2924],[101.5465,3.2961],[101.5543,3.2865],[101.5625,3.2973],[101.575,3.2864],[101.5791,3.2867],[101.5825,3.2923],[101.5933,3.2886],[101.6062,3.2953],[101.6183,3.293],[101.6234,3.2957],[101.6198,3.2982],[101.612,3.2969],[101.6084,3.3009],[101.6032,3.2964],[101.6019,3.3018],[101.5899,3.3064],[101.5976,3.3151],[101.5942,3.3261],[101.5902,3.3271],[101.5877,3.3408],[101.5909,3.3434],[101.5842,3.345],[101.5783,3.3401],[101.5682,3.3404],[101.5606,3.3459],[101.5531,3.3457],[101.5528,3.348],[101.5212,3.3489],[101.5089,3.3541],[101.5048,3.3512],[101.4959,3.3619],[101.4963,3.3665],[101.4812,3.3702],[101.4783,3.3742],[101.4796,3.3766],[101.4766,3.3881],[101.4724,3.3882],[101.4685,3.3968]]]}},{"type":"Feature","properties":{"c":"N.15","n":"Taman Templer","w":"PH","p":"AMANAH","cand":"Anfaal binti Saari","pct":49.7},"geometry":{"type":"Polygon","coordinates":[[[101.5906,3.3283],[101.5906,3.3257],[101.5942,3.3261],[101.5976,3.3151],[101.5899,3.3064],[101.6019,3.3018],[101.6032,3.2964],[101.6084,3.3009],[101.612,3.2969],[101.6198,3.2982],[101.6234,3.2957],[101.6183,3.293],[101.6062,3.2953],[101.5933,3.2886],[101.5889,3.2891],[101.5882,3.2658],[101.605,3.2618],[101.6127,3.257],[101.6141,3.254],[101.6123,3.2505],[101.6344,3.2498],[101.6365,3.2471],[101.6448,3.2453],[101.6448,3.2421],[101.65,3.2424],[101.654,3.237],[101.6572,3.2369],[101.6583,3.2417],[101.6646,3.2445],[101.6663,3.2509],[101.6703,3.2504],[101.6713,3.2474],[101.6751,3.2487],[101.6724,3.2599],[101.6791,3.2635],[101.6786,3.2725],[101.6678,3.2725],[101.6631,3.2764],[101.6689,3.282],[101.6701,3.2878],[101.6658,3.295],[101.6676,3.3038],[101.6649,3.3098],[101.6691,3.3286],[101.6652,3.3314],[101.6634,3.3294],[101.6565,3.3315],[101.6566,3.3338],[101.6497,3.3363],[101.6396,3.3218],[101.633,3.325],[101.628,3.3225],[101.6268,3.3243],[101.6147,3.3234],[101.6089,3.3267],[101.597,3.326],[101.5906,3.3283]]]}},{"type":"Feature","properties":{"c":"N.16","n":"Sungai Tua","w":"PH","p":"PKR","cand":"Amirudin bin Shari","pct":56.9},"geometry":{"type":"Polygon","coordinates":[[[101.6691,3.3286],[101.6649,3.3098],[101.6676,3.3038],[101.6658,3.295],[101.6701,3.2878],[101.6689,3.282],[101.6631,3.2764],[101.6678,3.2725],[101.6786,3.2725],[101.6791,3.2635],[101.6724,3.2599],[101.6751,3.2487],[101.6713,3.2474],[101.6703,3.2504],[101.6663,3.2509],[101.6646,3.2445],[101.6732,3.2331],[101.6721,3.2281],[101.6921,3.2284],[101.6918,3.2308],[101.6887,3.2309],[101.6907,3.2383],[101.6891,3.2392],[101.6902,3.2448],[101.6871,3.2477],[101.6882,3.2518],[101.6925,3.251],[101.6913,3.261],[101.6974,3.2612],[101.6973,3.2647],[101.7026,3.2651],[101.7025,3.2796],[101.7076,3.2844],[101.7063,3.2978],[101.7379,3.3695],[101.7392,3.3746],[101.7368,3.3786],[101.7297,3.3799],[101.7287,3.3836],[101.722,3.389],[101.7167,3.3884],[101.7069,3.3637],[101.7024,3.3619],[101.7007,3.3513],[101.6952,3.3498],[101.6927,3.3433],[101.6867,3.3406],[101.6819,3.3325],[101.6772,3.3394],[101.6691,3.3286]]]}},{"type":"Feature","properties":{"c":"N.17","n":"Gombak Setia","w":"PN","p":"BERSATU","cand":"Muhammad Hilman bin Idham","pct":49.2},"geometry":{"type":"Polygon","coordinates":[[[101.7597,3.3743],[101.7517,3.3707],[101.746,3.3749],[101.7392,3.3746],[101.7063,3.2978],[101.7076,3.2844],[101.7025,3.2796],[101.7026,3.2651],[101.6973,3.2647],[101.6974,3.2612],[101.6913,3.261],[101.6925,3.251],[101.6882,3.2518],[101.6871,3.2477],[101.6902,3.2448],[101.6887,3.2309],[101.6972,3.2286],[101.6973,3.2236],[101.7018,3.2235],[101.7034,3.216],[101.71,3.2163],[101.7148,3.2129],[101.7172,3.2153],[101.715,3.2146],[101.7156,3.2182],[101.7183,3.2183],[101.724,3.2291],[101.7301,3.2333],[101.7392,3.2319],[101.7366,3.2384],[101.7477,3.2366],[101.7488,3.2407],[101.7525,3.2429],[101.7572,3.2413],[101.7709,3.2564],[101.7753,3.2777],[101.7814,3.2876],[101.7876,3.2838],[101.7926,3.2896],[101.7953,3.2894],[101.7982,3.2832],[101.8078,3.2835],[101.8127,3.2886],[101.8213,3.2925],[101.8229,3.2969],[101.8007,3.3241],[101.7971,3.3333],[101.7807,3.3389],[101.7803,3.3575],[101.7597,3.3743]]]}},{"type":"Feature","properties":{"c":"N.18","n":"Hulu Kelang","w":"PN","p":"BERSATU","cand":"Mohamed Azmin bin Ali","pct":51.6},"geometry":{"type":"Polygon","coordinates":[[[101.8229,3.2969],[101.8213,3.2925],[101.8127,3.2886],[101.8078,3.2835],[101.7982,3.2832],[101.7953,3.2894],[101.7926,3.2896],[101.7876,3.2838],[101.7814,3.2876],[101.7753,3.2777],[101.7734,3.2633],[101.7683,3.2533],[101.7572,3.2413],[101.7525,3.2429],[101.7488,3.2407],[101.7477,3.2366],[101.736,3.2376],[101.7439,3.228],[101.7395,3.2223],[101.7384,3.2158],[101.746,3.2093],[101.7475,3.2027],[101.7565,3.197],[101.7587,3.188],[101.756,3.1856],[101.7553,3.1801],[101.7503,3.1756],[101.7328,3.1778],[101.7311,3.1727],[101.7349,3.1719],[101.735,3.1648],[101.7507,3.1603],[101.7517,3.1626],[101.7426,3.1661],[101.755,3.1711],[101.7605,3.1836],[101.762,3.1956],[101.7686,3.1918],[101.767,3.1968],[101.7711,3.2],[101.7686,3.1993],[101.7698,3.2071],[101.7804,3.2144],[101.7808,3.2181],[101.7888,3.2179],[101.7893,3.2083],[101.8105,3.2283],[101.8161,3.2288],[101.8315,3.2521],[101.8303,3.2578],[101.8408,3.2642],[101.8439,3.2724],[101.8495,3.2714],[101.8548,3.2768],[101.8499,3.2861],[101.8399,3.2874],[101.8229,3.2969]]]}},{"type":"Feature","properties":{"c":"N.19","n":"Bukit Antarabangsa","w":"PH","p":"PKR","cand":"Mohd.Kamri bin Kamaruddin","pct":65.9},"geometry":{"type":"Polygon","coordinates":[[[101.7507,3.1603],[101.7487,3.1582],[101.7581,3.1522],[101.7526,3.1408],[101.757,3.1329],[101.7613,3.1324],[101.77,3.1375],[101.7726,3.1427],[101.7679,3.1403],[101.7638,3.1431],[101.7672,3.154],[101.7723,3.16],[101.7699,3.1596],[101.7672,3.163],[101.7609,3.1621],[101.7627,3.1721],[101.7735,3.1798],[101.7715,3.1859],[101.7738,3.1914],[101.7756,3.1903],[101.7756,3.1941],[101.7853,3.1928],[101.7862,3.2049],[101.7893,3.2083],[101.7888,3.2179],[101.7808,3.2181],[101.7804,3.2144],[101.7698,3.2071],[101.7686,3.1993],[101.7711,3.2],[101.767,3.1968],[101.7686,3.1918],[101.762,3.1956],[101.7605,3.1836],[101.755,3.1711],[101.7426,3.1661],[101.7517,3.1626],[101.7507,3.1603]]]}},{"type":"Feature","properties":{"c":"N.20","n":"Lembah Jaya","w":"PH","p":"PKR","cand":"Syed Ahmad bin Abdul Rahman Alhadad (Altimet)","pct":57.3},"geometry":{"type":"Polygon","coordinates":[[[101.7893,3.2083],[101.7862,3.2049],[101.7853,3.1928],[101.7756,3.1941],[101.7756,3.1903],[101.7738,3.1914],[101.7715,3.1859],[101.7735,3.1798],[101.7627,3.1721],[101.761,3.1662],[101.7618,3.1615],[101.7672,3.163],[101.7699,3.1596],[101.7723,3.16],[101.7672,3.154],[101.7638,3.1445],[101.7679,3.1403],[101.7726,3.1427],[101.7659,3.1347],[101.7695,3.1293],[101.7667,3.1207],[101.7751,3.1219],[101.7746,3.1261],[101.7771,3.1284],[101.7742,3.1318],[101.7868,3.1308],[101.7908,3.128],[101.7932,3.1297],[101.8082,3.1473],[101.8118,3.1569],[101.8025,3.1776],[101.8041,3.1788],[101.802,3.1836],[101.8137,3.2064],[101.8107,3.2157],[101.8152,3.2207],[101.8161,3.2288],[101.8105,3.2283],[101.7893,3.2083]]]}},{"type":"Feature","properties":{"c":"N.21","n":"Pandan Indah","w":"PH","p":"AMANAH","cand":"Izham bin Hashim","pct":60.0},"geometry":{"type":"Polygon","coordinates":[[[101.7503,3.1575],[101.7468,3.1496],[101.7407,3.1509],[101.7416,3.1484],[101.7389,3.1445],[101.7404,3.1435],[101.735,3.1356],[101.7404,3.1227],[101.7464,3.1239],[101.7444,3.1221],[101.7457,3.1125],[101.7524,3.1097],[101.7549,3.1111],[101.7497,3.1173],[101.7523,3.1187],[101.7527,3.1227],[101.7503,3.1247],[101.7504,3.1289],[101.7617,3.1311],[101.757,3.1329],[101.7526,3.1408],[101.7581,3.1522],[101.7503,3.1575]]]}},{"type":"Feature","properties":{"c":"N.22","n":"Teratai","w":"PH","p":"DAP","cand":"Yew Jia Haur","pct":80.1},"geometry":{"type":"Polygon","coordinates":[[[101.7613,3.1324],[101.7558,3.1288],[101.7504,3.1289],[101.7503,3.1247],[101.7527,3.1227],[101.7523,3.1187],[101.7497,3.1173],[101.7546,3.1102],[101.7449,3.1137],[101.7464,3.1167],[101.7444,3.1221],[101.7464,3.1239],[101.7412,3.1236],[101.7376,3.1176],[101.7411,3.1099],[101.7456,3.1112],[101.7536,3.1045],[101.7507,3.1014],[101.7525,3.0972],[101.7512,3.0923],[101.7451,3.0862],[101.7477,3.0789],[101.7472,3.0833],[101.7817,3.1139],[101.7908,3.128],[101.7868,3.1308],[101.7742,3.1318],[101.7771,3.1284],[101.7746,3.1261],[101.7751,3.1219],[101.7667,3.1207],[101.7695,3.1293],[101.7659,3.1347],[101.7613,3.1324]]]}},{"type":"Feature","properties":{"c":"N.23","n":"Dusun Tua","w":"BN","p":"UMNO","cand":"Johan bin Abd Aziz","pct":49.9},"geometry":{"type":"Polygon","coordinates":[[[101.8548,3.2768],[101.8495,3.2714],[101.8439,3.2724],[101.8408,3.2642],[101.8303,3.2578],[101.8315,3.2521],[101.8161,3.2288],[101.8152,3.2207],[101.8107,3.2157],[101.8137,3.2064],[101.802,3.1836],[101.8041,3.1788],[101.8025,3.1776],[101.8118,3.1569],[101.8082,3.1473],[101.7885,3.126],[101.7817,3.1139],[101.7472,3.0833],[101.7498,3.0683],[101.7547,3.0659],[101.7571,3.06],[101.7702,3.0588],[101.7708,3.0534],[101.7742,3.0494],[101.7793,3.0511],[101.7787,3.0592],[101.7841,3.0649],[101.7819,3.0754],[101.785,3.08],[101.7879,3.0794],[101.7869,3.0829],[101.8018,3.0991],[101.8081,3.098],[101.8071,3.1013],[101.8088,3.1013],[101.8112,3.1087],[101.8257,3.1134],[101.8359,3.1103],[101.8402,3.0821],[101.8469,3.0981],[101.86,3.1045],[101.8648,3.1032],[101.8666,3.105],[101.8654,3.1097],[101.8728,3.1094],[101.8788,3.119],[101.9527,3.1173],[101.9568,3.115],[101.9625,3.1248],[101.9641,3.1395],[101.9572,3.1457],[101.9564,3.1563],[101.9504,3.16],[101.9404,3.1857],[101.9473,3.1912],[101.945,3.2041],[101.9476,3.2074],[101.9473,3.2188],[101.9392,3.2363],[101.9346,3.2382],[101.9314,3.244],[101.934,3.2503],[101.9316,3.254],[101.9278,3.2538],[101.9258,3.2596],[101.9095,3.2594],[101.9,3.2667],[101.8882,3.2602],[101.8741,3.2717],[101.8593,3.2733],[101.8548,3.2768]]]}},{"type":"Feature","properties":{"c":"N.24","n":"Semenyih","w":"PN","p":"PAS","cand":"Nushi bin Mahfodz","pct":50.9},"geometry":{"type":"Polygon","coordinates":[[[101.8402,3.0821],[101.8317,3.0564],[101.8439,3.0528],[101.8342,3.0377],[101.8192,3.0319],[101.7944,3.0114],[101.8006,3.0084],[101.8032,3.0004],[101.8075,3.0015],[101.8123,2.9971],[101.8222,3.0065],[101.8193,3.0095],[101.8243,3.0102],[101.8264,3.0071],[101.836,3.0089],[101.8366,3.0044],[101.8392,3.0049],[101.8393,2.9987],[101.8452,2.9952],[101.8329,2.9761],[101.8351,2.9713],[101.829,2.9593],[101.8285,2.9504],[101.8225,2.9506],[101.821,2.9529],[101.8199,2.9373],[101.8077,2.9327],[101.8085,2.9294],[101.793,2.9295],[101.7957,2.9135],[101.7997,2.9135],[101.8001,2.8964],[101.7812,2.8915],[101.7816,2.8874],[101.7755,2.8943],[101.7662,2.8966],[101.7661,2.8891],[101.7679,2.8849],[101.7834,2.8761],[101.788,2.8697],[101.8816,2.8667],[101.9234,2.9676],[101.9243,2.9745],[101.9282,2.9778],[101.9308,2.9985],[101.939,2.9985],[101.9433,3.0064],[101.9398,3.0101],[101.9396,3.0155],[101.9445,3.0161],[101.9551,3.0261],[101.9601,3.0245],[101.9682,3.0259],[101.9674,3.0439],[101.9641,3.0509],[101.9656,3.0558],[101.9588,3.0614],[101.9622,3.078],[101.9579,3.0808],[101.9553,3.095],[101.9488,3.102],[101.9482,3.1122],[101.9568,3.115],[101.9527,3.1173],[101.8788,3.119],[101.8728,3.1094],[101.8654,3.1097],[101.8666,3.105],[101.8648,3.1032],[101.86,3.1045],[101.8469,3.0981],[101.8402,3.0821]]]}},{"type":"Feature","properties":{"c":"N.25","n":"Kajang","w":"PH","p":"PKR","cand":"David Cheong Kian Young","pct":70.4},"geometry":{"type":"Polygon","coordinates":[[[101.7742,3.0494],[101.7755,3.047],[101.769,3.0285],[101.7727,3.0258],[101.7819,3.0012],[101.7868,2.9957],[101.7874,2.9893],[101.7851,2.986],[101.7869,2.9816],[101.784,2.9793],[101.7836,2.9745],[101.7817,2.9748],[101.7798,2.9863],[101.7764,2.9781],[101.7674,2.9779],[101.7678,2.9807],[101.7661,2.9808],[101.7646,2.9744],[101.7662,2.9725],[101.7846,2.9716],[101.787,2.9669],[101.785,2.9644],[101.7902,2.9644],[101.7896,2.9753],[101.8041,2.9775],[101.8143,2.9744],[101.8193,2.9788],[101.8261,2.9765],[101.8346,2.9689],[101.8329,2.9761],[101.8452,2.9952],[101.8393,2.9987],[101.8392,3.0049],[101.8366,3.0044],[101.836,3.0089],[101.8264,3.0071],[101.8243,3.0102],[101.8193,3.0095],[101.8222,3.0065],[101.8123,2.9971],[101.8075,3.0015],[101.8032,3.0004],[101.8006,3.0084],[101.7944,3.0114],[101.8192,3.0319],[101.8342,3.0377],[101.8439,3.0528],[101.8317,3.0564],[101.8402,3.0821],[101.8359,3.1103],[101.8257,3.1134],[101.8112,3.1087],[101.8088,3.1013],[101.8071,3.1013],[101.8081,3.098],[101.8018,3.0991],[101.796,3.0939],[101.7869,3.0829],[101.7879,3.0794],[101.785,3.08],[101.7819,3.0754],[101.7841,3.0649],[101.7787,3.0592],[101.7793,3.0511],[101.7742,3.0494]]]}},{"type":"Feature","properties":{"c":"N.26","n":"Sungai Ramal","w":"PN","p":"PAS","cand":"Mohd Shafie bin Ngah","pct":55.3},"geometry":{"type":"Polygon","coordinates":[[[101.8329,2.9698],[101.8261,2.9765],[101.8193,2.9788],[101.8143,2.9744],[101.8041,2.9775],[101.7896,2.9753],[101.7902,2.9644],[101.785,2.9644],[101.787,2.9669],[101.7846,2.9716],[101.7662,2.9725],[101.7647,2.9766],[101.7689,2.9867],[101.7673,2.9889],[101.7699,2.9898],[101.7706,2.9951],[101.7748,2.9947],[101.7762,2.9992],[101.7724,3.002],[101.7719,3.013],[101.759,3.0145],[101.7512,3.0248],[101.7483,3.0252],[101.7484,3.0191],[101.7458,3.0174],[101.7497,3.0103],[101.7453,3.0062],[101.7471,3.0025],[101.746,2.9914],[101.7315,3.0033],[101.7271,3.0042],[101.7252,3.0091],[101.7224,3.0081],[101.7258,3.0018],[101.7331,2.9962],[101.7415,2.9819],[101.7419,2.9681],[101.751,2.9513],[101.7512,2.9429],[101.7567,2.9261],[101.7553,2.9159],[101.7657,2.9031],[101.7662,2.8966],[101.7755,2.8943],[101.7816,2.8874],[101.7812,2.8915],[101.8001,2.8964],[101.7997,2.9135],[101.7957,2.9135],[101.793,2.9295],[101.8085,2.9294],[101.8077,2.9327],[101.8199,2.9373],[101.821,2.9529],[101.8225,2.9506],[101.8285,2.9504],[101.829,2.9593],[101.8338,2.9657],[101.8329,2.9698]]]}},{"type":"Feature","properties":{"c":"N.27","n":"Balakong","w":"PH","p":"DAP","cand":"Wayne Ong Chun Wei","pct":76.2},"geometry":{"type":"Polygon","coordinates":[[[101.7498,3.0683],[101.7496,3.0549],[101.7305,3.055],[101.7306,3.037],[101.7377,3.0368],[101.7378,3.0252],[101.728,3.0235],[101.7234,3.015],[101.7337,3.0097],[101.7252,3.0091],[101.7261,3.0056],[101.746,2.9914],[101.7471,3.0025],[101.7453,3.0062],[101.7497,3.0103],[101.7458,3.0174],[101.7484,3.0191],[101.7483,3.0252],[101.7512,3.0248],[101.759,3.0145],[101.7719,3.013],[101.7724,3.002],[101.7762,2.9992],[101.7748,2.9947],[101.7706,2.9951],[101.7699,2.9898],[101.7673,2.9889],[101.7689,2.9867],[101.7661,2.9808],[101.7678,2.9807],[101.7674,2.9779],[101.7764,2.9781],[101.7798,2.9863],[101.7817,2.9748],[101.7836,2.9745],[101.784,2.9793],[101.7869,2.9816],[101.7851,2.986],[101.7874,2.9893],[101.7868,2.9957],[101.7819,3.0012],[101.7727,3.0258],[101.769,3.0285],[101.7755,3.047],[101.7708,3.0534],[101.7702,3.0588],[101.7571,3.06],[101.7547,3.0659],[101.7498,3.0683]]]}},{"type":"Feature","properties":{"c":"N.28","n":"Seri Kembangan","w":"PH","p":"DAP","cand":"Wong Siew Ki","pct":89.3},"geometry":{"type":"Polygon","coordinates":[[[101.7306,3.037],[101.7306,3.0353],[101.7288,3.0377],[101.7224,3.0336],[101.7242,3.0387],[101.7212,3.0403],[101.7195,3.0471],[101.7161,3.0465],[101.7135,3.054],[101.7109,3.0536],[101.7081,3.0461],[101.7063,3.049],[101.6988,3.0483],[101.6991,3.0451],[101.6909,3.0432],[101.6868,3.0454],[101.6841,3.0441],[101.6875,3.0322],[101.6804,3.0268],[101.6803,2.9957],[101.7018,3.0092],[101.7024,3.0175],[101.7095,3.0215],[101.7088,3.0262],[101.7224,3.0081],[101.7337,3.0097],[101.7234,3.015],[101.728,3.0235],[101.7378,3.0252],[101.7377,3.0368],[101.7306,3.037]]]}},{"type":"Feature","properties":{"c":"N.29","n":"Seri Serdang","w":"PH","p":"AMANAH","cand":"Abbas Salimmi bin Che Adzmi @ Azmi","pct":56.8},"geometry":{"type":"Polygon","coordinates":[[[101.6799,3.0095],[101.6739,3.0095],[101.6692,3.0168],[101.6292,3.032],[101.6274,3.0315],[101.6305,3.0202],[101.6314,2.9994],[101.6233,3.0007],[101.6207,2.9965],[101.6176,2.9989],[101.6178,3.0043],[101.6001,3.0038],[101.602,3.0074],[101.5986,3.0076],[101.5999,3.0116],[101.5958,3.0131],[101.5994,3.0391],[101.594,3.0394],[101.5931,3.0342],[101.5884,3.0333],[101.588,3.0255],[101.5833,3.0154],[101.5852,3.0078],[101.582,3.0062],[101.582,3.0011],[101.5841,3.0005],[101.5793,2.9823],[101.5744,2.9789],[101.5761,2.9763],[101.5845,2.9797],[101.6861,2.9805],[101.7133,2.9831],[101.7127,2.9863],[101.7173,2.9877],[101.7184,2.9945],[101.7162,3.0075],[101.72,3.0115],[101.7088,3.0262],[101.7095,3.0215],[101.7024,3.0175],[101.7018,3.0092],[101.6808,2.9955],[101.6799,3.0095]]]}},{"type":"Feature","properties":{"c":"N.30","n":"Kinrara","w":"PH","p":"DAP","cand":"Ng Sze Han","pct":81.0},"geometry":{"type":"Polygon","coordinates":[[[101.6841,3.0441],[101.6685,3.0406],[101.6687,3.0455],[101.651,3.0461],[101.6534,3.0511],[101.6592,3.0493],[101.6594,3.0589],[101.6481,3.0571],[101.6494,3.0618],[101.6471,3.0619],[101.6518,3.067],[101.651,3.0695],[101.646,3.0713],[101.6309,3.0703],[101.6227,3.0732],[101.6191,3.0702],[101.6172,3.0585],[101.6097,3.0553],[101.6073,3.0466],[101.5994,3.0391],[101.5959,3.0121],[101.5999,3.0116],[101.5986,3.0076],[101.602,3.0074],[101.6001,3.0038],[101.6178,3.0043],[101.6176,2.9989],[101.6207,2.9965],[101.6233,3.0007],[101.6314,2.9994],[101.6305,3.0202],[101.6274,3.0315],[101.6292,3.032],[101.6692,3.0168],[101.6739,3.0095],[101.6799,3.0095],[101.6804,3.0268],[101.6875,3.0322],[101.6841,3.0441]]]}},{"type":"Feature","properties":{"c":"N.31","n":"Subang Jaya","w":"PH","p":"DAP","cand":"Michelle Ng Mei Sze","pct":81.3},"geometry":{"type":"Polygon","coordinates":[[[101.5994,3.0391],[101.6073,3.0466],[101.6097,3.0553],[101.6172,3.0585],[101.6203,3.0721],[101.6141,3.0746],[101.5979,3.0731],[101.5972,3.0761],[101.6019,3.0772],[101.6042,3.083],[101.5853,3.0851],[101.5797,3.0821],[101.5721,3.082],[101.5717,3.0634],[101.5675,3.0604],[101.5682,3.0544],[101.5643,3.0506],[101.574,3.0301],[101.5782,3.0292],[101.5803,3.022],[101.5849,3.0211],[101.588,3.0255],[101.5884,3.0333],[101.5931,3.0342],[101.594,3.0394],[101.5994,3.0391]]]}},{"type":"Feature","properties":{"c":"N.32","n":"Seri Setia","w":"PH","p":"PKR","cand":"Mohammad Fahmi bin Ngah","pct":58.4},"geometry":{"type":"Polygon","coordinates":[[[101.6258,3.0716],[101.6264,3.0848],[101.6193,3.0843],[101.6193,3.0869],[101.6149,3.0875],[101.6147,3.0912],[101.606,3.0912],[101.6064,3.1011],[101.6091,3.1068],[101.5954,3.1065],[101.5952,3.1093],[101.5913,3.1095],[101.5951,3.1272],[101.5682,3.1274],[101.5663,3.1199],[101.5676,3.1161],[101.5577,3.1032],[101.5543,3.1164],[101.5464,3.1274],[101.5254,3.1277],[101.5338,3.1089],[101.5458,3.1027],[101.5493,3.093],[101.5538,3.0934],[101.5563,3.0756],[101.5853,3.0851],[101.6042,3.083],[101.6019,3.0772],[101.5972,3.0761],[101.5979,3.0731],[101.6141,3.0746],[101.6169,3.0743],[101.617,3.0721],[101.6258,3.0716]]]}},{"type":"Feature","properties":{"c":"N.33","n":"Taman Medan","w":"PN","p":"BERSATU","cand":"Afif bin Bahardin","pct":50.0},"geometry":{"type":"Polygon","coordinates":[[[101.646,3.0713],[101.6547,3.0773],[101.6524,3.0817],[101.6412,3.0826],[101.6412,3.0879],[101.652,3.0875],[101.6498,3.0913],[101.6345,3.0961],[101.6385,3.1046],[101.6299,3.1037],[101.6301,3.0959],[101.6256,3.0952],[101.6253,3.0983],[101.6205,3.0979],[101.6205,3.0894],[101.6234,3.0848],[101.6264,3.0848],[101.6258,3.0716],[101.646,3.0713]]]}},{"type":"Feature","properties":{"c":"N.34","n":"Bukit Gasing","w":"PH","p":"DAP","cand":"Rajiv a/l Rishyakaran","pct":85.9},"geometry":{"type":"Polygon","coordinates":[[[101.6547,3.0773],[101.6597,3.08],[101.6594,3.0843],[101.6638,3.0861],[101.6589,3.0922],[101.6592,3.1127],[101.6527,3.1099],[101.6494,3.1174],[101.6434,3.1191],[101.6481,3.1252],[101.6471,3.1277],[101.6358,3.1325],[101.6279,3.1305],[101.6249,3.1185],[101.6259,3.113],[101.6297,3.1109],[101.6254,3.1043],[101.6249,3.0964],[101.6301,3.0959],[101.6299,3.1037],[101.6385,3.1046],[101.6345,3.0961],[101.6498,3.0913],[101.652,3.0875],[101.6412,3.0879],[101.6412,3.0826],[101.6524,3.0817],[101.6547,3.0773]]]}},{"type":"Feature","properties":{"c":"N.35","n":"Kampung Tunku","w":"PH","p":"DAP","cand":"Lim Yi Wei","pct":90.9},"geometry":{"type":"Polygon","coordinates":[[[101.6234,3.0848],[101.6205,3.0894],[101.6205,3.0979],[101.6253,3.0983],[101.6254,3.1043],[101.6297,3.1109],[101.6259,3.113],[101.6249,3.1185],[101.6279,3.1305],[101.6244,3.1315],[101.6223,3.1254],[101.6127,3.1137],[101.6058,3.1125],[101.611,3.1104],[101.6064,3.1011],[101.606,3.0912],[101.6147,3.0912],[101.6149,3.0875],[101.6193,3.0869],[101.6193,3.0843],[101.6234,3.0848]]]}},{"type":"Feature","properties":{"c":"N.36","n":"Bandar Utama","w":"PH","p":"DAP","cand":"Jamaliah binti Jamaluddin","pct":85.2},"geometry":{"type":"Polygon","coordinates":[[[101.6095,3.1057],[101.611,3.1104],[101.6058,3.1125],[101.6127,3.1137],[101.6223,3.1254],[101.6244,3.1315],[101.6295,3.1306],[101.6297,3.1371],[101.6193,3.1457],[101.6153,3.1552],[101.6051,3.1552],[101.6048,3.1523],[101.6026,3.154],[101.5995,3.1497],[101.5967,3.1498],[101.5913,3.1095],[101.5952,3.1093],[101.5954,3.1065],[101.6095,3.1057]]]}},{"type":"Feature","properties":{"c":"N.37","n":"Bukit Lanjan","w":"PH","p":"PKR","cand":"Pua Pei Ling","pct":78.3},"geometry":{"type":"Polygon","coordinates":[[[101.5796,3.2358],[101.5928,3.2297],[101.6033,3.2304],[101.5982,3.2196],[101.5904,3.2169],[101.589,3.2186],[101.5801,3.2175],[101.5814,3.2142],[101.5726,3.2121],[101.5759,3.2077],[101.5816,3.2056],[101.5825,3.1898],[101.5968,3.1839],[101.6005,3.1799],[101.6012,3.1766],[101.5963,3.1686],[101.5967,3.1498],[101.5995,3.1497],[101.6026,3.154],[101.6048,3.1523],[101.6051,3.1552],[101.6153,3.1552],[101.6198,3.1785],[101.6187,3.1971],[101.6245,3.1991],[101.634,3.2176],[101.6365,3.2162],[101.6393,3.2224],[101.6365,3.2288],[101.6462,3.2327],[101.6467,3.2352],[101.6539,3.2351],[101.654,3.237],[101.65,3.2424],[101.6448,3.2421],[101.6448,3.2453],[101.6365,3.2471],[101.6344,3.2498],[101.6123,3.2505],[101.5796,3.2358]]]}},{"type":"Feature","properties":{"c":"N.38","n":"Paya Jaras","w":"PN","p":"PAS","cand":"Ab Halim bin Tamuri","pct":51.7},"geometry":{"type":"Polygon","coordinates":[[[101.4319,3.193],[101.4684,3.1942],[101.4797,3.1918],[101.4835,3.1935],[101.488,3.1923],[101.4891,3.1869],[101.4932,3.1835],[101.4987,3.1827],[101.4987,3.1768],[101.5139,3.1769],[101.5147,3.1817],[101.5284,3.1848],[101.5285,3.1813],[101.5425,3.1809],[101.5413,3.1834],[101.5449,3.1847],[101.544,3.1874],[101.5525,3.1891],[101.5527,3.1921],[101.5562,3.1939],[101.5621,3.1941],[101.5619,3.2011],[101.57,3.2143],[101.5726,3.2121],[101.5814,3.2142],[101.5801,3.2175],[101.589,3.2186],[101.5904,3.2169],[101.5982,3.2196],[101.6033,3.2304],[101.5928,3.2297],[101.5796,3.2358],[101.5736,3.2505],[101.5712,3.2481],[101.5691,3.2526],[101.5547,3.2556],[101.556,3.2517],[101.5533,3.2502],[101.5569,3.2493],[101.5604,3.2444],[101.5593,3.2326],[101.5523,3.2328],[101.5515,3.2262],[101.5472,3.2188],[101.5303,3.2184],[101.5303,3.2166],[101.5269,3.2212],[101.5236,3.2212],[101.5215,3.2175],[101.5161,3.2197],[101.514,3.2181],[101.5099,3.2229],[101.5011,3.2203],[101.4923,3.2313],[101.4921,3.2204],[101.4855,3.2242],[101.4792,3.2319],[101.4794,3.2366],[101.4698,3.2473],[101.4593,3.2409],[101.4388,3.2127],[101.4386,3.2035],[101.433,3.1994],[101.4319,3.193]]]}},{"type":"Feature","properties":{"c":"N.39","n":"Kota Damansara","w":"PH","p":"PKR","cand":"Muhammad Izuan bin Ahmad Kasim","pct":53.7},"geometry":{"type":"Polygon","coordinates":[[[101.5951,3.1272],[101.5974,3.1513],[101.5963,3.1686],[101.6012,3.1766],[101.6005,3.1799],[101.5968,3.1839],[101.5825,3.1898],[101.5816,3.2056],[101.5759,3.2077],[101.57,3.2143],[101.5619,3.2011],[101.5621,3.1941],[101.5562,3.1939],[101.5527,3.1921],[101.5525,3.1891],[101.544,3.1874],[101.5449,3.1847],[101.5413,3.1834],[101.5425,3.1809],[101.5285,3.1813],[101.5287,3.1614],[101.5256,3.1596],[101.529,3.1576],[101.5243,3.1579],[101.5221,3.1546],[101.5254,3.1277],[101.5464,3.1274],[101.5543,3.1164],[101.5577,3.1032],[101.5676,3.1161],[101.5663,3.1199],[101.5682,3.1274],[101.5951,3.1272]]]}},{"type":"Feature","properties":{"c":"N.40","n":"Kota Anggerik","w":"PH","p":"PKR","cand":"Mohd Najwan bin Halimi","pct":56.0},"geometry":{"type":"Polygon","coordinates":[[[101.5254,3.1277],[101.5221,3.1546],[101.5243,3.1579],[101.529,3.1576],[101.5256,3.1596],[101.5287,3.1614],[101.5284,3.1848],[101.5147,3.1817],[101.5139,3.1769],[101.4987,3.1768],[101.4987,3.1698],[101.476,3.1708],[101.4728,3.1671],[101.4729,3.1604],[101.47,3.1584],[101.4719,3.1527],[101.4701,3.1345],[101.4544,3.1346],[101.4524,3.1144],[101.4438,3.1123],[101.4413,3.1093],[101.4427,3.0927],[101.4484,3.0733],[101.4508,3.0741],[101.4565,3.0669],[101.4719,3.0649],[101.4739,3.0588],[101.4901,3.0634],[101.4899,3.0522],[101.5082,3.0517],[101.5425,3.0617],[101.5563,3.0756],[101.5538,3.0934],[101.5493,3.093],[101.5458,3.1027],[101.5338,3.1089],[101.5254,3.1277]]]}},{"type":"Feature","properties":{"c":"N.41","n":"Batu Tiga","w":"PH","p":"AMANAH","cand":"Danial Al-Rashid bin Haron Aminar Rashid","pct":51.3},"geometry":{"type":"Polygon","coordinates":[[[101.5721,3.082],[101.5563,3.0756],[101.5425,3.0617],[101.5027,3.0516],[101.4899,3.0522],[101.4901,3.0634],[101.4883,3.0634],[101.4739,3.0588],[101.4736,3.0545],[101.4662,3.0533],[101.4648,3.0488],[101.4607,3.0467],[101.452,3.0454],[101.4551,3.0393],[101.4626,3.0377],[101.4641,3.0446],[101.4721,3.0518],[101.4733,3.0471],[101.476,3.0489],[101.4834,3.0482],[101.4908,3.0447],[101.4967,3.0469],[101.4942,3.0411],[101.5077,3.0402],[101.5095,3.0436],[101.5139,3.032],[101.5184,3.0292],[101.5205,3.0359],[101.5223,3.0359],[101.5232,3.0283],[101.5265,3.0389],[101.5364,3.0389],[101.5404,3.045],[101.5445,3.0465],[101.5463,3.0391],[101.5483,3.0422],[101.5713,3.0383],[101.5643,3.0506],[101.5682,3.0544],[101.5675,3.0604],[101.5717,3.0634],[101.5721,3.082]]]}},{"type":"Feature","properties":{"c":"N.42","n":"Meru","w":"PH","p":"AMANAH","cand":"Mariam binti Abdul Rashid","pct":52.5},"geometry":{"type":"Polygon","coordinates":[[[101.4319,3.193],[101.4353,3.1602],[101.4324,3.1597],[101.4333,3.1537],[101.4304,3.1537],[101.4304,3.1566],[101.4088,3.1577],[101.4084,3.1545],[101.4025,3.1546],[101.4022,3.1366],[101.3781,3.1369],[101.378,3.1398],[101.3835,3.146],[101.3703,3.1508],[101.367,3.1405],[101.3748,3.1379],[101.3748,3.1317],[101.3676,3.1242],[101.3662,3.1124],[101.3641,3.1112],[101.3667,3.098],[101.377,3.0945],[101.3788,3.0964],[101.3919,3.0906],[101.3931,3.093],[101.4222,3.0933],[101.4226,3.1125],[101.4413,3.1093],[101.4438,3.1123],[101.449,3.1125],[101.4524,3.1144],[101.4518,3.1198],[101.4542,3.1198],[101.4544,3.1346],[101.4701,3.1345],[101.4719,3.1527],[101.47,3.1584],[101.4729,3.1604],[101.4728,3.1671],[101.476,3.1708],[101.4987,3.1698],[101.4987,3.1827],[101.4891,3.1869],[101.488,3.1923],[101.4739,3.1918],[101.4684,3.1942],[101.4319,3.193]]]}},{"type":"Feature","properties":{"c":"N.43","n":"Sementa","w":"PN","p":"PAS","cand":"Noor Najhan bin Mohamad Salleh","pct":59.2},"geometry":{"type":"Polygon","coordinates":[[[101.3069,3.1643],[101.3171,3.1124],[101.3294,3.1093],[101.3596,3.0736],[101.3628,3.0645],[101.3605,3.0512],[101.363,3.0484],[101.3832,3.0449],[101.3884,3.0367],[101.3949,3.043],[101.4018,3.0408],[101.4083,3.0463],[101.4153,3.0485],[101.4199,3.0553],[101.4296,3.0522],[101.4347,3.0583],[101.432,3.0631],[101.4402,3.0583],[101.442,3.0607],[101.4331,3.0667],[101.4378,3.0703],[101.4355,3.0782],[101.4118,3.0797],[101.4094,3.0856],[101.4043,3.0836],[101.3859,3.0938],[101.3667,3.098],[101.3641,3.1112],[101.3662,3.1124],[101.3676,3.1242],[101.3748,3.1317],[101.3748,3.1379],[101.367,3.1405],[101.3703,3.1508],[101.3835,3.146],[101.378,3.1398],[101.3781,3.1369],[101.4022,3.1366],[101.4025,3.1546],[101.4084,3.1545],[101.4088,3.1577],[101.4304,3.1566],[101.4304,3.1537],[101.4333,3.1537],[101.4324,3.1597],[101.4353,3.1602],[101.4319,3.193],[101.4,3.1926],[101.4001,3.1868],[101.3693,3.1868],[101.3692,3.1759],[101.3426,3.176],[101.3426,3.163],[101.3275,3.1635],[101.3228,3.1578],[101.3148,3.1663],[101.3069,3.1643]]]}},{"type":"Feature","properties":{"c":"N.44","n":"Selat Klang","w":"PN","p":"BERSATU","cand":"Abdul Rashid bin Asari","pct":58.9},"geometry":{"type":"MultiPolygon","coordinates":[[[[101.3605,3.0512],[101.359,3.0162],[101.3651,3.0004],[101.3783,3.0027],[101.39,2.9998],[101.3954,3.0013],[101.3933,3.0062],[101.4057,3.0168],[101.4097,3.0132],[101.4181,3.0226],[101.4141,3.0255],[101.4233,3.0338],[101.4254,3.0438],[101.4257,3.0492],[101.4234,3.0492],[101.4237,3.0556],[101.422,3.056],[101.4153,3.0485],[101.4083,3.0463],[101.4018,3.0408],[101.3949,3.043],[101.3884,3.0367],[101.3832,3.0449],[101.3725,3.0453],[101.3706,3.0483],[101.363,3.0484],[101.3605,3.0512]]],[[[101.2588,2.9186],[101.2588,2.9387],[101.2564,2.9389],[101.2447,2.9256],[101.2353,2.9202],[101.2351,2.9048],[101.2387,2.9042],[101.256,2.9107],[101.2588,2.9186]]],[[[101.3869,2.9926],[101.3638,2.9933],[101.3755,2.9873],[101.3836,2.9898],[101.3856,2.9866],[101.3869,2.9926]]],[[[101.2554,2.9649],[101.2535,2.9661],[101.2422,2.9592],[101.2303,2.948],[101.2314,2.9293],[101.2341,2.9222],[101.2409,2.9238],[101.2543,2.9382],[101.2586,2.9398],[101.2554,2.9649]]],[[[101.3039,2.9736],[101.2972,2.9744],[101.2902,2.9658],[101.2635,2.9481],[101.2649,2.9187],[101.272,2.918],[101.2761,2.9216],[101.295,2.9536],[101.3039,2.9736]]],[[[101.2802,2.9619],[101.2892,2.9661],[101.2954,2.9747],[101.3041,2.9754],[101.3058,2.9788],[101.3019,2.9804],[101.29,2.9754],[101.2825,2.9685],[101.2802,2.9619]]],[[[101.3002,2.9808],[101.336,2.9985],[101.3368,3.0069],[101.334,3.009],[101.314,3.011],[101.2883,3.0008],[101.2857,3.0016],[101.2829,3.0092],[101.2643,2.9792],[101.2612,2.958],[101.2626,2.9526],[101.2697,2.9555],[101.2785,2.9689],[101.3002,2.9808]]],[[[101.2502,3.0154],[101.2226,3.0036],[101.2255,2.9959],[101.2208,2.9966],[101.2186,2.9945],[101.2189,2.9862],[101.2162,2.9806],[101.199,2.9569],[101.1979,2.9512],[101.2001,2.9493],[101.2146,2.9531],[101.2429,2.9881],[101.2625,3.0031],[101.2599,3.0165],[101.2502,3.0154]]],[[[101.2678,3.0202],[101.2631,3.0165],[101.2646,3.0062],[101.2698,3.0145],[101.27,3.0202],[101.2678,3.0202]]],[[[101.2395,3.0181],[101.2404,3.0157],[101.247,3.0181],[101.2463,3.0211],[101.2492,3.0185],[101.2488,3.0234],[101.2498,3.0192],[101.2527,3.0198],[101.2521,3.0253],[101.2529,3.0199],[101.2597,3.0206],[101.2776,3.0355],[101.2805,3.0426],[101.2677,3.0582],[101.2592,3.0602],[101.2415,3.0528],[101.2147,3.0202],[101.209,3.0072],[101.2168,3.0046],[101.2389,3.0149],[101.2395,3.0181]]],[[[101.3044,3.019],[101.307,3.01],[101.3158,3.0138],[101.3369,3.01],[101.3342,3.0381],[101.338,3.0546],[101.3348,3.0638],[101.3256,3.068],[101.3055,3.0628],[101.2964,3.0463],[101.2842,3.013],[101.2874,3.0029],[101.3056,3.0087],[101.3042,3.0238],[101.3044,3.019]]]]}},{"type":"Feature","properties":{"c":"N.45","n":"Bandar Baru Klang","w":"PH","p":"DAP","cand":"Quah Perng Fei","pct":87.0},"geometry":{"type":"Polygon","coordinates":[[[101.4413,3.1093],[101.4226,3.1125],[101.4222,3.0933],[101.3931,3.093],[101.3919,3.0906],[101.4043,3.0836],[101.4094,3.0856],[101.4118,3.0797],[101.4355,3.0782],[101.4378,3.0703],[101.4331,3.0667],[101.442,3.0607],[101.4402,3.0583],[101.432,3.0631],[101.4347,3.0583],[101.4296,3.0522],[101.423,3.0553],[101.4234,3.0492],[101.4257,3.0492],[101.4233,3.0338],[101.4413,3.0485],[101.4468,3.0451],[101.4607,3.0467],[101.4648,3.0488],[101.4662,3.0533],[101.4748,3.0561],[101.4719,3.0649],[101.4565,3.0669],[101.4508,3.0741],[101.4484,3.0733],[101.4427,3.0927],[101.4413,3.1093]]]}},{"type":"Feature","properties":{"c":"N.46","n":"Pelabuhan Klang","w":"PH","p":"PKR","cand":"Azmizam bin Zaman Huri","pct":56.4},"geometry":{"type":"MultiPolygon","coordinates":[[[[101.39,2.9998],[101.3939,2.9944],[101.3939,2.9853],[101.3892,2.9783],[101.3694,2.961],[101.3581,2.9258],[101.3507,2.9242],[101.3582,2.9119],[101.3695,2.9037],[101.3746,2.9037],[101.3831,2.9128],[101.3878,2.9415],[101.403,2.9541],[101.4104,2.9758],[101.4189,2.9778],[101.4254,2.9755],[101.438,2.9651],[101.4386,2.962],[101.4356,2.9587],[101.4205,2.9499],[101.4686,2.9516],[101.4621,2.9704],[101.4512,2.9839],[101.4225,2.9836],[101.4227,2.9915],[101.4265,2.9917],[101.427,2.9972],[101.4243,2.998],[101.4243,3.0012],[101.4277,3.0031],[101.4268,3.0066],[101.4242,3.007],[101.4246,3.0109],[101.4196,3.0108],[101.4163,3.0069],[101.4189,3.0032],[101.4182,2.9999],[101.4035,2.9941],[101.4007,2.9989],[101.3973,2.9974],[101.3954,3.0013],[101.39,2.9998]]],[[[101.3638,2.9933],[101.3547,2.9949],[101.3429,2.9894],[101.3164,2.9686],[101.29,2.9263],[101.2796,2.8989],[101.275,2.8952],[101.2842,2.8844],[101.2973,2.8924],[101.3112,2.9098],[101.3183,2.9143],[101.3292,2.9117],[101.3409,2.8958],[101.3482,2.8971],[101.3463,2.9046],[101.3365,2.9161],[101.3358,2.9243],[101.3396,2.9285],[101.3523,2.9348],[101.3579,2.9445],[101.3637,2.9629],[101.3722,2.9765],[101.3776,2.9821],[101.3878,2.9862],[101.3905,2.9901],[101.3869,2.9926],[101.3856,2.9866],[101.3836,2.9898],[101.3755,2.9873],[101.3638,2.9933]]]]}},{"type":"Feature","properties":{"c":"N.47","n":"Pandamaran","w":"PH","p":"DAP","cand":"Tony Leong Tuck Chee","pct":86.7},"geometry":{"type":"Polygon","coordinates":[[[101.452,3.0454],[101.4468,3.0451],[101.4418,3.0485],[101.4353,3.0454],[101.4141,3.0255],[101.4181,3.0226],[101.4097,3.0132],[101.4057,3.0168],[101.3933,3.0062],[101.3973,2.9974],[101.4007,2.9989],[101.4035,2.9941],[101.4136,2.9975],[101.4194,3.0013],[101.4163,3.0069],[101.4196,3.0108],[101.4305,3.0108],[101.4309,3.0149],[101.4387,3.0137],[101.4414,3.0261],[101.4435,3.0262],[101.4429,3.0302],[101.4497,3.0304],[101.4484,3.0327],[101.4511,3.0414],[101.4536,3.0414],[101.452,3.0454]]]}},{"type":"Feature","properties":{"c":"N.48","n":"Sentosa","w":"PH","p":"PKR","cand":"Gunarajah a/l R George","pct":83.5},"geometry":{"type":"Polygon","coordinates":[[[101.4512,2.9839],[101.4468,2.9888],[101.4423,3.0007],[101.4585,3.0005],[101.4589,2.9976],[101.4861,2.9874],[101.4899,3.0017],[101.4879,3.0028],[101.4963,3.0034],[101.4957,3.0128],[101.4975,3.0152],[101.4871,3.0186],[101.4857,3.026],[101.4824,3.0273],[101.479,3.0254],[101.4778,3.0295],[101.4688,3.0239],[101.4576,3.0215],[101.4551,3.0109],[101.4309,3.0149],[101.4305,3.0108],[101.4246,3.0109],[101.4242,3.007],[101.4268,3.0066],[101.4277,3.0031],[101.4243,3.0012],[101.4243,2.998],[101.427,2.9972],[101.4265,2.9917],[101.4227,2.9915],[101.4225,2.9836],[101.4512,2.9839]]]}},{"type":"Feature","properties":{"c":"N.49","n":"Sungai Kandis","w":"PN","p":"BERSATU","cand":"Wan Dzahanurin bin Ahmad","pct":49.0},"geometry":{"type":"Polygon","coordinates":[[[101.4536,3.0414],[101.4511,3.0414],[101.4484,3.0327],[101.4497,3.0304],[101.4429,3.0302],[101.439,3.0121],[101.4551,3.0109],[101.4576,3.0215],[101.4688,3.0239],[101.4778,3.0295],[101.479,3.0254],[101.4824,3.0273],[101.4857,3.026],[101.4871,3.0186],[101.4975,3.0152],[101.4957,3.0128],[101.4963,3.0034],[101.4879,3.0028],[101.4899,3.0017],[101.4861,2.9874],[101.4589,2.9976],[101.4585,3.0005],[101.4423,3.0007],[101.4468,2.9888],[101.4621,2.9704],[101.4692,2.9495],[101.5235,2.9494],[101.5487,2.9645],[101.549,2.9572],[101.5619,2.9643],[101.5596,2.9695],[101.5698,2.9756],[101.564,2.9754],[101.5563,2.9803],[101.5405,2.9726],[101.5371,2.9789],[101.5056,2.979],[101.5029,2.9855],[101.512,2.9879],[101.5106,3.0073],[101.5268,3.0156],[101.5222,3.0187],[101.5234,3.0214],[101.5208,3.0212],[101.5207,3.0236],[101.524,3.0246],[101.5223,3.0359],[101.5205,3.0359],[101.5184,3.0292],[101.5139,3.032],[101.5095,3.0436],[101.5077,3.0402],[101.4956,3.0403],[101.4942,3.0411],[101.4967,3.0469],[101.4908,3.0447],[101.4834,3.0482],[101.476,3.0489],[101.4733,3.0471],[101.4721,3.0518],[101.4641,3.0446],[101.4626,3.0377],[101.4536,3.0414]]]}},{"type":"Feature","properties":{"c":"N.50","n":"Kota Kemuning","w":"PH","p":"DAP","cand":"Preakas a/l Sampunathan","pct":70.1},"geometry":{"type":"Polygon","coordinates":[[[101.5849,3.0211],[101.5803,3.022],[101.5797,3.0266],[101.574,3.0301],[101.5713,3.0383],[101.5483,3.0422],[101.5463,3.0391],[101.5445,3.0465],[101.5404,3.045],[101.5364,3.0389],[101.5265,3.0389],[101.524,3.0246],[101.5207,3.0236],[101.5208,3.0212],[101.5234,3.0214],[101.5222,3.0187],[101.5268,3.0156],[101.5106,3.0073],[101.512,2.9879],[101.5029,2.9855],[101.5056,2.979],[101.5371,2.9789],[101.5405,2.9726],[101.5563,2.9803],[101.564,2.9754],[101.5776,2.9794],[101.5841,3.0005],[101.582,3.0011],[101.582,3.0062],[101.5852,3.0078],[101.5833,3.0154],[101.5849,3.0211]]]}},{"type":"Feature","properties":{"c":"N.51","n":"Sijangkang","w":"PN","p":"PAS","cand":"Ahmad Yunus bin Hairi","pct":61.4},"geometry":{"type":"MultiPolygon","coordinates":[[[[101.5744,2.9789],[101.5596,2.9695],[101.5619,2.9643],[101.549,2.9572],[101.5487,2.9645],[101.5235,2.9494],[101.4692,2.9495],[101.4686,2.9516],[101.4205,2.9499],[101.4356,2.9587],[101.4386,2.962],[101.438,2.9651],[101.4254,2.9755],[101.4189,2.9778],[101.4104,2.9758],[101.403,2.9541],[101.3878,2.9415],[101.3855,2.9329],[101.386,2.9218],[101.3804,2.908],[101.3746,2.9037],[101.3695,2.9037],[101.3582,2.9119],[101.3507,2.9242],[101.3416,2.923],[101.3391,2.9204],[101.3516,2.9051],[101.3517,2.8977],[101.3488,2.8935],[101.3441,2.8918],[101.3389,2.8934],[101.3197,2.9111],[101.3053,2.8907],[101.2888,2.8781],[101.2876,2.8592],[101.2929,2.8384],[101.3044,2.8344],[101.3265,2.8314],[101.3599,2.8123],[101.4069,2.8045],[101.4099,2.8073],[101.4121,2.8264],[101.4094,2.8358],[101.4124,2.8396],[101.4126,2.8458],[101.4199,2.8463],[101.422,2.8624],[101.4262,2.8652],[101.4373,2.8665],[101.4425,2.8643],[101.4492,2.8737],[101.4498,2.8801],[101.4689,2.8889],[101.4721,2.8893],[101.4718,2.8826],[101.4843,2.8867],[101.5072,2.9092],[101.5077,2.8846],[101.5146,2.8881],[101.5255,2.8753],[101.5175,2.8689],[101.5118,2.8752],[101.5036,2.8683],[101.5145,2.857],[101.5345,2.8727],[101.5384,2.8679],[101.5374,2.8663],[101.5492,2.8668],[101.5494,2.8638],[101.5519,2.8632],[101.5552,2.8645],[101.5572,2.8627],[101.5635,2.8679],[101.5772,2.8523],[101.5784,2.8571],[101.589,2.8569],[101.5888,2.8525],[101.629,2.8525],[101.6332,2.8437],[101.6417,2.849],[101.5744,2.9789]]]]}},{"type":"Feature","properties":{"c":"N.52","n":"Banting","w":"PH","p":"DAP","cand":"Papparaidu a/l Veraman","pct":80.6},"geometry":{"type":"Polygon","coordinates":[[[101.4843,2.8867],[101.4871,2.8821],[101.4793,2.8776],[101.4724,2.867],[101.4815,2.8637],[101.4805,2.8557],[101.5032,2.8566],[101.5143,2.8507],[101.4999,2.8483],[101.4857,2.8383],[101.4857,2.8436],[101.479,2.8446],[101.4785,2.8158],[101.4714,2.8187],[101.4708,2.8061],[101.4743,2.8068],[101.4884,2.801],[101.4829,2.8053],[101.4841,2.8128],[101.491,2.8103],[101.4963,2.8115],[101.4931,2.8036],[101.4962,2.8022],[101.4989,2.8052],[101.5005,2.7991],[101.5051,2.7997],[101.5052,2.7975],[101.5115,2.7955],[101.5115,2.8003],[101.5141,2.8004],[101.5181,2.7961],[101.5337,2.7961],[101.5338,2.7985],[101.5409,2.7984],[101.5408,2.802],[101.5857,2.7989],[101.5868,2.8063],[101.5827,2.8108],[101.5835,2.8167],[101.5805,2.8154],[101.5754,2.8175],[101.5739,2.8238],[101.5772,2.8269],[101.5715,2.8294],[101.5598,2.829],[101.5575,2.8378],[101.5606,2.8378],[101.5772,2.8523],[101.5635,2.8679],[101.5572,2.8627],[101.5552,2.8645],[101.5519,2.8632],[101.5494,2.8638],[101.5492,2.8668],[101.5374,2.8663],[101.5384,2.8679],[101.5345,2.8727],[101.5145,2.857],[101.5036,2.8683],[101.5118,2.8752],[101.5175,2.8689],[101.5255,2.8753],[101.5146,2.8881],[101.5077,2.8846],[101.5072,2.9092],[101.4843,2.8867]]]}},{"type":"Feature","properties":{"c":"N.53","n":"Morib","w":"PN","p":"BERSATU","cand":"Rosnizan bin Ahmad","pct":55.6},"geometry":{"type":"Polygon","coordinates":[[[101.4038,2.8039],[101.4084,2.79],[101.4277,2.7751],[101.4482,2.7385],[101.4605,2.7612],[101.4825,2.747],[101.4789,2.7406],[101.4931,2.7325],[101.498,2.7384],[101.5081,2.7323],[101.522,2.7583],[101.5341,2.7585],[101.5336,2.7773],[101.5298,2.7773],[101.5015,2.7933],[101.5051,2.7997],[101.5005,2.7991],[101.4989,2.8052],[101.4962,2.8022],[101.4931,2.8036],[101.4963,2.8115],[101.491,2.8103],[101.4841,2.8128],[101.4829,2.8053],[101.4884,2.801],[101.4743,2.8068],[101.4708,2.8061],[101.4714,2.8187],[101.4785,2.8158],[101.479,2.8446],[101.4857,2.8436],[101.4857,2.8383],[101.4999,2.8483],[101.5143,2.8507],[101.5032,2.8566],[101.4805,2.8557],[101.4815,2.8637],[101.4724,2.867],[101.4793,2.8776],[101.4871,2.8821],[101.4843,2.8867],[101.4718,2.8826],[101.4721,2.8893],[101.4689,2.8889],[101.4498,2.8801],[101.4492,2.8737],[101.4425,2.8643],[101.4373,2.8665],[101.4262,2.8652],[101.422,2.8624],[101.4199,2.8463],[101.4126,2.8458],[101.4124,2.8396],[101.4094,2.8358],[101.4121,2.8264],[101.4099,2.8073],[101.4038,2.8039]]]}},{"type":"Feature","properties":{"c":"N.54","n":"Tanjong Sepat","w":"PH","p":"PKR","cand":"Borhan bin Aman Shah","pct":55.0},"geometry":{"type":"Polygon","coordinates":[[[101.5806,2.7993],[101.5408,2.802],[101.5409,2.7984],[101.5338,2.7985],[101.5337,2.7961],[101.5181,2.7961],[101.5141,2.8004],[101.5115,2.8003],[101.5115,2.7955],[101.5052,2.7975],[101.5015,2.7933],[101.5298,2.7773],[101.5336,2.7773],[101.5341,2.7585],[101.522,2.7583],[101.5081,2.7323],[101.498,2.7384],[101.4931,2.7325],[101.4789,2.7406],[101.4825,2.747],[101.4605,2.7612],[101.4482,2.7385],[101.4492,2.732],[101.4548,2.7262],[101.4609,2.709],[101.4683,2.6988],[101.4803,2.6888],[101.5148,2.675],[101.5396,2.6621],[101.5638,2.6538],[101.5652,2.6554],[101.5749,2.6535],[101.6059,2.6345],[101.624,2.6321],[101.6622,2.618],[101.6701,2.6173],[101.6822,2.6112],[101.6853,2.6185],[101.6798,2.6218],[101.6864,2.6233],[101.6851,2.6382],[101.6883,2.6431],[101.6856,2.6462],[101.6881,2.6509],[101.6811,2.6671],[101.6766,2.6668],[101.6764,2.6708],[101.6691,2.6706],[101.6691,2.6898],[101.6722,2.6902],[101.6717,2.7003],[101.6312,2.7233],[101.6313,2.7266],[101.5941,2.7262],[101.5938,2.7674],[101.5822,2.7674],[101.5806,2.7993]]]}},{"type":"Feature","properties":{"c":"N.55","n":"Dengkil","w":"PN","p":"BERSATU","cand":"Jamil bin Salleh","pct":48.5},"geometry":{"type":"Polygon","coordinates":[[[101.7662,2.8966],[101.7657,2.9031],[101.7553,2.9159],[101.7567,2.9261],[101.7512,2.9429],[101.751,2.9513],[101.7419,2.9681],[101.7415,2.9819],[101.7331,2.9962],[101.7258,3.0018],[101.72,3.0115],[101.7162,3.0075],[101.7184,2.9945],[101.7173,2.9877],[101.7127,2.9863],[101.7133,2.9831],[101.6437,2.9792],[101.5845,2.9797],[101.5761,2.9763],[101.6417,2.849],[101.6332,2.8437],[101.629,2.8525],[101.5888,2.8525],[101.589,2.8569],[101.5784,2.8571],[101.5782,2.8532],[101.5606,2.8378],[101.5575,2.8378],[101.5598,2.829],[101.5715,2.8294],[101.5772,2.8269],[101.5739,2.8238],[101.5763,2.8159],[101.5835,2.8167],[101.5827,2.8108],[101.5868,2.8063],[101.5857,2.7989],[101.5806,2.7993],[101.5822,2.7674],[101.5938,2.7674],[101.5941,2.7262],[101.6313,2.7266],[101.6315,2.7548],[101.6812,2.8128],[101.6854,2.8112],[101.6892,2.8042],[101.7135,2.8045],[101.7129,2.8103],[101.7154,2.8148],[101.7129,2.8148],[101.7129,2.8173],[101.7158,2.8181],[101.7181,2.8472],[101.7234,2.8505],[101.7366,2.8529],[101.7299,2.8656],[101.7299,2.8708],[101.7328,2.8699],[101.7324,2.8678],[101.7509,2.8709],[101.788,2.8697],[101.7834,2.8761],[101.7679,2.8849],[101.7662,2.8966]],[[101.6988,2.9751],[101.7014,2.9746],[101.6997,2.9685],[101.7032,2.9671],[101.7035,2.9635],[101.711,2.9615],[101.7154,2.9639],[101.7152,2.9552],[101.7308,2.955],[101.7325,2.9529],[101.7327,2.9294],[101.7072,2.9295],[101.7075,2.9133],[101.7005,2.913],[101.7004,2.9098],[101.6977,2.9094],[101.6975,2.9063],[101.7013,2.9053],[101.7014,2.8999],[101.6976,2.8985],[101.6969,2.8936],[101.688,2.8922],[101.6845,2.8823],[101.6786,2.8792],[101.6757,2.8816],[101.6743,2.8768],[101.6712,2.8834],[101.6659,2.8793],[101.6597,2.8993],[101.6638,2.9086],[101.6697,2.9104],[101.6695,2.9154],[101.6719,2.9157],[101.6724,2.9224],[101.6675,2.9315],[101.6682,2.9403],[101.665,2.9439],[101.6743,2.9465],[101.6748,2.9506],[101.6643,2.9579],[101.663,2.9639],[101.6726,2.9718],[101.6848,2.9708],[101.6988,2.9751]]]}},{"type":"Feature","properties":{"c":"N.56","n":"Sungai Pelek","w":"PH","p":"DAP","cand":"Lwi Kian Keong","pct":51.8},"geometry":{"type":"Polygon","coordinates":[[[101.6837,2.6098],[101.6871,2.6077],[101.6872,2.6003],[101.6959,2.5945],[101.7144,2.5952],[101.7101,2.6007],[101.7024,2.6041],[101.7024,2.6085],[101.7215,2.6214],[101.7284,2.6166],[101.73,2.6238],[101.7243,2.636],[101.7313,2.6479],[101.7469,2.6558],[101.7388,2.6738],[101.7457,2.6824],[101.7515,2.6824],[101.7502,2.6884],[101.7543,2.6983],[101.7605,2.7009],[101.7509,2.8709],[101.7324,2.8678],[101.7328,2.8699],[101.7299,2.8708],[101.7299,2.8656],[101.7366,2.8529],[101.7234,2.8505],[101.7181,2.8472],[101.7158,2.8181],[101.7129,2.8173],[101.7129,2.8148],[101.7154,2.8148],[101.7129,2.8103],[101.7135,2.8045],[101.6892,2.8042],[101.6854,2.8112],[101.6812,2.8128],[101.6315,2.7548],[101.6312,2.7233],[101.6717,2.7003],[101.6722,2.6902],[101.6691,2.6898],[101.6691,2.6706],[101.6764,2.6708],[101.6766,2.6668],[101.6811,2.6671],[101.6881,2.6509],[101.6856,2.6462],[101.6883,2.6431],[101.6851,2.6382],[101.6864,2.6233],[101.6798,2.6218],[101.6853,2.6185],[101.6826,2.6158],[101.6837,2.6098]]]}}]}