{"type":"FeatureCollection","features":[{"type":"Feature","properties":{"c":"N.01","n":"Kuala Besut","w":"PN","p":"PAS","cand":"Azbi bin Salleh","pct":60.9},"geometry":{"type":"MultiPolygon","coordinates":[[[[102.4754,5.7799],[102.4577,5.7646],[102.461,5.7619],[102.4594,5.7535],[102.4631,5.7523],[102.464,5.756],[102.4674,5.7556],[102.4667,5.7534],[102.4818,5.7497],[102.4817,5.7476],[102.4889,5.7477],[102.4936,5.7425],[102.5056,5.7474],[102.5069,5.7533],[102.5018,5.7602],[102.5002,5.7692],[102.5139,5.7748],[102.5208,5.781],[102.5314,5.7827],[102.5308,5.7867],[102.5263,5.7903],[102.5277,5.7949],[102.5386,5.7973],[102.5427,5.8018],[102.5457,5.7986],[102.5484,5.7991],[102.5497,5.8016],[102.5474,5.8051],[102.5493,5.8069],[102.5522,5.8063],[102.5529,5.8029],[102.5587,5.8046],[102.5596,5.8322],[102.5448,5.8383],[102.5355,5.8463],[102.4892,5.7913],[102.4754,5.7799]]],[[[102.7398,5.9025],[102.7381,5.8938],[102.7425,5.8814],[102.7461,5.8833],[102.7462,5.8907],[102.7539,5.8952],[102.7628,5.8847],[102.7657,5.887],[102.7699,5.8849],[102.7692,5.8883],[102.7729,5.8939],[102.7684,5.9021],[102.771,5.9113],[102.7687,5.9153],[102.7601,5.9192],[102.7593,5.924],[102.7538,5.9118],[102.744,5.9084],[102.7433,5.9032],[102.7398,5.9025]]],[[[102.7164,5.9119],[102.7156,5.8963],[102.7262,5.8934],[102.733,5.9036],[102.7311,5.9111],[102.7222,5.9186],[102.7266,5.9234],[102.7211,5.9294],[102.7228,5.9336],[102.7269,5.9348],[102.7268,5.9376],[102.7191,5.9369],[102.7159,5.9215],[102.7164,5.9119]]]]}},{"type":"Feature","properties":{"c":"N.02","n":"Kota Putera","w":"PN","p":"PAS","cand":"Mohd Nurkhuzaini bin Ab Rahman (Haji Khuz)","pct":58.3},"geometry":{"type":"MultiPolygon","coordinates":[[[[102.529,5.7812],[102.5323,5.7748],[102.5406,5.7698],[102.5645,5.7608],[102.5647,5.7569],[102.5692,5.7572],[102.5731,5.7504],[102.567,5.7458],[102.566,5.7408],[102.5693,5.74],[102.5673,5.7338],[102.5864,5.7245],[102.5931,5.7282],[102.6096,5.7258],[102.6204,5.7283],[102.6282,5.7243],[102.6319,5.7252],[102.6336,5.7219],[102.6301,5.7212],[102.6341,5.7154],[102.6314,5.713],[102.6323,5.7112],[102.6362,5.7126],[102.6443,5.7084],[102.6503,5.7126],[102.6404,5.7238],[102.6433,5.7265],[102.6496,5.721],[102.6603,5.7277],[102.6629,5.72],[102.6667,5.7215],[102.6644,5.7261],[102.6677,5.7276],[102.6696,5.7238],[102.672,5.7252],[102.6297,5.7827],[102.6242,5.7824],[102.6084,5.8008],[102.6032,5.8026],[102.5927,5.8139],[102.5763,5.8225],[102.5621,5.8365],[102.5621,5.8319],[102.5585,5.8302],[102.5587,5.8046],[102.5529,5.8029],[102.5522,5.8063],[102.5493,5.8069],[102.5474,5.8051],[102.5497,5.8016],[102.5484,5.7991],[102.5457,5.7986],[102.5427,5.8018],[102.5386,5.7973],[102.5258,5.7938],[102.5263,5.7903],[102.5308,5.7867],[102.5314,5.7827],[102.529,5.7812]]]]}},{"type":"Feature","properties":{"c":"N.03","n":"Jertih","w":"PN","p":"PAS","cand":"Riduan bin Mohamad Nor","pct":62.1},"geometry":{"type":"Polygon","coordinates":[[[102.4326,5.7463],[102.4176,5.727],[102.4161,5.7207],[102.4114,5.7207],[102.4036,5.7123],[102.3976,5.6987],[102.4583,5.7024],[102.4589,5.7001],[102.4628,5.6996],[102.4654,5.7019],[102.4656,5.6983],[102.4737,5.6981],[102.4774,5.7002],[102.4739,5.7079],[102.4774,5.7078],[102.4794,5.7116],[102.474,5.7138],[102.474,5.7164],[102.4787,5.7164],[102.4762,5.7199],[102.4789,5.7214],[102.4785,5.7287],[102.487,5.7357],[102.4868,5.7315],[102.4946,5.7319],[102.4981,5.724],[102.5055,5.7249],[102.5067,5.7176],[102.513,5.7129],[102.5132,5.7092],[102.5156,5.709],[102.5214,5.7005],[102.5304,5.7063],[102.5374,5.7069],[102.5354,5.7134],[102.5394,5.7276],[102.5425,5.7291],[102.5432,5.7331],[102.5498,5.7364],[102.55,5.7422],[102.566,5.7408],[102.567,5.7458],[102.5731,5.7504],[102.5692,5.7572],[102.5647,5.7569],[102.5645,5.7608],[102.5406,5.7698],[102.5323,5.7748],[102.529,5.7812],[102.5208,5.781],[102.5139,5.7748],[102.5002,5.7692],[102.5018,5.7602],[102.5072,5.7494],[102.4936,5.7425],[102.4889,5.7477],[102.4817,5.7476],[102.4818,5.7497],[102.4667,5.7534],[102.4674,5.7556],[102.464,5.756],[102.4631,5.7523],[102.4594,5.7535],[102.461,5.7619],[102.4577,5.7646],[102.4326,5.7463]]]}},{"type":"Feature","properties":{"c":"N.04","n":"Hulu Besut","w":"PN","p":"BERSATU","cand":"Mohd Husaimi bin Hussin (Mie Che Hussin)","pct":58.2},"geometry":{"type":"Polygon","coordinates":[[[102.3804,5.6827],[102.3858,5.6776],[102.387,5.671],[102.3866,5.6536],[102.3906,5.6403],[102.387,5.6341],[102.3926,5.6297],[102.4023,5.6139],[102.397,5.6053],[102.3964,5.5821],[102.4025,5.5691],[102.4077,5.5445],[102.4025,5.5419],[102.3983,5.5289],[102.3906,5.5225],[102.3828,5.5237],[102.3808,5.5187],[102.393,5.4995],[102.3884,5.4762],[102.3946,5.4716],[102.4005,5.4626],[102.3972,5.4548],[102.4019,5.444],[102.4019,5.4396],[102.3928,5.4262],[102.385,5.427],[102.385,5.411],[102.3894,5.4122],[102.3987,5.4],[102.4043,5.3968],[102.4087,5.3972],[102.4115,5.392],[102.4151,5.3904],[102.4201,5.3928],[102.4197,5.3852],[102.4286,5.3714],[102.4376,5.3728],[102.4427,5.3601],[102.4439,5.3629],[102.4462,5.3577],[102.4563,5.3499],[102.4657,5.3528],[102.4662,5.357],[102.4704,5.3598],[102.4816,5.3617],[102.482,5.3583],[102.488,5.3543],[102.5002,5.354],[102.5082,5.3505],[102.5137,5.3426],[102.5098,5.3396],[102.5101,5.3364],[102.5253,5.3332],[102.5388,5.3468],[102.5388,5.3513],[102.5416,5.3526],[102.5434,5.3591],[102.5461,5.358],[102.554,5.3614],[102.5546,5.3646],[102.566,5.3707],[102.5712,5.3701],[102.5736,5.3671],[102.5849,5.371],[102.5759,5.3859],[102.5785,5.3904],[102.5873,5.3961],[102.588,5.403],[102.582,5.4175],[102.5766,5.4196],[102.5927,5.4295],[102.5923,5.4379],[102.5882,5.438],[102.5884,5.4414],[102.5954,5.4464],[102.5936,5.4495],[102.5966,5.4542],[102.5873,5.4713],[102.5932,5.4779],[102.5942,5.4824],[102.5882,5.4857],[102.5911,5.4898],[102.596,5.4908],[102.6034,5.507],[102.6021,5.5117],[102.6068,5.5151],[102.6214,5.519],[102.6228,5.5235],[102.6201,5.5241],[102.6158,5.5315],[102.6092,5.5352],[102.6092,5.5403],[102.6133,5.5478],[102.6199,5.5539],[102.6215,5.5633],[102.6158,5.5717],[102.616,5.5783],[102.612,5.5827],[102.6061,5.5833],[102.5481,5.6095],[102.5413,5.645],[102.536,5.6551],[102.5302,5.6574],[102.5325,5.6619],[102.5242,5.6742],[102.5188,5.6899],[102.5178,5.6982],[102.5214,5.7005],[102.5156,5.709],[102.5132,5.7092],[102.513,5.7129],[102.5067,5.7176],[102.5055,5.7249],[102.4981,5.724],[102.4946,5.7319],[102.4868,5.7315],[102.487,5.7357],[102.4785,5.7287],[102.4789,5.7214],[102.4762,5.7199],[102.4787,5.7164],[102.474,5.7164],[102.474,5.7138],[102.4794,5.7116],[102.4774,5.7078],[102.4739,5.7079],[102.4774,5.7002],[102.4737,5.6981],[102.4656,5.6983],[102.4654,5.7019],[102.4628,5.6996],[102.4589,5.7001],[102.4583,5.7024],[102.3976,5.6987],[102.3965,5.6962],[102.392,5.6997],[102.3802,5.6933],[102.3804,5.6827]]]}},{"type":"Feature","properties":{"c":"N.05","n":"Jabi","w":"PN","p":"PAS","cand":"Azman bin Ibrahim","pct":62.7},"geometry":{"type":"Polygon","coordinates":[[[102.566,5.7408],[102.55,5.7422],[102.5498,5.7364],[102.5432,5.7331],[102.5425,5.7291],[102.5394,5.7276],[102.5354,5.7134],[102.5374,5.7069],[102.5304,5.7063],[102.5178,5.6982],[102.5188,5.6899],[102.5242,5.6742],[102.5325,5.6619],[102.5302,5.6574],[102.536,5.6551],[102.5413,5.645],[102.5481,5.6095],[102.6061,5.5833],[102.612,5.5827],[102.616,5.5783],[102.6285,5.5899],[102.6361,5.5939],[102.6423,5.6025],[102.642,5.6097],[102.6533,5.6284],[102.6615,5.6302],[102.6639,5.6328],[102.6638,5.6381],[102.6659,5.6386],[102.6688,5.6495],[102.6713,5.6505],[102.6657,5.6541],[102.6655,5.69],[102.6503,5.7126],[102.6443,5.7084],[102.6362,5.7126],[102.6323,5.7112],[102.6314,5.713],[102.6341,5.7154],[102.6301,5.7212],[102.6336,5.7219],[102.6319,5.7252],[102.6282,5.7243],[102.6204,5.7283],[102.6096,5.7258],[102.5931,5.7282],[102.5864,5.7245],[102.5673,5.7338],[102.5693,5.74],[102.566,5.7408]]]}},{"type":"Feature","properties":{"c":"N.06","n":"Permaisuri","w":"PN","p":"BERSATU","cand":"Mohd Yusop bin Majid","pct":67.0},"geometry":{"type":"MultiPolygon","coordinates":[[[[102.6503,5.7126],[102.6655,5.69],[102.6657,5.6541],[102.6713,5.6505],[102.6688,5.6495],[102.6659,5.6386],[102.6638,5.6381],[102.6639,5.6328],[102.6615,5.6302],[102.6533,5.6284],[102.642,5.6097],[102.6423,5.6025],[102.6361,5.5939],[102.6285,5.5899],[102.616,5.5783],[102.6158,5.5717],[102.6215,5.5633],[102.6199,5.5539],[102.6133,5.5478],[102.6092,5.5403],[102.6092,5.5352],[102.6158,5.5315],[102.6201,5.5241],[102.6228,5.5235],[102.6214,5.519],[102.6068,5.5151],[102.6021,5.5117],[102.6034,5.507],[102.596,5.4908],[102.5911,5.4898],[102.5882,5.4857],[102.6043,5.4802],[102.6086,5.4817],[102.6123,5.477],[102.6211,5.4737],[102.6251,5.4599],[102.6321,5.4548],[102.6345,5.4564],[102.6391,5.4474],[102.6512,5.4375],[102.6573,5.4173],[102.6512,5.4083],[102.652,5.402],[102.6492,5.3988],[102.6541,5.3909],[102.6664,5.395],[102.6695,5.3983],[102.6737,5.3976],[102.6736,5.4014],[102.6814,5.3979],[102.689,5.4027],[102.6926,5.3972],[102.7003,5.4004],[102.7074,5.4004],[102.7171,5.397],[102.7193,5.4023],[102.7152,5.4109],[102.7163,5.4154],[102.7211,5.4194],[102.7199,5.4227],[102.7243,5.4273],[102.7266,5.4248],[102.735,5.4288],[102.7381,5.4277],[102.7384,5.4229],[102.7503,5.418],[102.7554,5.412],[102.7703,5.4312],[102.7765,5.4342],[102.7824,5.4321],[102.7875,5.4483],[102.7835,5.4517],[102.7849,5.4577],[102.7942,5.4542],[102.7954,5.4576],[102.7915,5.4595],[102.7926,5.4638],[102.791,5.4635],[102.7906,5.4694],[102.7875,5.4734],[102.7971,5.4787],[102.7971,5.4871],[102.7921,5.4934],[102.8063,5.5084],[102.81,5.5096],[102.8166,5.5027],[102.835,5.5179],[102.8373,5.5153],[102.8462,5.5137],[102.8481,5.5234],[102.8466,5.5257],[102.8504,5.5332],[102.8589,5.5134],[102.8691,5.5095],[102.8705,5.505],[102.8834,5.5004],[102.9007,5.5007],[102.9039,5.4946],[102.899,5.4818],[102.8991,5.4656],[102.9015,5.4616],[102.9154,5.456],[102.9148,5.4531],[102.9384,5.4375],[102.9799,5.4839],[103.001,5.4996],[102.9712,5.526],[102.9466,5.5402],[102.9431,5.5368],[102.9436,5.5341],[102.9398,5.5331],[102.9179,5.537],[102.896,5.5473],[102.8505,5.5749],[102.8339,5.5882],[102.7903,5.6316],[102.7652,5.6505],[102.7149,5.6819],[102.672,5.7252],[102.6696,5.7238],[102.6677,5.7276],[102.6644,5.7261],[102.6667,5.7215],[102.6629,5.72],[102.6603,5.7277],[102.6496,5.721],[102.6433,5.7265],[102.6404,5.7238],[102.6503,5.7126]]],[[[102.9018,5.7943],[102.89,5.8032],[102.8922,5.7912],[102.9023,5.7878],[102.9047,5.7913],[102.9018,5.7943]]]]}},{"type":"Feature","properties":{"c":"N.07","n":"Langkap","w":"PN","p":"PAS","cand":"Azmi bin Maarof","pct":58.3},"geometry":{"type":"Polygon","coordinates":[[[102.6814,5.3979],[102.6795,5.3876],[102.6816,5.3841],[102.6811,5.3453],[102.6936,5.3394],[102.7049,5.3382],[102.7129,5.3409],[102.7154,5.3362],[102.7219,5.3335],[102.7281,5.3167],[102.7242,5.3035],[102.7277,5.2953],[102.7279,5.2879],[102.7238,5.2817],[102.7256,5.2587],[102.7353,5.2585],[102.7439,5.2483],[102.7589,5.2411],[102.7599,5.2364],[102.7647,5.2339],[102.7667,5.2279],[102.7743,5.2232],[102.7909,5.2216],[102.8255,5.244],[102.8271,5.2514],[102.8362,5.2525],[102.8429,5.2586],[102.8472,5.2594],[102.8488,5.2671],[102.8526,5.2671],[102.8586,5.2623],[102.86,5.2542],[102.8637,5.2549],[102.8747,5.2423],[102.8762,5.2456],[102.88,5.2466],[102.8896,5.2395],[102.8958,5.2448],[102.9002,5.2352],[102.8939,5.2289],[102.9021,5.2127],[102.9061,5.2155],[102.9089,5.2084],[102.9195,5.2007],[102.9188,5.195],[102.9236,5.1958],[102.9258,5.1891],[102.9318,5.1867],[102.9365,5.193],[102.9428,5.1949],[102.9447,5.2021],[102.9505,5.204],[102.9626,5.2006],[102.9645,5.1965],[102.9697,5.1991],[102.9749,5.21],[102.9876,5.2224],[102.9851,5.2284],[102.9773,5.2324],[102.9755,5.2377],[102.9684,5.2395],[102.9616,5.2468],[102.9513,5.245],[102.95,5.2546],[102.9521,5.2571],[102.9465,5.2622],[102.9374,5.2647],[102.9321,5.2718],[102.9349,5.2818],[102.9301,5.2965],[102.9195,5.299],[102.9175,5.304],[102.9077,5.306],[102.9178,5.3176],[102.9266,5.3227],[102.9251,5.3265],[102.92,5.3275],[102.9236,5.3308],[102.9193,5.3413],[102.9226,5.3524],[102.915,5.362],[102.915,5.3655],[102.9226,5.3756],[102.9166,5.4116],[102.9125,5.4231],[102.9134,5.4325],[102.91,5.446],[102.9139,5.4491],[102.9154,5.456],[102.9063,5.4586],[102.8991,5.4656],[102.899,5.4818],[102.9039,5.4946],[102.9007,5.5007],[102.8834,5.5004],[102.8705,5.505],[102.8691,5.5095],[102.8589,5.5134],[102.8515,5.5332],[102.8466,5.5257],[102.8481,5.5234],[102.8462,5.5137],[102.8373,5.5153],[102.835,5.5179],[102.8166,5.5027],[102.81,5.5096],[102.8063,5.5084],[102.7921,5.4934],[102.7971,5.4871],[102.7971,5.4787],[102.7875,5.4734],[102.7906,5.4694],[102.791,5.4635],[102.7926,5.4638],[102.7915,5.4595],[102.7954,5.4576],[102.7942,5.4542],[102.7849,5.4577],[102.7835,5.4517],[102.7875,5.4483],[102.7824,5.4321],[102.7765,5.4342],[102.7703,5.4312],[102.7554,5.412],[102.7503,5.418],[102.7384,5.4229],[102.7381,5.4277],[102.735,5.4288],[102.7266,5.4248],[102.7243,5.4273],[102.7199,5.4227],[102.7211,5.4194],[102.7163,5.4154],[102.7152,5.4109],[102.7193,5.4023],[102.7171,5.397],[102.7074,5.4004],[102.7003,5.4004],[102.6926,5.3972],[102.689,5.4027],[102.6814,5.3979]]]}},{"type":"Feature","properties":{"c":"N.08","n":"Batu Rakit","w":"PN","p":"PAS","cand":"Mohd Shafizi bin Ismail","pct":63.1},"geometry":{"type":"MultiPolygon","coordinates":[[[[102.9384,5.4375],[102.9477,5.4294],[102.9544,5.4285],[102.964,5.4354],[102.9685,5.4357],[102.9744,5.4187],[102.9742,5.4025],[102.9833,5.3908],[102.9788,5.3903],[102.9803,5.3798],[102.986,5.3729],[102.9842,5.3699],[102.9933,5.3703],[102.9939,5.39],[103.008,5.3899],[103.0172,5.3948],[103.0303,5.3903],[103.0321,5.3936],[103.0349,5.3927],[103.0394,5.3851],[103.0476,5.387],[103.047,5.3815],[103.0564,5.3822],[103.0516,5.4136],[103.0623,5.4145],[103.0659,5.4174],[103.0705,5.4157],[103.0779,5.419],[103.0817,5.419],[103.0841,5.4139],[103.0868,5.4138],[103.0845,5.419],[103.0476,5.4511],[103.001,5.4996],[102.9799,5.4839],[102.9384,5.4375]]],[[[102.994,5.7899],[102.9885,5.7842],[102.996,5.7688],[102.9984,5.75],[103.0046,5.7599],[103.0057,5.7518],[103.0125,5.7496],[103.0194,5.7523],[103.0258,5.7638],[103.0289,5.7654],[103.0311,5.7638],[103.03,5.7671],[103.0328,5.7671],[103.0349,5.773],[103.0336,5.7773],[103.0439,5.7893],[103.0321,5.7902],[103.0323,5.7924],[103.0302,5.7909],[103.0261,5.7938],[103.0203,5.784],[103.0144,5.7857],[103.0136,5.7917],[103.0176,5.7986],[103.0155,5.8002],[103.0188,5.802],[103.0186,5.8073],[103.0133,5.8099],[103.0106,5.8175],[103.0087,5.8128],[103.0054,5.8164],[103.0001,5.8176],[102.9966,5.8155],[102.993,5.8054],[102.994,5.7899]]],[[[103.0571,5.6235],[103.0565,5.6159],[103.0645,5.6109],[103.0686,5.613],[103.0713,5.6191],[103.0687,5.6266],[103.0635,5.6292],[103.0571,5.6235]]],[[[102.9993,5.7448],[103.0006,5.7413],[102.9979,5.7317],[102.9995,5.7356],[103.0024,5.7348],[103.0071,5.7379],[103.0037,5.7434],[102.9993,5.7448]]]]}},{"type":"Feature","properties":{"c":"N.09","n":"Tepuh","w":"PN","p":"PAS","cand":"Hishamuddin bin Abdul Karim (Ustaz Hishamuddin Abdul Karim)","pct":73.5},"geometry":{"type":"Polygon","coordinates":[[[102.9148,5.4531],[102.9139,5.4491],[102.91,5.446],[102.9134,5.4325],[102.9125,5.4231],[102.9166,5.4116],[102.9226,5.3756],[102.915,5.3655],[102.915,5.362],[102.9226,5.3524],[102.9193,5.3413],[102.9236,5.3308],[102.92,5.3275],[102.9251,5.3265],[102.9266,5.3227],[102.9178,5.3176],[102.9077,5.306],[102.9175,5.304],[102.9195,5.299],[102.9301,5.2965],[102.9349,5.2818],[102.9321,5.2718],[102.9374,5.2647],[102.9465,5.2622],[102.9521,5.2571],[102.95,5.2546],[102.9513,5.245],[102.9616,5.2468],[102.9684,5.2395],[102.9755,5.2377],[102.9773,5.2324],[102.9807,5.2325],[102.9875,5.2373],[102.9833,5.239],[102.9795,5.2493],[102.9817,5.2504],[102.9817,5.2537],[102.9787,5.2551],[102.9815,5.2632],[102.9929,5.2667],[102.9891,5.2703],[102.9927,5.2743],[102.9904,5.2751],[102.9893,5.2825],[102.9871,5.2838],[102.9867,5.2906],[102.9804,5.2974],[102.9825,5.2988],[102.9814,5.3046],[102.9878,5.3021],[102.995,5.3087],[102.9916,5.3241],[102.9988,5.325],[103.0084,5.3216],[103.015,5.3268],[103.0179,5.3261],[103.0187,5.322],[103.0248,5.3219],[103.0274,5.3176],[103.0383,5.3234],[103.0476,5.3242],[103.0519,5.3315],[103.0658,5.3424],[103.0672,5.3502],[103.0704,5.3495],[103.0697,5.3452],[103.072,5.3434],[103.079,5.3426],[103.0838,5.3435],[103.0848,5.349],[103.0945,5.3506],[103.0957,5.3584],[103.0857,5.3736],[103.0815,5.3895],[103.0881,5.4062],[103.0868,5.4138],[103.0841,5.4139],[103.0817,5.419],[103.0779,5.419],[103.0705,5.4157],[103.0659,5.4174],[103.0623,5.4145],[103.0516,5.4136],[103.0564,5.3822],[103.047,5.3815],[103.0476,5.387],[103.0394,5.3851],[103.0349,5.3927],[103.0321,5.3936],[103.0303,5.3903],[103.0172,5.3948],[103.008,5.3899],[102.9939,5.39],[102.9933,5.3703],[102.9842,5.3699],[102.986,5.3729],[102.9803,5.3798],[102.9788,5.3903],[102.9833,5.3908],[102.9742,5.4025],[102.9744,5.4187],[102.9685,5.4357],[102.964,5.4354],[102.9544,5.4285],[102.9477,5.4294],[102.9362,5.4397],[102.9148,5.4531]]]}},{"type":"Feature","properties":{"c":"N.10","n":"Buluh Gading","w":"PN","p":"PAS","cand":"Ridzuan bin Hashim (Ustaz Ridzuan Hashim)","pct":74.8},"geometry":{"type":"Polygon","coordinates":[[[103.0031,5.2315],[103.0065,5.2332],[103.009,5.242],[103.0118,5.243],[103.0158,5.2536],[103.0209,5.2582],[103.0221,5.2665],[103.033,5.2806],[103.0529,5.2884],[103.0504,5.2987],[103.0546,5.2967],[103.0589,5.298],[103.0607,5.3033],[103.0642,5.3023],[103.0746,5.3108],[103.0814,5.3121],[103.0819,5.3166],[103.0841,5.3179],[103.0911,5.3158],[103.0963,5.3228],[103.1025,5.3253],[103.0999,5.3267],[103.1028,5.3353],[103.0856,5.3434],[103.072,5.3434],[103.0697,5.3452],[103.0694,5.3508],[103.0672,5.3502],[103.0658,5.3424],[103.0446,5.3228],[103.0383,5.3234],[103.0274,5.3176],[103.0248,5.3219],[103.0187,5.322],[103.0179,5.3261],[103.015,5.3268],[103.0084,5.3216],[102.9988,5.325],[102.9916,5.3241],[102.995,5.3087],[102.9878,5.3021],[102.9814,5.3046],[102.9825,5.2988],[102.9804,5.2974],[102.9867,5.2906],[102.9871,5.2838],[102.9893,5.2825],[102.9904,5.2751],[102.9927,5.2743],[102.9891,5.2703],[102.9929,5.2667],[102.9822,5.2648],[102.9787,5.2551],[102.9817,5.2537],[102.9817,5.2504],[102.9795,5.2493],[102.9833,5.239],[102.9875,5.2373],[102.9773,5.2324],[102.9851,5.2284],[102.9876,5.2224],[102.9974,5.2317],[102.9999,5.2299],[103.0031,5.2315]]]}},{"type":"Feature","properties":{"c":"N.11","n":"Seberang Takir","w":"PN","p":"BERSATU","cand":"Khazan bin Che Mat","pct":56.5},"geometry":{"type":"Polygon","coordinates":[[[103.0868,5.4138],[103.0881,5.4062],[103.0815,5.3895],[103.0857,5.3736],[103.0957,5.3584],[103.1026,5.3623],[103.1066,5.3525],[103.1171,5.3538],[103.1207,5.3435],[103.1259,5.3386],[103.1329,5.343],[103.1462,5.3414],[103.1484,5.3455],[103.1362,5.348],[103.1325,5.353],[103.1151,5.3861],[103.1166,5.3962],[103.1078,5.3963],[103.104,5.4022],[103.1043,5.398],[103.0997,5.4045],[103.1024,5.4041],[103.0989,5.4048],[103.0937,5.4118],[103.0911,5.4114],[103.0895,5.4152],[103.0864,5.4159],[103.0868,5.4138]]]}},{"type":"Feature","properties":{"c":"N.12","n":"Bukit Tunggal","w":"PN","p":"PAS","cand":"Zaharudin bin Zahid","pct":73.5},"geometry":{"type":"Polygon","coordinates":[[[103.0838,5.3435],[103.1038,5.3339],[103.1004,5.3301],[103.0999,5.3267],[103.1025,5.3253],[103.0963,5.3228],[103.0941,5.3187],[103.0989,5.3187],[103.1027,5.3234],[103.1145,5.3265],[103.1201,5.3242],[103.1301,5.3267],[103.131,5.3337],[103.1374,5.3407],[103.1329,5.343],[103.1259,5.3386],[103.1207,5.3435],[103.1184,5.3525],[103.1066,5.3525],[103.1026,5.3623],[103.0957,5.3584],[103.0945,5.3506],[103.0848,5.349],[103.0838,5.3435]]]}},{"type":"Feature","properties":{"c":"N.13","n":"Wakaf Mempelam","w":"PN","p":"PAS","cand":"Wan Sukairi bin Wan Abdullah","pct":85.7},"geometry":{"type":"Polygon","coordinates":[[[103.0911,5.3158],[103.088,5.3005],[103.0969,5.2902],[103.0957,5.2858],[103.1161,5.2737],[103.1334,5.2776],[103.1293,5.2803],[103.1332,5.2941],[103.1311,5.2963],[103.135,5.3023],[103.1322,5.3039],[103.1318,5.3088],[103.1206,5.3044],[103.1227,5.3113],[103.1198,5.3134],[103.1179,5.3115],[103.1164,5.3174],[103.1215,5.3174],[103.1222,5.3203],[103.1272,5.3232],[103.1145,5.3265],[103.1027,5.3234],[103.0989,5.3187],[103.0941,5.3187],[103.0911,5.3158]]]}},{"type":"Feature","properties":{"c":"N.14","n":"Bandar","w":"PN","p":"PAS","cand":"Ahmad Shah bin Muhamed","pct":56.7},"geometry":{"type":"Polygon","coordinates":[[[103.1367,5.342],[103.131,5.3337],[103.1301,5.3267],[103.1254,5.3247],[103.1272,5.3217],[103.1222,5.3203],[103.1215,5.3174],[103.1164,5.3174],[103.1179,5.3115],[103.1198,5.3134],[103.1227,5.3113],[103.1206,5.3044],[103.1337,5.3082],[103.1336,5.3108],[103.1387,5.3134],[103.1344,5.3169],[103.1375,5.3219],[103.1357,5.3242],[103.1371,5.3298],[103.1447,5.3285],[103.1446,5.3322],[103.1477,5.3329],[103.1462,5.3414],[103.1367,5.342]]]}},{"type":"Feature","properties":{"c":"N.15","n":"Ladang","w":"PN","p":"PAS","cand":"Zuraida binti Md.Noor","pct":61.5},"geometry":{"type":"Polygon","coordinates":[[[103.1334,5.2776],[103.1362,5.2752],[103.1371,5.2777],[103.1399,5.2752],[103.1426,5.276],[103.141,5.2797],[103.1438,5.2811],[103.144,5.2849],[103.1373,5.29],[103.1369,5.294],[103.1479,5.2952],[103.1452,5.3025],[103.1462,5.3085],[103.1521,5.3085],[103.1481,5.3232],[103.1524,5.3293],[103.1465,5.337],[103.1477,5.3329],[103.1446,5.3322],[103.1447,5.3285],[103.1371,5.3298],[103.1357,5.3242],[103.1375,5.3219],[103.1344,5.3169],[103.1387,5.3134],[103.1336,5.3108],[103.1337,5.3082],[103.1318,5.3088],[103.1322,5.3039],[103.135,5.3023],[103.1311,5.2963],[103.1332,5.2941],[103.1293,5.2803],[103.1334,5.2776]]]}},{"type":"Feature","properties":{"c":"N.16","n":"Batu Buruk","w":"PN","p":"PAS","cand":"Muhammad Khalil bin Abdul Hadi","pct":79.6},"geometry":{"type":"Polygon","coordinates":[[[103.1438,5.2811],[103.1459,5.2799],[103.1457,5.2757],[103.151,5.2746],[103.1547,5.2685],[103.154,5.2607],[103.1578,5.2489],[103.1637,5.2499],[103.1672,5.2563],[103.1766,5.2499],[103.1806,5.2623],[103.1864,5.2676],[103.1524,5.3293],[103.1481,5.3232],[103.1521,5.3085],[103.1462,5.3085],[103.1452,5.3025],[103.1479,5.2952],[103.1369,5.294],[103.1373,5.29],[103.144,5.2849],[103.1438,5.2811]]]}},{"type":"Feature","properties":{"c":"N.17","n":"Alur Limbat","w":"PN","p":"PAS","cand":"Ariffin bin Deraman","pct":72.9},"geometry":{"type":"Polygon","coordinates":[[[103.0401,5.2178],[103.0476,5.2148],[103.045,5.2057],[103.0517,5.2034],[103.0484,5.193],[103.0521,5.1906],[103.0569,5.1674],[103.0721,5.1695],[103.0799,5.1927],[103.0899,5.2054],[103.0922,5.2158],[103.0901,5.2192],[103.0994,5.2226],[103.0958,5.2254],[103.0988,5.2302],[103.0949,5.2321],[103.0999,5.2382],[103.0942,5.2547],[103.0999,5.2633],[103.1059,5.2616],[103.109,5.2639],[103.1082,5.2583],[103.1132,5.2561],[103.1192,5.2578],[103.1184,5.2627],[103.1255,5.265],[103.1259,5.2695],[103.1313,5.2722],[103.1318,5.2766],[103.1161,5.2737],[103.0957,5.2858],[103.081,5.2798],[103.0621,5.2671],[103.0442,5.268],[103.0403,5.2644],[103.0365,5.254],[103.0401,5.2178]]]}},{"type":"Feature","properties":{"c":"N.18","n":"Bukit Payung","w":"PN","p":"PAS","cand":"Mohd Nor bin Hamzah","pct":74.1},"geometry":{"type":"Polygon","coordinates":[[[103.1318,5.2766],[103.1313,5.2722],[103.1259,5.2695],[103.1255,5.265],[103.1184,5.2627],[103.1192,5.2578],[103.1132,5.2561],[103.1082,5.2583],[103.109,5.2639],[103.1059,5.2616],[103.0999,5.2633],[103.0942,5.2547],[103.0999,5.2382],[103.0949,5.2321],[103.0988,5.2302],[103.0958,5.2254],[103.0994,5.2226],[103.0935,5.2202],[103.1052,5.2184],[103.1131,5.22],[103.1156,5.2171],[103.1136,5.209],[103.1356,5.213],[103.1383,5.2168],[103.1483,5.215],[103.152,5.2244],[103.1496,5.2241],[103.1476,5.228],[103.1575,5.2539],[103.154,5.2607],[103.1547,5.2685],[103.151,5.2746],[103.1457,5.2757],[103.1449,5.2811],[103.141,5.2797],[103.1426,5.276],[103.1318,5.2766]]]}},{"type":"Feature","properties":{"c":"N.19","n":"Ru Rendang","w":"PN","p":"PAS","cand":"Ahmad Samsuri bin Mokhtar","pct":85.2},"geometry":{"type":"MultiPolygon","coordinates":[[[[103.1569,5.2512],[103.1476,5.228],[103.1496,5.2241],[103.152,5.2244],[103.1456,5.2089],[103.1496,5.1939],[103.1459,5.1925],[103.1435,5.1881],[103.1486,5.1843],[103.1436,5.181],[103.1436,5.174],[103.149,5.1708],[103.1495,5.1636],[103.1545,5.1581],[103.1769,5.1593],[103.185,5.1505],[103.1885,5.1501],[103.1896,5.1394],[103.1954,5.1322],[103.2038,5.1342],[103.2066,5.1321],[103.2065,5.1226],[103.2109,5.1168],[103.2107,5.1134],[103.2237,5.1086],[103.2185,5.0922],[103.2248,5.0879],[103.2364,5.0891],[103.2393,5.0844],[103.2364,5.0794],[103.237,5.0755],[103.2445,5.0665],[103.2549,5.072],[103.2773,5.078],[103.2148,5.2039],[103.2152,5.2095],[103.2089,5.2109],[103.1883,5.2434],[103.1827,5.2566],[103.1825,5.2638],[103.1871,5.2642],[103.1864,5.2672],[103.1806,5.2623],[103.1766,5.2499],[103.1672,5.2563],[103.1637,5.2499],[103.1578,5.2489],[103.1569,5.2512]]],[[[103.2669,5.2291],[103.2616,5.2247],[103.2607,5.2188],[103.2636,5.2131],[103.2684,5.2101],[103.2704,5.2198],[103.2675,5.2314],[103.2669,5.2291]]]]}},{"type":"Feature","properties":{"c":"N.20","n":"Pengkalan Berangan","w":"PN","p":"PAS","cand":"Sulaiman bin Sulong","pct":65.0},"geometry":{"type":"Polygon","coordinates":[[[103.0569,5.1674],[103.0572,5.1631],[103.0516,5.1564],[103.0523,5.1511],[103.0797,5.1175],[103.0793,5.111],[103.0918,5.1067],[103.1007,5.0968],[103.1168,5.1072],[103.1254,5.0974],[103.1301,5.0856],[103.1303,5.0777],[103.1351,5.0695],[103.1492,5.0551],[103.1515,5.0489],[103.1553,5.0489],[103.1589,5.053],[103.1601,5.0463],[103.1688,5.0421],[103.1731,5.0328],[103.1774,5.0309],[103.1809,5.0184],[103.1885,5.0165],[103.1916,5.0094],[103.2055,4.9999],[103.2072,4.9942],[103.215,4.9867],[103.2186,4.9628],[103.2303,4.9552],[103.2363,4.9095],[103.2708,4.8976],[103.2738,4.8872],[103.2809,4.8864],[103.2895,4.8672],[103.2963,4.8664],[103.3032,4.8711],[103.3059,4.8773],[103.3126,4.8785],[103.3182,4.8725],[103.3238,4.873],[103.3237,4.8703],[103.335,4.8621],[103.3362,4.8549],[103.3428,4.8493],[103.3472,4.8523],[103.3507,4.8494],[103.3556,4.8499],[103.3579,4.8527],[103.371,4.857],[103.3767,4.8648],[103.3761,4.8705],[103.3886,4.8763],[103.3131,5.0098],[103.2773,5.078],[103.2549,5.072],[103.2445,5.0665],[103.237,5.0755],[103.2364,5.0794],[103.2393,5.0844],[103.2364,5.0891],[103.2248,5.0879],[103.2185,5.0922],[103.2237,5.1086],[103.2107,5.1134],[103.2109,5.1168],[103.2065,5.1226],[103.2066,5.1321],[103.2038,5.1342],[103.1954,5.1322],[103.1896,5.1394],[103.1885,5.1501],[103.185,5.1505],[103.1769,5.1593],[103.1692,5.1575],[103.1534,5.1591],[103.1495,5.1636],[103.149,5.1708],[103.1436,5.174],[103.1436,5.181],[103.1486,5.1843],[103.1435,5.1881],[103.1459,5.1925],[103.1496,5.1939],[103.1459,5.202],[103.1456,5.2089],[103.1483,5.215],[103.1383,5.2168],[103.1356,5.213],[103.1136,5.209],[103.1156,5.2171],[103.1131,5.22],[103.0901,5.2192],[103.0922,5.2158],[103.0899,5.2054],[103.0799,5.1927],[103.0721,5.1695],[103.0569,5.1674]]]}},{"type":"Feature","properties":{"c":"N.21","n":"Telemung","w":"PN","p":"BERSATU","cand":"Mohd Zawawi bin Ismail (Cikgu Awi)","pct":50.9},"geometry":{"type":"Polygon","coordinates":[[[102.4184,5.2991],[102.4152,5.2932],[102.4182,5.2886],[102.4157,5.2836],[102.4202,5.2736],[102.4155,5.2603],[102.4173,5.242],[102.4144,5.23],[102.4209,5.223],[102.4229,5.2048],[102.4198,5.1958],[102.4105,5.1833],[102.4144,5.1808],[102.4378,5.1797],[102.4445,5.1682],[102.4574,5.17],[102.4749,5.1578],[102.4842,5.148],[102.4875,5.1363],[102.5139,5.1281],[102.5292,5.1082],[102.5209,5.0983],[102.5188,5.0894],[102.5138,5.0842],[102.5053,5.0834],[102.4992,5.0761],[102.503,5.0743],[102.5141,5.0546],[102.5087,5.0483],[102.5202,5.0264],[102.5121,5.0092],[102.4988,5.0082],[102.5017,5.0015],[102.4995,4.9938],[102.5033,4.9816],[102.5076,4.9791],[102.51,4.9707],[102.5224,4.9606],[102.5139,4.9524],[102.5148,4.9486],[102.5208,4.9479],[102.5211,4.9416],[102.5134,4.9382],[102.5132,4.92],[102.506,4.9031],[102.5296,4.8961],[102.5359,4.9074],[102.5715,4.8957],[102.5863,4.8828],[102.5927,4.8732],[102.6062,4.8741],[102.6149,4.862],[102.6208,4.8624],[102.644,4.8479],[102.6478,4.8502],[102.6509,4.8457],[102.6525,4.8353],[102.6462,4.826],[102.644,4.8133],[102.6523,4.8127],[102.6595,4.8009],[102.659,4.7918],[102.6665,4.7801],[102.6642,4.7701],[102.6581,4.7595],[102.6625,4.7557],[102.6597,4.7513],[102.6653,4.7378],[102.6754,4.7308],[102.6822,4.7154],[102.6926,4.7136],[102.7006,4.7154],[102.7144,4.6939],[102.7201,4.6944],[102.7344,4.6834],[102.7452,4.6895],[102.7478,4.683],[102.7549,4.6802],[102.7621,4.6835],[102.7694,4.6728],[102.7747,4.6775],[102.779,4.6704],[102.7907,4.6758],[102.8255,4.6815],[102.8417,4.6799],[102.8434,4.6861],[102.8421,4.6931],[102.845,4.6994],[102.8411,4.7071],[102.845,4.7137],[102.8409,4.7228],[102.8426,4.7268],[102.8458,4.7298],[102.8672,4.7339],[102.8672,4.7375],[102.8754,4.7442],[102.8915,4.7482],[102.894,4.7536],[102.8942,4.7609],[102.8907,4.768],[102.8877,4.7694],[102.8871,4.7756],[102.8895,4.7794],[102.8897,4.7883],[102.8942,4.7919],[102.8964,4.7982],[102.8898,4.8089],[102.8734,4.8057],[102.8728,4.8081],[102.8799,4.8155],[102.8781,4.8191],[102.8734,4.8206],[102.8655,4.8278],[102.8642,4.8378],[102.8712,4.8416],[102.8808,4.8427],[102.8927,4.8552],[102.8935,4.8656],[102.8985,4.874],[102.897,4.8769],[102.8993,4.8823],[102.9132,4.8952],[102.9145,4.903],[102.9181,4.9077],[102.9282,4.9118],[102.9318,4.9061],[102.9508,4.9062],[102.9543,4.902],[102.9555,4.9036],[102.9643,4.9003],[102.9674,4.9015],[102.9683,4.8993],[102.9766,4.9038],[102.979,4.9095],[102.9837,4.907],[102.9867,4.9136],[102.9853,4.9173],[102.9909,4.9225],[102.9903,4.9327],[102.9938,4.9325],[102.9938,4.9364],[102.9998,4.9384],[103.0069,4.9351],[103.0104,4.9361],[103.0122,4.9438],[103.008,4.9627],[103.0106,4.9644],[103.0119,4.9621],[103.014,4.9649],[103.0086,4.9689],[103.0126,4.9701],[103.0139,4.976],[103.0262,4.9832],[103.0179,4.9833],[103.0181,4.9915],[103.0243,4.9927],[103.0233,5.0001],[103.0121,4.9971],[103.012,5.0094],[103.0183,5.0117],[103.0135,5.0278],[103.0066,5.0304],[103.0012,5.0409],[102.9963,5.0443],[102.9941,5.04],[102.9909,5.0415],[102.9851,5.038],[102.9712,5.0386],[102.9749,5.0484],[102.9792,5.0494],[102.9779,5.0559],[102.9862,5.0609],[102.9787,5.0666],[102.978,5.0861],[102.972,5.0903],[102.9752,5.0953],[102.9804,5.0969],[102.9813,5.1014],[102.9755,5.103],[102.9729,5.1152],[102.9757,5.1199],[102.9743,5.1218],[102.9852,5.1364],[102.9894,5.1393],[102.9908,5.1373],[102.992,5.1421],[103.0014,5.1462],[103.0101,5.1444],[103.0133,5.1512],[103.0201,5.1557],[103.0201,5.1599],[103.0166,5.1605],[103.016,5.1649],[103.0125,5.1682],[103.0134,5.1714],[103.0064,5.1792],[103.028,5.1924],[103.0377,5.203],[103.0299,5.2111],[103.03,5.2144],[103.0401,5.2178],[103.0392,5.2313],[103.0335,5.2298],[103.0256,5.2333],[103.0223,5.2321],[103.0146,5.2375],[103.0082,5.2309],[103.0107,5.228],[103.0085,5.2267],[103.0031,5.2315],[102.9999,5.2299],[102.9974,5.2317],[102.9749,5.21],[102.9697,5.1991],[102.9645,5.1965],[102.9626,5.2006],[102.9505,5.204],[102.9447,5.2021],[102.9428,5.1949],[102.9365,5.193],[102.9318,5.1867],[102.9258,5.1891],[102.9236,5.1958],[102.9188,5.195],[102.9195,5.2007],[102.9089,5.2084],[102.9061,5.2155],[102.9021,5.2127],[102.8939,5.2289],[102.9002,5.2352],[102.8958,5.2448],[102.8896,5.2395],[102.88,5.2466],[102.8762,5.2456],[102.8747,5.2423],[102.8637,5.2549],[102.86,5.2542],[102.8586,5.2623],[102.8526,5.2671],[102.8488,5.2671],[102.8472,5.2594],[102.8429,5.2586],[102.8362,5.2525],[102.8271,5.2514],[102.8255,5.244],[102.7909,5.2216],[102.7743,5.2232],[102.7667,5.2279],[102.7647,5.2339],[102.7599,5.2364],[102.7589,5.2411],[102.7439,5.2483],[102.7353,5.2585],[102.7256,5.2587],[102.7238,5.2817],[102.7279,5.2879],[102.7277,5.2953],[102.7242,5.3035],[102.7281,5.3167],[102.7219,5.3335],[102.7154,5.3362],[102.7129,5.3409],[102.7049,5.3382],[102.6936,5.3394],[102.6811,5.3453],[102.6816,5.3841],[102.6795,5.3876],[102.6814,5.3979],[102.6736,5.4014],[102.6737,5.3976],[102.6695,5.3983],[102.6664,5.395],[102.6541,5.3909],[102.6492,5.3988],[102.652,5.402],[102.6512,5.4083],[102.6573,5.4173],[102.6512,5.4375],[102.6391,5.4474],[102.6345,5.4564],[102.6321,5.4548],[102.6251,5.4599],[102.6211,5.4737],[102.6123,5.477],[102.6086,5.4817],[102.6043,5.4802],[102.5942,5.4824],[102.5932,5.4779],[102.5873,5.4713],[102.5966,5.4542],[102.5936,5.4495],[102.5954,5.4464],[102.5884,5.4414],[102.5882,5.438],[102.5923,5.4379],[102.5927,5.4295],[102.5766,5.4196],[102.582,5.4175],[102.588,5.403],[102.5873,5.3961],[102.5785,5.3904],[102.5759,5.3859],[102.5849,5.371],[102.5736,5.3671],[102.5712,5.3701],[102.566,5.3707],[102.5546,5.3646],[102.554,5.3614],[102.5461,5.358],[102.5434,5.3591],[102.5416,5.3526],[102.5388,5.3513],[102.5388,5.3468],[102.5253,5.3332],[102.5101,5.3364],[102.5098,5.3396],[102.5137,5.3426],[102.5082,5.3505],[102.5002,5.354],[102.488,5.3543],[102.482,5.3583],[102.4816,5.3617],[102.4704,5.3598],[102.4662,5.357],[102.4657,5.3528],[102.4583,5.3499],[102.4462,5.3577],[102.4439,5.3629],[102.4364,5.3565],[102.4286,5.3568],[102.4266,5.3516],[102.4292,5.348],[102.4276,5.3374],[102.4296,5.3222],[102.4224,5.3196],[102.4184,5.2991]]]}},{"type":"Feature","properties":{"c":"N.22","n":"Manir","w":"PN","p":"PAS","cand":"Hilmi bin Harun","pct":85.9},"geometry":{"type":"Polygon","coordinates":[[[103.0392,5.2313],[103.0365,5.254],[103.0403,5.2644],[103.0442,5.268],[103.0621,5.2671],[103.081,5.2798],[103.0957,5.2858],[103.0969,5.2902],[103.088,5.3005],[103.0911,5.3158],[103.0841,5.3179],[103.0819,5.3166],[103.0814,5.3121],[103.0746,5.3108],[103.0642,5.3023],[103.0607,5.3033],[103.0589,5.298],[103.0546,5.2967],[103.0504,5.2987],[103.0529,5.2884],[103.033,5.2806],[103.0221,5.2665],[103.0209,5.2582],[103.0158,5.2536],[103.0118,5.243],[103.009,5.242],[103.0065,5.2332],[103.0031,5.2315],[103.0085,5.2267],[103.0107,5.228],[103.0082,5.2309],[103.0146,5.2375],[103.0223,5.2321],[103.0256,5.2333],[103.0335,5.2298],[103.0392,5.2313]]]}},{"type":"Feature","properties":{"c":"N.23","n":"Kuala Berang","w":"PN","p":"PAS","cand":"Mamad bin Puteh","pct":67.8},"geometry":{"type":"Polygon","coordinates":[[[103.0135,5.0278],[103.017,5.0285],[103.021,5.035],[103.0304,5.0372],[103.0281,5.0427],[103.0313,5.0488],[103.0296,5.0527],[103.0236,5.054],[103.0228,5.0647],[103.027,5.0652],[103.0275,5.0591],[103.035,5.0592],[103.0363,5.0548],[103.039,5.0549],[103.0388,5.0598],[103.0439,5.0595],[103.042,5.0623],[103.0379,5.0622],[103.0378,5.0655],[103.042,5.0701],[103.0539,5.0698],[103.0536,5.078],[103.0503,5.0796],[103.0485,5.0767],[103.04,5.0777],[103.0381,5.0813],[103.0324,5.0838],[103.031,5.087],[103.0338,5.1042],[103.0361,5.1061],[103.0676,5.1049],[103.0698,5.1068],[103.0818,5.1048],[103.0797,5.1175],[103.0523,5.1511],[103.0516,5.1564],[103.0572,5.1631],[103.0521,5.1906],[103.0484,5.193],[103.0517,5.2034],[103.045,5.2057],[103.0476,5.2148],[103.0401,5.2178],[103.03,5.2144],[103.0299,5.2111],[103.0377,5.203],[103.0323,5.1958],[103.0064,5.1792],[103.0134,5.1714],[103.0125,5.1682],[103.016,5.1649],[103.0166,5.1605],[103.0201,5.1599],[103.0201,5.1557],[103.0133,5.1512],[103.0101,5.1444],[103.0014,5.1462],[102.992,5.1421],[102.9908,5.1373],[102.9894,5.1393],[102.9852,5.1364],[102.9743,5.1218],[102.9757,5.1199],[102.9729,5.1152],[102.9755,5.103],[102.9813,5.1014],[102.9804,5.0969],[102.9752,5.0953],[102.972,5.0903],[102.978,5.0861],[102.9787,5.0666],[102.9862,5.0609],[102.9779,5.0559],[102.9792,5.0494],[102.9749,5.0484],[102.9712,5.0386],[102.9851,5.038],[102.9909,5.0415],[102.9941,5.04],[102.9963,5.0443],[103.0012,5.0409],[103.0066,5.0304],[103.0135,5.0278]]]}},{"type":"Feature","properties":{"c":"N.24","n":"Ajil","w":"PN","p":"PAS","cand":"Maliaman bin Kassim","pct":66.9},"geometry":{"type":"Polygon","coordinates":[[[102.8932,4.8059],[102.8907,4.8121],[102.8942,4.8151],[102.9065,4.8137],[102.9149,4.8172],[102.9222,4.8165],[102.9297,4.8111],[102.9407,4.8097],[102.9488,4.8119],[102.9539,4.8178],[102.9625,4.8218],[102.9702,4.8196],[102.9776,4.8216],[102.9853,4.8431],[102.991,4.843],[102.9935,4.8464],[103.0043,4.8416],[103.007,4.8382],[103.0305,4.8351],[103.0406,4.8437],[103.0366,4.8573],[103.0456,4.8633],[103.0516,4.8625],[103.0516,4.8563],[103.056,4.8547],[103.0583,4.8589],[103.0646,4.8588],[103.0664,4.8558],[103.0701,4.8577],[103.0688,4.8614],[103.072,4.864],[103.0826,4.8603],[103.0826,4.8697],[103.0865,4.8744],[103.0872,4.8834],[103.0835,4.888],[103.0858,4.891],[103.0847,4.8997],[103.078,4.912],[103.0807,4.9155],[103.0808,4.9257],[103.0995,4.9185],[103.1126,4.8995],[103.1214,4.8944],[103.1256,4.9034],[103.1402,4.89],[103.1462,4.8898],[103.1586,4.8924],[103.1624,4.8968],[103.1695,4.8988],[103.1721,4.8956],[103.1776,4.8947],[103.1824,4.9044],[103.179,4.9044],[103.1765,4.9093],[103.1801,4.9116],[103.1808,4.9152],[103.1852,4.9148],[103.1882,4.918],[103.1915,4.9155],[103.2039,4.925],[103.2134,4.9282],[103.2146,4.9317],[103.2093,4.94],[103.2123,4.9479],[103.2157,4.9515],[103.2218,4.9501],[103.2303,4.9552],[103.2186,4.9628],[103.215,4.9867],[103.2072,4.9942],[103.2055,4.9999],[103.1916,5.0094],[103.1885,5.0165],[103.1809,5.0184],[103.1774,5.0309],[103.1731,5.0328],[103.1688,5.0421],[103.1601,5.0463],[103.1589,5.053],[103.1553,5.0489],[103.1515,5.0489],[103.1492,5.0551],[103.1351,5.0695],[103.1303,5.0777],[103.1301,5.0856],[103.1254,5.0974],[103.1168,5.1072],[103.1007,5.0968],[103.0918,5.1067],[103.0809,5.1098],[103.0818,5.1048],[103.0698,5.1068],[103.0676,5.1049],[103.0361,5.1061],[103.0338,5.1042],[103.031,5.087],[103.0324,5.0838],[103.0381,5.0813],[103.04,5.0777],[103.0485,5.0767],[103.0503,5.0796],[103.0547,5.0749],[103.0539,5.0698],[103.042,5.0701],[103.0378,5.0655],[103.0379,5.0622],[103.042,5.0623],[103.0439,5.0595],[103.0388,5.0598],[103.039,5.0549],[103.0363,5.0548],[103.035,5.0592],[103.0275,5.0591],[103.027,5.0652],[103.0228,5.0647],[103.0236,5.054],[103.0296,5.0527],[103.0313,5.0488],[103.0281,5.0427],[103.0304,5.0372],[103.021,5.035],[103.017,5.0285],[103.0135,5.0278],[103.0183,5.0117],[103.012,5.0094],[103.0121,4.9971],[103.0233,5.0001],[103.0243,4.9927],[103.0181,4.9915],[103.0179,4.9833],[103.0262,4.9832],[103.0139,4.976],[103.0126,4.9701],[103.0086,4.9689],[103.014,4.9649],[103.0119,4.9621],[103.0106,4.9644],[103.008,4.9627],[103.0122,4.9438],[103.0104,4.9361],[103.0069,4.9351],[102.9998,4.9384],[102.9938,4.9364],[102.9938,4.9325],[102.9903,4.9327],[102.9909,4.9225],[102.9853,4.9173],[102.9867,4.9136],[102.9837,4.907],[102.979,4.9095],[102.9766,4.9038],[102.9683,4.8993],[102.9674,4.9015],[102.9643,4.9003],[102.9555,4.9036],[102.9543,4.902],[102.9508,4.9062],[102.9318,4.9061],[102.9282,4.9118],[102.9181,4.9077],[102.9145,4.903],[102.9132,4.8952],[102.8993,4.8823],[102.897,4.8769],[102.8985,4.874],[102.8935,4.8656],[102.8927,4.8552],[102.8808,4.8427],[102.8712,4.8416],[102.8642,4.8378],[102.8634,4.835],[102.8655,4.8278],[102.8734,4.8206],[102.8781,4.8191],[102.8799,4.8155],[102.8728,4.8081],[102.8734,4.8057],[102.8868,4.8089],[102.8932,4.8059]]]}},{"type":"Feature","properties":{"c":"N.25","n":"Bukit Besi","w":"PN","p":"PAS","cand":"Ghazali bin Sulaiman","pct":63.9},"geometry":{"type":"Polygon","coordinates":[[[103.2303,4.9552],[103.2218,4.9501],[103.2157,4.9515],[103.2123,4.9479],[103.2093,4.94],[103.2146,4.9317],[103.2134,4.9282],[103.2039,4.925],[103.1915,4.9155],[103.1882,4.918],[103.1852,4.9148],[103.1808,4.9152],[103.1801,4.9116],[103.1765,4.9093],[103.179,4.9044],[103.1824,4.9044],[103.1776,4.8947],[103.1721,4.8956],[103.1695,4.8988],[103.1624,4.8968],[103.1586,4.8924],[103.1402,4.89],[103.1256,4.9034],[103.1214,4.8944],[103.1126,4.8995],[103.0995,4.9185],[103.0808,4.9257],[103.0807,4.9155],[103.078,4.912],[103.0847,4.8997],[103.0858,4.891],[103.0835,4.888],[103.0872,4.8834],[103.0865,4.8744],[103.0826,4.8697],[103.0826,4.8603],[103.072,4.864],[103.0688,4.8614],[103.0701,4.8577],[103.0664,4.8558],[103.0646,4.8588],[103.0583,4.8589],[103.056,4.8547],[103.0516,4.8563],[103.0516,4.8625],[103.0456,4.8633],[103.0366,4.8573],[103.0406,4.8437],[103.0305,4.8351],[103.007,4.8382],[103.0043,4.8416],[102.9935,4.8464],[102.991,4.843],[102.9853,4.8431],[102.9776,4.8216],[102.9702,4.8196],[102.9625,4.8218],[102.9539,4.8178],[102.9488,4.8119],[102.9407,4.8097],[102.9297,4.8111],[102.9222,4.8165],[102.9149,4.8172],[102.9065,4.8137],[102.8942,4.8151],[102.8907,4.8121],[102.8964,4.7982],[102.8942,4.7919],[102.8897,4.7883],[102.8895,4.7794],[102.8871,4.7756],[102.8877,4.7694],[102.8907,4.768],[102.8942,4.7609],[102.8915,4.7482],[102.8754,4.7442],[102.8672,4.7375],[102.8672,4.7339],[102.8458,4.7298],[102.8409,4.7228],[102.845,4.7137],[102.8411,4.7071],[102.845,4.6994],[102.8421,4.6931],[102.8439,4.6714],[102.8556,4.6645],[102.8721,4.6383],[102.8664,4.6276],[102.8789,4.6178],[102.8841,4.6087],[102.8734,4.6036],[102.8604,4.6041],[102.859,4.5975],[102.8712,4.5876],[102.8737,4.5805],[102.8664,4.5618],[102.8549,4.5623],[102.853,4.5771],[102.8401,4.573],[102.8367,4.5355],[102.8466,4.5201],[102.8447,4.5015],[102.8461,4.4982],[102.8536,4.4926],[102.8554,4.4956],[102.8761,4.4822],[102.8725,4.4699],[102.8782,4.4634],[102.891,4.4694],[102.8995,4.4656],[102.9016,4.4685],[102.913,4.4681],[102.914,4.464],[102.9192,4.4673],[102.9296,4.4676],[102.9412,4.4544],[102.9425,4.45],[102.9513,4.4522],[102.9554,4.4569],[102.9534,4.4642],[102.9554,4.4722],[102.9617,4.4703],[102.9682,4.4739],[102.9696,4.4807],[102.9767,4.476],[102.9762,4.4718],[102.9867,4.4626],[102.9899,4.4511],[103.0003,4.4504],[103.011,4.4338],[103.0079,4.4163],[103.0175,4.4058],[103.0265,4.4094],[103.0303,4.4214],[103.0371,4.4226],[103.0376,4.4304],[103.0454,4.436],[103.0505,4.4367],[103.0543,4.4314],[103.0686,4.4319],[103.0746,4.4214],[103.0827,4.4206],[103.0842,4.4246],[103.0928,4.4251],[103.0938,4.4289],[103.0986,4.4276],[103.0998,4.4307],[103.1026,4.4309],[103.1038,4.4377],[103.1116,4.4357],[103.1157,4.4425],[103.1295,4.443],[103.1396,4.4292],[103.1426,4.4284],[103.1424,4.4236],[103.1451,4.4208],[103.1534,4.4219],[103.1532,4.4176],[103.1572,4.4173],[103.1595,4.4214],[103.1585,4.4317],[103.1698,4.438],[103.1753,4.4591],[103.1814,4.4614],[103.1824,4.4657],[103.1864,4.4672],[103.1894,4.4848],[103.202,4.4858],[103.2093,4.4946],[103.2164,4.4956],[103.2166,4.4865],[103.2227,4.4767],[103.2262,4.4621],[103.2242,4.4606],[103.2252,4.4538],[103.2274,4.4503],[103.2325,4.4506],[103.2325,4.4533],[103.2501,4.4553],[103.2649,4.4634],[103.269,4.4538],[103.2707,4.4538],[103.2727,4.4584],[103.2871,4.4659],[103.2901,4.4712],[103.2866,4.4941],[103.2964,4.5024],[103.3002,4.5155],[103.2921,4.5344],[103.2953,4.5373],[103.2942,4.5441],[103.2969,4.5457],[103.2895,4.5655],[103.2925,4.5752],[103.2875,4.5787],[103.2852,4.586],[103.2871,4.5924],[103.2842,4.6077],[103.2864,4.6097],[103.282,4.625],[103.2849,4.6276],[103.2849,4.6313],[103.2793,4.6331],[103.2786,4.6385],[103.2803,4.639],[103.2726,4.6651],[103.274,4.6684],[103.2703,4.683],[103.271,4.6892],[103.2614,4.7192],[103.263,4.7318],[103.2608,4.7345],[103.2675,4.7438],[103.2633,4.7482],[103.2642,4.7635],[103.2691,4.7678],[103.2674,4.771],[103.2545,4.7668],[103.2367,4.7571],[103.2426,4.7543],[103.243,4.7513],[103.2482,4.7504],[103.25,4.7465],[103.2481,4.7385],[103.2445,4.7363],[103.2448,4.731],[103.2131,4.7277],[103.2116,4.7856],[103.2149,4.7905],[103.2125,4.807],[103.2151,4.808],[103.2132,4.8106],[103.2149,4.8201],[103.2267,4.8154],[103.2335,4.8253],[103.2406,4.822],[103.2403,4.8168],[103.2506,4.8122],[103.252,4.8177],[103.2544,4.8168],[103.2541,4.8229],[103.256,4.8225],[103.2599,4.8285],[103.2633,4.8263],[103.2648,4.835],[103.2874,4.8697],[103.2809,4.8864],[103.2738,4.8872],[103.2708,4.8976],[103.2363,4.9095],[103.2303,4.9552]]]}},{"type":"Feature","properties":{"c":"N.26","n":"Rantau Abang","w":"PN","p":"PAS","cand":"Mohd Fadhli Rahmi bin Zulkifli","pct":75.8},"geometry":{"type":"MultiPolygon","coordinates":[[[[103.2874,4.8697],[103.2648,4.835],[103.2633,4.8263],[103.2599,4.8285],[103.256,4.8225],[103.2541,4.8229],[103.2544,4.8168],[103.252,4.8177],[103.2506,4.8122],[103.2403,4.8168],[103.2406,4.822],[103.2335,4.8253],[103.2267,4.8154],[103.2149,4.8201],[103.2132,4.8174],[103.2153,4.8156],[103.2132,4.8106],[103.2151,4.808],[103.2125,4.807],[103.2149,4.7905],[103.2116,4.7856],[103.2131,4.7277],[103.2448,4.731],[103.2445,4.7363],[103.2481,4.7385],[103.25,4.7465],[103.2482,4.7504],[103.243,4.7513],[103.2426,4.7543],[103.2367,4.7571],[103.2488,4.7648],[103.269,4.772],[103.275,4.7722],[103.2759,4.7695],[103.2812,4.7683],[103.2877,4.7694],[103.293,4.7757],[103.303,4.7734],[103.3121,4.7764],[103.3216,4.7716],[103.3253,4.7651],[103.3305,4.7645],[103.3376,4.7481],[103.3397,4.7505],[103.3469,4.751],[103.3482,4.755],[103.3529,4.7557],[103.3547,4.7519],[103.3608,4.7542],[103.3654,4.751],[103.3766,4.7537],[103.3767,4.7493],[103.38,4.7475],[103.3795,4.7426],[103.3837,4.7415],[103.3809,4.7346],[103.3827,4.7295],[103.3879,4.7238],[103.3932,4.7211],[103.4143,4.7218],[103.4186,4.7163],[103.4233,4.7174],[103.425,4.7299],[103.4158,4.7479],[103.4114,4.7481],[103.4113,4.7531],[103.401,4.7588],[103.3982,4.7632],[103.399,4.7673],[103.3951,4.7757],[103.4179,4.7822],[103.4348,4.7823],[103.4363,4.78],[103.44,4.7814],[103.4251,4.8074],[103.4255,4.8128],[103.3886,4.8763],[103.3761,4.8705],[103.3767,4.8648],[103.371,4.857],[103.3507,4.8494],[103.3472,4.8523],[103.3428,4.8493],[103.3362,4.8549],[103.335,4.8621],[103.3237,4.8703],[103.3238,4.873],[103.3182,4.8725],[103.3126,4.8785],[103.3059,4.8773],[103.3032,4.8711],[103.2963,4.8664],[103.2895,4.8672],[103.2874,4.8697]]],[[[103.678,4.8102],[103.6783,4.8068],[103.6734,4.805],[103.6726,4.8025],[103.6813,4.7934],[103.6857,4.7963],[103.6847,4.8],[103.6876,4.8038],[103.6856,4.8077],[103.6906,4.8103],[103.6817,4.814],[103.6803,4.8174],[103.6754,4.8109],[103.678,4.8102]]]]}},{"type":"Feature","properties":{"c":"N.27","n":"Sura","w":"PN","p":"PAS","cand":"Tengku Muhammad Fakhruddin bin Tengku Md Fauzi (Dr Din)","pct":83.1},"geometry":{"type":"Polygon","coordinates":[[[103.424,4.7216],[103.4316,4.712],[103.4283,4.705],[103.4336,4.6971],[103.4379,4.697],[103.4402,4.6934],[103.4471,4.6934],[103.4251,4.7496],[103.4216,4.7639],[103.4249,4.7749],[103.4299,4.7808],[103.4179,4.7822],[103.3951,4.7757],[103.401,4.7588],[103.4113,4.7531],[103.4114,4.7481],[103.4158,4.7479],[103.425,4.7299],[103.424,4.7216]]]}},{"type":"Feature","properties":{"c":"N.28","n":"Paka","w":"PN","p":"PAS","cand":"Satiful Bahari bin Mamat (Ustaz Saiful Bahari)","pct":73.3},"geometry":{"type":"Polygon","coordinates":[[[103.2955,4.5533],[103.3115,4.566],[103.3133,4.5637],[103.3192,4.5632],[103.3217,4.5682],[103.3295,4.5689],[103.3329,4.5747],[103.3334,4.5822],[103.3423,4.5874],[103.3458,4.5972],[103.3607,4.5845],[103.3665,4.5857],[103.3653,4.5823],[103.3686,4.579],[103.3756,4.5801],[103.3766,4.5847],[103.4442,4.59],[103.4558,4.5938],[103.4411,4.6312],[103.4385,4.6439],[103.4391,4.6517],[103.4425,4.6577],[103.4467,4.6545],[103.4491,4.6574],[103.4468,4.6687],[103.4485,4.6702],[103.4471,4.6718],[103.4496,4.671],[103.4465,4.6776],[103.4472,4.6851],[103.4493,4.6865],[103.4471,4.6934],[103.4402,4.6934],[103.4379,4.697],[103.4336,4.6971],[103.4283,4.705],[103.4316,4.712],[103.424,4.7216],[103.4233,4.7174],[103.4186,4.7163],[103.4143,4.7218],[103.3932,4.7211],[103.3879,4.7238],[103.3827,4.7295],[103.3809,4.7346],[103.3837,4.7415],[103.3795,4.7426],[103.38,4.7475],[103.3767,4.7493],[103.3766,4.7537],[103.3654,4.751],[103.3608,4.7542],[103.3547,4.7519],[103.3529,4.7557],[103.3482,4.755],[103.3469,4.751],[103.3397,4.7505],[103.3376,4.7481],[103.3305,4.7645],[103.3253,4.7651],[103.3216,4.7716],[103.3121,4.7764],[103.303,4.7734],[103.293,4.7757],[103.2877,4.7694],[103.2812,4.7683],[103.2759,4.7695],[103.275,4.7722],[103.2674,4.771],[103.2691,4.7667],[103.2642,4.7635],[103.2633,4.7482],[103.2675,4.7438],[103.2608,4.7345],[103.263,4.7318],[103.2614,4.7192],[103.271,4.6892],[103.2703,4.683],[103.274,4.6684],[103.2726,4.6651],[103.2803,4.639],[103.2786,4.6385],[103.2793,4.6331],[103.2849,4.6313],[103.2849,4.6276],[103.282,4.625],[103.2864,4.6097],[103.2842,4.6077],[103.2871,4.5924],[103.2852,4.586],[103.2875,4.5787],[103.2925,4.5752],[103.2895,4.5655],[103.2913,4.5565],[103.2955,4.5533]]]}},{"type":"Feature","properties":{"c":"N.29","n":"Kemasik","w":"PN","p":"PAS","cand":"Saiful Azmi bin Suhaili","pct":65.5},"geometry":{"type":"Polygon","coordinates":[[[103.289,4.4692],[103.2976,4.4644],[103.3002,4.455],[103.3098,4.4573],[103.3164,4.4545],[103.3171,4.4496],[103.3209,4.4482],[103.3242,4.4534],[103.3263,4.4514],[103.3306,4.4598],[103.3308,4.4706],[103.3443,4.4785],[103.3526,4.4871],[103.3729,4.4919],[103.378,4.4661],[103.3799,4.4357],[103.3764,4.423],[103.36,4.4218],[103.3625,4.4125],[103.3739,4.4033],[103.3759,4.3983],[103.376,4.3916],[103.3726,4.388],[103.3714,4.3805],[103.379,4.3756],[103.3893,4.3816],[103.3898,4.3843],[103.3977,4.3835],[103.4047,4.3863],[103.4087,4.382],[103.4225,4.3848],[103.4315,4.3835],[103.4556,4.3951],[103.4556,4.4126],[103.4579,4.4176],[103.4552,4.4249],[103.4552,4.4354],[103.445,4.4675],[103.4468,4.4931],[103.4528,4.514],[103.4583,4.5173],[103.4687,4.516],[103.4751,4.5261],[103.4705,4.5408],[103.473,4.5449],[103.4679,4.5567],[103.4686,4.562],[103.4558,4.5938],[103.4442,4.59],[103.3766,4.5847],[103.3756,4.5801],[103.3686,4.579],[103.3653,4.5823],[103.3665,4.5857],[103.3607,4.5845],[103.3458,4.5972],[103.3423,4.5874],[103.3334,4.5822],[103.3329,4.5747],[103.3295,4.5689],[103.3217,4.5682],[103.3192,4.5632],[103.3133,4.5637],[103.3115,4.566],[103.2955,4.5533],[103.2969,4.5457],[103.2942,4.5441],[103.2953,4.5373],[103.2921,4.5344],[103.3002,4.5155],[103.2964,4.5024],[103.2866,4.4941],[103.2866,4.486],[103.2896,4.4798],[103.289,4.4692]]]}},{"type":"Feature","properties":{"c":"N.30","n":"Kijal","w":"PN","p":"BERSATU","cand":"Razali bin Idris (Tok Li)","pct":58.2},"geometry":{"type":"Polygon","coordinates":[[[103.1548,4.4175],[103.1554,4.4098],[103.1645,4.4062],[103.1666,4.4012],[103.1714,4.4007],[103.1812,4.3944],[103.1795,4.3764],[103.1813,4.3729],[103.1883,4.3724],[103.1933,4.3797],[103.1986,4.3792],[103.2063,4.3737],[103.209,4.359],[103.2181,4.3448],[103.2277,4.3363],[103.2353,4.3361],[103.235,4.3311],[103.2399,4.3339],[103.2415,4.3272],[103.232,4.3143],[103.2351,4.3112],[103.2389,4.3113],[103.2436,4.306],[103.2563,4.3057],[103.2583,4.3009],[103.2596,4.3055],[103.2735,4.2984],[103.287,4.2949],[103.3677,4.2787],[103.3697,4.2713],[103.375,4.2776],[103.389,4.2767],[103.4055,4.2721],[103.4112,4.28],[103.412,4.2721],[103.4181,4.2723],[103.4187,4.269],[103.4146,4.2667],[103.4212,4.2624],[103.4185,4.2571],[103.4258,4.2522],[103.4357,4.2524],[103.437,4.2458],[103.441,4.2417],[103.4446,4.239],[103.4513,4.2397],[103.4529,4.2362],[103.4608,4.2389],[103.4596,4.2485],[103.4619,4.2556],[103.4699,4.2571],[103.4689,4.2504],[103.4706,4.2505],[103.4732,4.2585],[103.4717,4.2648],[103.475,4.2672],[103.4751,4.2733],[103.4787,4.2745],[103.4774,4.2852],[103.4837,4.2884],[103.488,4.299],[103.4877,4.3058],[103.4915,4.3106],[103.49,4.3149],[103.4917,4.3302],[103.4768,4.3516],[103.4556,4.3951],[103.4315,4.3835],[103.4225,4.3848],[103.4087,4.382],[103.4047,4.3863],[103.3977,4.3835],[103.3898,4.3843],[103.3893,4.3816],[103.379,4.3756],[103.3714,4.3805],[103.3726,4.388],[103.376,4.3916],[103.3759,4.3983],[103.3739,4.4033],[103.3625,4.4125],[103.36,4.4218],[103.3764,4.423],[103.3799,4.4357],[103.378,4.4661],[103.3729,4.4919],[103.3526,4.4871],[103.3443,4.4785],[103.3308,4.4706],[103.3306,4.4598],[103.3263,4.4514],[103.3242,4.4534],[103.3209,4.4482],[103.3171,4.4496],[103.3164,4.4545],[103.3098,4.4573],[103.3002,4.455],[103.2976,4.4644],[103.289,4.4692],[103.2871,4.4659],[103.2727,4.4584],[103.2707,4.4538],[103.269,4.4538],[103.2649,4.4634],[103.2501,4.4553],[103.2325,4.4533],[103.2325,4.4506],[103.2274,4.4503],[103.2252,4.4538],[103.2242,4.4606],[103.2262,4.4621],[103.2227,4.4767],[103.2166,4.4865],[103.2164,4.4956],[103.2093,4.4946],[103.202,4.4858],[103.1894,4.4848],[103.1864,4.4672],[103.1824,4.4657],[103.1814,4.4614],[103.1753,4.4591],[103.1698,4.438],[103.1585,4.4317],[103.1595,4.4214],[103.1572,4.4173],[103.1548,4.4175]]]}},{"type":"Feature","properties":{"c":"N.31","n":"Cukai","w":"PN","p":"PAS","cand":"Hanafiah bin Mat","pct":64.1},"geometry":{"type":"Polygon","coordinates":[[[103.4225,4.2546],[103.4154,4.2402],[103.4077,4.2409],[103.4069,4.2385],[103.3965,4.2368],[103.398,4.2342],[103.4087,4.234],[103.419,4.2304],[103.4165,4.2185],[103.4132,4.2188],[103.4061,4.2043],[103.3957,4.2013],[103.3937,4.2065],[103.3982,4.2151],[103.3961,4.2198],[103.3678,4.2151],[103.3623,4.2101],[103.3616,4.206],[103.3585,4.2117],[103.3502,4.2137],[103.3499,4.2176],[103.3371,4.2079],[103.3335,4.2103],[103.3208,4.2115],[103.3231,4.2056],[103.3229,4.1934],[103.3266,4.1874],[103.3322,4.1898],[103.3452,4.1776],[103.4011,4.1781],[103.4402,4.1867],[103.4443,4.1803],[103.4385,4.2164],[103.4426,4.2318],[103.4464,4.2383],[103.4504,4.2394],[103.4446,4.239],[103.441,4.2417],[103.437,4.2458],[103.4357,4.2524],[103.4258,4.2522],[103.4225,4.2546]]]}},{"type":"Feature","properties":{"c":"N.32","n":"Air Putih","w":"PN","p":"PAS","cand":"Mohd Hafiz bin Adam","pct":65.6},"geometry":{"type":"Polygon","coordinates":[[[102.9337,4.0989],[102.9606,4.113],[102.9625,4.1167],[102.9787,4.1212],[102.9849,4.1183],[102.9937,4.1282],[103.0083,4.1263],[103.0176,4.1159],[103.0246,4.1204],[103.044,4.1141],[103.0517,4.1181],[103.0701,4.1114],[103.0722,4.0944],[103.0847,4.0952],[103.0959,4.0862],[103.1021,4.0899],[103.1212,4.0777],[103.121,4.0713],[103.1274,4.07],[103.1335,4.0516],[103.1391,4.0538],[103.1561,4.0423],[103.1633,4.0304],[103.1838,4.0288],[103.1897,4.0251],[103.195,4.0389],[103.2019,4.0354],[103.2054,4.0129],[103.2158,4.0097],[103.2248,4.019],[103.2408,4.0152],[103.2397,4.0041],[103.2464,3.9913],[103.2648,3.9807],[103.2744,3.9666],[103.2722,3.96],[103.2672,3.96],[103.264,3.9494],[103.272,3.9409],[103.2768,3.9401],[103.301,3.8981],[103.3007,3.8917],[103.3111,3.8795],[103.314,3.8853],[103.313,3.8885],[103.3178,3.8949],[103.3042,3.9207],[103.3266,3.9294],[103.3348,3.9488],[103.3314,3.9767],[103.3335,3.9812],[103.3255,3.9935],[103.3228,4.0123],[103.3279,4.0394],[103.3231,4.0548],[103.3162,4.0639],[103.3058,4.0644],[103.2986,4.0859],[103.3053,4.0859],[103.3066,4.1181],[103.3236,4.1252],[103.3242,4.1422],[103.3287,4.1428],[103.3244,4.1571],[103.3284,4.1606],[103.3208,4.1695],[103.3222,4.1792],[103.3172,4.1855],[103.3196,4.194],[103.3266,4.1874],[103.3229,4.1934],[103.3231,4.2056],[103.3208,4.2115],[103.3335,4.2103],[103.3371,4.2079],[103.3499,4.2176],[103.3502,4.2137],[103.3585,4.2117],[103.3616,4.206],[103.3623,4.2101],[103.3678,4.2151],[103.3961,4.2198],[103.3982,4.2151],[103.3937,4.2065],[103.3957,4.2013],[103.4061,4.2043],[103.4132,4.2188],[103.4165,4.2185],[103.419,4.2304],[103.4087,4.234],[103.398,4.2342],[103.3965,4.2368],[103.4069,4.2385],[103.4077,4.2409],[103.4154,4.2402],[103.4198,4.247],[103.4189,4.2494],[103.4225,4.2546],[103.4185,4.2571],[103.4212,4.2624],[103.4146,4.2667],[103.4187,4.269],[103.4181,4.2723],[103.412,4.2721],[103.4098,4.28],[103.4055,4.2721],[103.389,4.2767],[103.375,4.2776],[103.3697,4.2713],[103.3677,4.2787],[103.287,4.2949],[103.2735,4.2984],[103.2596,4.3055],[103.2583,4.3009],[103.2563,4.3057],[103.2436,4.306],[103.2389,4.3113],[103.2351,4.3112],[103.232,4.3143],[103.2415,4.3272],[103.2399,4.3339],[103.235,4.3311],[103.2353,4.3361],[103.2277,4.3363],[103.2181,4.3448],[103.209,4.359],[103.2063,4.3737],[103.1986,4.3792],[103.1933,4.3797],[103.1883,4.3724],[103.1813,4.3729],[103.1795,4.3764],[103.1812,4.3944],[103.1714,4.4007],[103.1666,4.4012],[103.1645,4.4062],[103.1554,4.4098],[103.1534,4.4219],[103.1451,4.4208],[103.1424,4.4236],[103.1426,4.4284],[103.1396,4.4292],[103.1295,4.443],[103.1157,4.4425],[103.1116,4.4357],[103.1038,4.4377],[103.1026,4.4309],[103.0998,4.4307],[103.0986,4.4276],[103.0938,4.4289],[103.0928,4.4251],[103.0842,4.4246],[103.0827,4.4206],[103.0746,4.4214],[103.0686,4.4319],[103.0543,4.4314],[103.0505,4.4367],[103.0454,4.436],[103.0376,4.4304],[103.0371,4.4226],[103.0303,4.4214],[103.0263,4.4135],[103.0259,4.3983],[103.0024,4.3802],[103.0051,4.3425],[103.0152,4.3356],[103.0051,4.3292],[102.9769,4.3374],[102.9633,4.3255],[102.9572,4.313],[102.9545,4.296],[102.9484,4.2851],[102.9372,4.2896],[102.9281,4.2782],[102.9305,4.2726],[102.9279,4.2631],[102.9308,4.2453],[102.9273,4.2349],[102.9178,4.2328],[102.9202,4.2256],[102.9108,4.2142],[102.9186,4.1967],[102.9196,4.1576],[102.8885,4.1372],[102.9162,4.1024],[102.9337,4.0989]]]}}]}