{"type":"FeatureCollection","features":[{"type":"Feature","properties":{"c":"N.01","n":"Kuala Linggi","w":"BN","p":"UMNO","cand":"Rosli bin Abdullah","pct":51.0,"maj":1836,"nc":4,"tv":6968,"unc":false,"rw":"PH","rp":"AMANAH","rcand":"Julasapiyah bin Kassim","rpct":24.7},"geometry":{"type":"Polygon","coordinates":[[[102.0301,2.4398],[102.0269,2.4335],[102.0273,2.4276],[102.0116,2.4087],[101.994,2.3998],[101.9843,2.3982],[101.9767,2.3897],[101.9731,2.3904],[101.9683,2.3872],[101.9715,2.376],[101.9761,2.3706],[101.988,2.3693],[101.996,2.3653],[101.9986,2.3685],[102.0059,2.368],[102.0228,2.3617],[102.0394,2.3489],[102.0546,2.3425],[102.0655,2.3299],[102.0688,2.3325],[102.0656,2.3378],[102.0702,2.3471],[102.0678,2.3622],[102.0589,2.3681],[102.0534,2.3686],[102.0549,2.3706],[102.0528,2.3752],[102.0597,2.3816],[102.0625,2.3813],[102.0617,2.3907],[102.0649,2.3938],[102.064,2.3975],[102.0692,2.3978],[102.0425,2.4141],[102.0406,2.4185],[102.0429,2.4211],[102.0346,2.4262],[102.0382,2.4342],[102.0301,2.4398]]]}},{"type":"Feature","properties":{"c":"N.02","n":"Tanjung Bidara","w":"BN","p":"UMNO","cand":"Ab Rauf bin Yusoh","pct":49.1,"maj":364,"nc":3,"tv":7243,"unc":false,"rw":"PN","rp":"BERSATU","rcand":"Mas Ermieyati binti Samsudin","rpct":44.1},"geometry":{"type":"Polygon","coordinates":[[[102.0692,2.3978],[102.064,2.3975],[102.0649,2.3938],[102.0617,2.3907],[102.0625,2.3813],[102.0608,2.3822],[102.0575,2.3776],[102.0532,2.3762],[102.0549,2.3706],[102.053,2.3699],[102.0678,2.3622],[102.0702,2.3471],[102.0656,2.3378],[102.0688,2.3325],[102.0655,2.3299],[102.078,2.2966],[102.0885,2.2911],[102.0901,2.2919],[102.0873,2.2985],[102.0958,2.2992],[102.0959,2.3056],[102.1035,2.3049],[102.0978,2.3244],[102.1075,2.3315],[102.0988,2.3388],[102.1026,2.341],[102.1025,2.3435],[102.0993,2.3426],[102.0974,2.3449],[102.1015,2.3466],[102.0988,2.3472],[102.0999,2.3499],[102.102,2.3495],[102.1014,2.3515],[102.0986,2.3516],[102.1022,2.3549],[102.1004,2.3567],[102.0967,2.3556],[102.0964,2.3584],[102.0905,2.362],[102.0871,2.3739],[102.0905,2.3828],[102.0893,2.3894],[102.0763,2.3983],[102.0692,2.3978]]]}},{"type":"Feature","properties":{"c":"N.03","n":"Ayer Limau","w":"BN","p":"UMNO","cand":"Hameed bin Mytheen Kunju Basheer","pct":51.9,"maj":1085,"nc":3,"tv":7389,"unc":false,"rw":"PN","rp":"BERSATU","rcand":"Nordina binti Abd Latif","rpct":37.3},"geometry":{"type":"Polygon","coordinates":[[[102.0429,2.4211],[102.0411,2.4167],[102.0471,2.4105],[102.0625,2.4034],[102.0692,2.3978],[102.0763,2.3983],[102.0893,2.3894],[102.0905,2.3828],[102.0871,2.3739],[102.0905,2.362],[102.0964,2.3584],[102.0967,2.3556],[102.1145,2.3545],[102.1266,2.3689],[102.133,2.3717],[102.1346,2.3764],[102.1375,2.376],[102.1399,2.3799],[102.1404,2.3844],[102.1367,2.387],[102.1231,2.3871],[102.1114,2.407],[102.1156,2.4099],[102.1138,2.4211],[102.1098,2.4273],[102.1169,2.4306],[102.1167,2.435],[102.1266,2.4438],[102.1235,2.4454],[102.1258,2.4566],[102.123,2.4573],[102.1204,2.4611],[102.1216,2.4627],[102.0885,2.4471],[102.0838,2.4539],[102.0644,2.4578],[102.0604,2.4509],[102.0626,2.4484],[102.0593,2.4443],[102.0607,2.4421],[102.0644,2.4442],[102.0625,2.4367],[102.0509,2.4331],[102.0488,2.4276],[102.0519,2.4234],[102.0501,2.4207],[102.0429,2.4211]]]}},{"type":"Feature","properties":{"c":"N.04","n":"Lendu","w":"BN","p":"UMNO","cand":"Sulaiman bin Md Ali","pct":63.9,"maj":3104,"nc":3,"tv":7023,"unc":false,"rw":"PN","rp":"BERSATU","rcand":"Abdullah bin Mahadi","rpct":19.7},"geometry":{"type":"Polygon","coordinates":[[[102.1004,2.3567],[102.1022,2.3549],[102.0986,2.3516],[102.102,2.3495],[102.0999,2.3499],[102.0988,2.3472],[102.1015,2.3466],[102.0974,2.3449],[102.0993,2.3426],[102.1025,2.3435],[102.1026,2.341],[102.0988,2.3388],[102.1075,2.3315],[102.0978,2.3244],[102.1035,2.3049],[102.0959,2.3056],[102.0958,2.2992],[102.0873,2.2985],[102.0938,2.2887],[102.1097,2.2891],[102.1101,2.2872],[102.1149,2.2878],[102.1184,2.2838],[102.1263,2.2894],[102.1305,2.2888],[102.134,2.2938],[102.1459,2.2892],[102.1443,2.3008],[102.1558,2.3031],[102.1577,2.3072],[102.159,2.3044],[102.1775,2.3092],[102.1846,2.3079],[102.1853,2.3119],[102.1897,2.3115],[102.1888,2.3149],[102.1803,2.3154],[102.1799,2.324],[102.1843,2.3262],[102.1842,2.3298],[102.1743,2.3582],[102.1781,2.361],[102.1742,2.3751],[102.1765,2.3765],[102.1748,2.3829],[102.1726,2.3829],[102.1721,2.3747],[102.1655,2.3728],[102.1594,2.3659],[102.1538,2.3668],[102.1443,2.3783],[102.1376,2.3785],[102.1375,2.376],[102.1346,2.3764],[102.133,2.3717],[102.1266,2.3689],[102.1145,2.3545],[102.1099,2.3535],[102.108,2.3561],[102.1004,2.3567]]]}},{"type":"Feature","properties":{"c":"N.05","n":"Taboh Naning","w":"BN","p":"UMNO","cand":"Zulkiflee bin Mohd Zin","pct":57.2,"maj":1825,"nc":3,"tv":5539,"unc":false,"rw":"PN","rp":"PAS","rcand":"Hashim bin Mohamad","rpct":24.3},"geometry":{"type":"Polygon","coordinates":[[[102.1216,2.4627],[102.1204,2.4611],[102.123,2.4573],[102.1258,2.4566],[102.1235,2.4454],[102.1266,2.4438],[102.1167,2.435],[102.1169,2.4306],[102.1098,2.4273],[102.1138,2.4211],[102.1156,2.4099],[102.1114,2.407],[102.121,2.3892],[102.1231,2.3871],[102.1367,2.387],[102.1404,2.3844],[102.1381,2.3784],[102.1443,2.3783],[102.1565,2.3656],[102.1649,2.37],[102.1655,2.3728],[102.1721,2.3747],[102.1729,2.3835],[102.1779,2.3812],[102.1836,2.3829],[102.1897,2.3814],[102.1903,2.3852],[102.1885,2.3822],[102.186,2.3843],[102.1879,2.3853],[102.1871,2.3886],[102.1922,2.3925],[102.1903,2.3929],[102.1917,2.4026],[102.1893,2.4056],[102.1951,2.412],[102.1925,2.4175],[102.1942,2.4214],[102.1907,2.4273],[102.188,2.4278],[102.1911,2.432],[102.1917,2.4414],[102.2109,2.4484],[102.2117,2.4545],[102.2056,2.4635],[102.2032,2.4635],[102.2058,2.4703],[102.2027,2.4701],[102.2043,2.4778],[102.2067,2.4785],[102.2052,2.4826],[102.1936,2.4868],[102.1925,2.4905],[102.1762,2.4995],[102.1416,2.457],[102.1216,2.4627]]]}},{"type":"Feature","properties":{"c":"N.06","n":"Rembia","w":"BN","p":"UMNO","cand":"Muhammad Jailani bin Khamis","pct":41.6,"maj":860,"nc":5,"tv":10152,"unc":false,"rw":"PH","rp":"PKR","rcand":"Zamri bin Pakiri","rpct":33.1},"geometry":{"type":"Polygon","coordinates":[[[102.1756,2.382],[102.1765,2.3765],[102.1742,2.3751],[102.1781,2.361],[102.1743,2.3582],[102.1842,2.3298],[102.1843,2.3262],[102.1799,2.324],[102.1803,2.3154],[102.1863,2.316],[102.1946,2.3123],[102.1946,2.3142],[102.208,2.3169],[102.2169,2.3076],[102.2213,2.3101],[102.2292,2.2983],[102.2365,2.2951],[102.2398,2.3063],[102.2367,2.3106],[102.24,2.3146],[102.2388,2.3199],[102.234,2.3202],[102.2361,2.3208],[102.2362,2.3291],[102.2391,2.3316],[102.2371,2.3462],[102.2389,2.3485],[102.2222,2.357],[102.2189,2.3659],[102.2238,2.3685],[102.2228,2.3719],[102.2298,2.3736],[102.2302,2.3799],[102.2372,2.3829],[102.2328,2.3866],[102.2344,2.3918],[102.2146,2.3891],[102.2078,2.3961],[102.2075,2.3936],[102.2045,2.3944],[102.2013,2.3918],[102.2034,2.3952],[102.202,2.4001],[102.1981,2.4035],[102.1917,2.4026],[102.1919,2.3968],[102.19,2.3965],[102.1922,2.3925],[102.1871,2.3886],[102.1879,2.3853],[102.186,2.3843],[102.1885,2.3822],[102.1903,2.3852],[102.1897,2.3814],[102.1756,2.382]]]}},{"type":"Feature","properties":{"c":"N.07","n":"Gadek","w":"BN","p":"MIC","cand":"Shanmugam a/l V.Pitchay (VP Shan)","pct":39.4,"maj":559,"nc":6,"tv":7677,"unc":false,"rw":"PH","rp":"DAP","rcand":"Saminathan a/l Ganesan (G. Saminathan)","rpct":32.1},"geometry":{"type":"Polygon","coordinates":[[[102.2052,2.4826],[102.2067,2.4785],[102.2043,2.4778],[102.2027,2.4701],[102.2058,2.4703],[102.2032,2.4635],[102.2056,2.4635],[102.2117,2.4545],[102.2109,2.4484],[102.1917,2.4414],[102.1911,2.432],[102.188,2.4278],[102.1907,2.4273],[102.1942,2.4214],[102.1925,2.4175],[102.1951,2.412],[102.1895,2.4063],[102.1903,2.4036],[102.1981,2.4035],[102.202,2.4001],[102.2034,2.3952],[102.2013,2.3918],[102.2045,2.3944],[102.2075,2.3936],[102.2078,2.3961],[102.2146,2.3891],[102.2344,2.3918],[102.2328,2.3866],[102.2361,2.3839],[102.2378,2.3861],[102.2412,2.385],[102.2466,2.3905],[102.2477,2.3958],[102.254,2.3984],[102.2646,2.3776],[102.2727,2.3796],[102.2653,2.3919],[102.2691,2.3927],[102.267,2.3984],[102.2768,2.4034],[102.2677,2.4144],[102.2703,2.4188],[102.2652,2.4214],[102.2672,2.4265],[102.2655,2.434],[102.2623,2.4351],[102.2559,2.4325],[102.2538,2.4382],[102.2634,2.4432],[102.2704,2.4383],[102.2684,2.4518],[102.2711,2.4585],[102.2746,2.459],[102.2314,2.4665],[102.2052,2.4826]]]}},{"type":"Feature","properties":{"c":"N.08","n":"Machap Jaya","w":"BN","p":"MCA","cand":"Ngwe Hee Sem","pct":46.7,"maj":938,"nc":5,"tv":7996,"unc":false,"rw":"PH","rp":"PKR","rcand":"Law Bing Haw","rpct":34.9},"geometry":{"type":"Polygon","coordinates":[[[102.2746,2.459],[102.2711,2.4585],[102.2684,2.4518],[102.2704,2.4383],[102.2634,2.4432],[102.2538,2.4382],[102.2559,2.4325],[102.2623,2.4351],[102.2655,2.434],[102.2672,2.4265],[102.2652,2.4214],[102.2703,2.4188],[102.2677,2.4144],[102.2768,2.4034],[102.267,2.3984],[102.2691,2.3927],[102.2653,2.3919],[102.2727,2.3796],[102.2646,2.3776],[102.2566,2.3905],[102.2562,2.3958],[102.254,2.3984],[102.2485,2.3963],[102.2466,2.3905],[102.2412,2.385],[102.2378,2.3861],[102.2372,2.3829],[102.2302,2.3799],[102.2298,2.3736],[102.2228,2.3719],[102.2238,2.3685],[102.2189,2.3659],[102.2222,2.357],[102.2402,2.3476],[102.2458,2.3545],[102.2481,2.3511],[102.2513,2.3528],[102.2502,2.3563],[102.2532,2.3601],[102.2632,2.3557],[102.2638,2.3581],[102.2697,2.3582],[102.2721,2.3529],[102.277,2.3539],[102.2778,2.3571],[102.28,2.3534],[102.2782,2.3496],[102.2828,2.348],[102.2824,2.3463],[102.2903,2.3455],[102.2902,2.3428],[102.2955,2.3418],[102.2971,2.3379],[102.301,2.3378],[102.3034,2.3429],[102.3033,2.3366],[102.3072,2.3307],[102.3197,2.3274],[102.326,2.321],[102.3311,2.321],[102.3384,2.3256],[102.3442,2.324],[102.3456,2.3369],[102.3533,2.3529],[102.3495,2.3569],[102.3516,2.3638],[102.3594,2.3666],[102.3571,2.3821],[102.3548,2.3802],[102.3506,2.3815],[102.3474,2.4114],[102.339,2.4252],[102.342,2.4276],[102.3392,2.4321],[102.3586,2.4468],[102.3616,2.4543],[102.368,2.4601],[102.3657,2.4619],[102.3678,2.4677],[102.361,2.4657],[102.3648,2.4899],[102.319,2.4798],[102.2782,2.4587],[102.2746,2.459]]]}},{"type":"Feature","properties":{"c":"N.09","n":"Durian Tunggal","w":"BN","p":"UMNO","cand":"Zahari bin Abd Kalil","pct":40.6,"maj":559,"nc":4,"tv":9033,"unc":false,"rw":"PH","rp":"AMANAH","rcand":"Mohd Sofi bin Abdul Wahab (Sofi Wahab)","rpct":34.4},"geometry":{"type":"Polygon","coordinates":[[[102.2389,2.3485],[102.2371,2.3462],[102.2388,2.3374],[102.2461,2.3317],[102.2507,2.3332],[102.258,2.3291],[102.2541,2.3173],[102.2556,2.3075],[102.2632,2.2999],[102.2541,2.2854],[102.242,2.2766],[102.2587,2.2682],[102.2625,2.2697],[102.2625,2.2723],[102.2645,2.2712],[102.2655,2.2737],[102.2683,2.2736],[102.27,2.2794],[102.2762,2.2779],[102.2782,2.2817],[102.2959,2.2873],[102.3066,2.2878],[102.3133,2.2828],[102.3244,2.281],[102.3316,2.281],[102.3354,2.2845],[102.3448,2.3238],[102.3384,2.3256],[102.3311,2.321],[102.326,2.321],[102.3197,2.3274],[102.3072,2.3307],[102.3033,2.3366],[102.3034,2.3429],[102.301,2.3378],[102.2971,2.3379],[102.2955,2.3418],[102.2902,2.3428],[102.2903,2.3455],[102.2824,2.3463],[102.2828,2.348],[102.2782,2.3496],[102.28,2.3534],[102.2778,2.3571],[102.277,2.3539],[102.2721,2.3529],[102.2697,2.3582],[102.2638,2.3581],[102.2632,2.3557],[102.2532,2.3601],[102.2502,2.3563],[102.2513,2.3528],[102.2481,2.3511],[102.2458,2.3545],[102.2431,2.349],[102.2389,2.3485]]]}},{"type":"Feature","properties":{"c":"N.10","n":"Asahan","w":"BN","p":"UMNO","cand":"Fairul Nizam bin Roslan","pct":56.8,"maj":2993,"nc":6,"tv":9968,"unc":false,"rw":"PH","rp":"PKR","rcand":"Idris bin Haron","rpct":26.7},"geometry":{"type":"Polygon","coordinates":[[[102.3648,2.4899],[102.361,2.4657],[102.3678,2.4677],[102.3657,2.4619],[102.368,2.4601],[102.3616,2.4543],[102.3586,2.4468],[102.3392,2.4321],[102.342,2.4276],[102.339,2.4252],[102.3474,2.4114],[102.3479,2.3943],[102.3501,2.394],[102.3513,2.38],[102.3639,2.3841],[102.3674,2.3805],[102.3812,2.3788],[102.3874,2.3798],[102.392,2.3849],[102.3946,2.3759],[102.4122,2.3729],[102.4245,2.3659],[102.487,2.3602],[102.4845,2.3711],[102.4968,2.3742],[102.4979,2.3787],[102.5005,2.3772],[102.5079,2.3792],[102.5137,2.3749],[102.516,2.3688],[102.5212,2.3659],[102.5251,2.3669],[102.538,2.3776],[102.5356,2.3827],[102.5396,2.3902],[102.5553,2.3963],[102.5657,2.3962],[102.5943,2.4097],[102.5875,2.416],[102.563,2.4192],[102.5101,2.4377],[102.4319,2.4575],[102.4334,2.4669],[102.4158,2.4748],[102.3648,2.4899]]]}},{"type":"Feature","properties":{"c":"N.11","n":"Sungai Udang","w":"PN","p":"BERSATU","cand":"Mohd Aleef bin Yusof","pct":43.6,"maj":530,"nc":4,"tv":15554,"unc":false,"rw":"BN","rp":"UMNO","rcand":"Mohamad Ali bin Mohamad","rpct":40.2},"geometry":{"type":"Polygon","coordinates":[[[102.0885,2.2911],[102.1022,2.2718],[102.1062,2.2747],[102.1144,2.2724],[102.1228,2.2662],[102.1373,2.2481],[102.1417,2.2531],[102.1396,2.254],[102.1379,2.2617],[102.1441,2.2626],[102.1556,2.2725],[102.1632,2.2691],[102.1637,2.2775],[102.1723,2.2703],[102.1746,2.2717],[102.174,2.2679],[102.1781,2.2638],[102.181,2.268],[102.1891,2.2711],[102.194,2.2672],[102.1978,2.2691],[102.1984,2.2645],[102.2055,2.2641],[102.2051,2.2723],[102.1993,2.2826],[102.2051,2.2826],[102.2024,2.2891],[102.1921,2.2918],[102.1912,2.2976],[102.1884,2.2971],[102.186,2.2916],[102.183,2.2914],[102.1797,2.2967],[102.1739,2.2914],[102.1712,2.2935],[102.1685,2.3072],[102.159,2.3044],[102.1577,2.3072],[102.1558,2.3031],[102.1443,2.3008],[102.1459,2.2892],[102.134,2.2938],[102.1305,2.2888],[102.1249,2.2888],[102.1199,2.2839],[102.1149,2.2878],[102.1101,2.2872],[102.1097,2.2891],[102.1029,2.2895],[102.1018,2.2878],[102.1002,2.29],[102.0938,2.2887],[102.0885,2.2911]]]}},{"type":"Feature","properties":{"c":"N.12","n":"Pantai Kundor","w":"BN","p":"UMNO","cand":"Tuminah binti Kadi","pct":40.0,"maj":827,"nc":3,"tv":9892,"unc":false,"rw":"PN","rp":"BERSATU","rcand":"Mohamad Ridzwan bin Mustafa","rpct":31.7},"geometry":{"type":"Polygon","coordinates":[[[102.1373,2.2481],[102.1542,2.2171],[102.1594,2.2158],[102.1645,2.2167],[102.1678,2.2204],[102.1748,2.2204],[102.1677,2.2444],[102.1609,2.2459],[102.1599,2.2496],[102.1603,2.2527],[102.1634,2.254],[102.1607,2.2596],[102.1629,2.2651],[102.1709,2.2624],[102.1762,2.2641],[102.1746,2.2717],[102.1723,2.2703],[102.1637,2.2775],[102.1632,2.2691],[102.1556,2.2725],[102.1441,2.2626],[102.1379,2.2617],[102.1396,2.254],[102.1417,2.2531],[102.1373,2.2481]]]}},{"type":"Feature","properties":{"c":"N.13","n":"Paya Rumput","w":"BN","p":"UMNO","cand":"Rais bin Yasin","pct":39.7,"maj":629,"nc":5,"tv":17211,"unc":false,"rw":"PH","rp":"PKR","rcand":"Shamsul Iskandar bin Mohd Akin","rpct":36.0},"geometry":{"type":"Polygon","coordinates":[[[102.1893,2.3132],[102.1897,2.3115],[102.1847,2.3114],[102.1846,2.3079],[102.1775,2.3092],[102.1689,2.3064],[102.1712,2.2935],[102.1739,2.2914],[102.1797,2.2967],[102.1848,2.2912],[102.1884,2.2971],[102.1912,2.2976],[102.1921,2.2918],[102.2024,2.2891],[102.2051,2.2826],[102.1993,2.2826],[102.2051,2.2723],[102.2055,2.2641],[102.1984,2.2645],[102.1978,2.2691],[102.194,2.2672],[102.1891,2.2711],[102.181,2.268],[102.1781,2.2638],[102.1906,2.2549],[102.206,2.2478],[102.206,2.2534],[102.2162,2.2556],[102.2271,2.2548],[102.2281,2.2448],[102.231,2.2451],[102.2361,2.2538],[102.2398,2.2751],[102.2505,2.2815],[102.2632,2.2999],[102.2556,2.3075],[102.2541,2.3173],[102.258,2.3291],[102.2507,2.3332],[102.2461,2.3317],[102.2388,2.3374],[102.2361,2.3208],[102.234,2.3202],[102.2388,2.3199],[102.24,2.3146],[102.2367,2.3106],[102.2398,2.3063],[102.2365,2.2951],[102.2292,2.2983],[102.2213,2.3101],[102.2169,2.3076],[102.208,2.3169],[102.1946,2.3142],[102.1946,2.3123],[102.1893,2.3132]]]}},{"type":"Feature","properties":{"c":"N.14","n":"Kelebang","w":"BN","p":"MCA","cand":"Lim Ban Hong","pct":38.5,"maj":876,"nc":3,"tv":13064,"unc":false,"rw":"PH","rp":"PKR","rcand":"Gue Teck","rpct":31.8},"geometry":{"type":"Polygon","coordinates":[[[102.1766,2.266],[102.1709,2.2624],[102.1629,2.2651],[102.1607,2.2596],[102.1634,2.254],[102.1603,2.2527],[102.1599,2.2496],[102.1609,2.2459],[102.1677,2.2444],[102.1748,2.2204],[102.1965,2.2158],[102.216,2.2055],[102.2192,2.2159],[102.2088,2.2192],[102.2096,2.2239],[102.215,2.2301],[102.2112,2.2331],[102.206,2.2496],[102.206,2.2478],[102.1906,2.2549],[102.1766,2.266]]]}},{"type":"Feature","properties":{"c":"N.15","n":"Pengkalan Batu","w":"BN","p":"UMNO","cand":"Kalsom binti Noordin","pct":35.8,"maj":131,"nc":5,"tv":13528,"unc":false,"rw":"PH","rp":"DAP","rcand":"Muhamad Danish bin Zainudin","rpct":34.8},"geometry":{"type":"Polygon","coordinates":[[[102.2679,2.238],[102.2659,2.241],[102.2612,2.2374],[102.2602,2.2328],[102.2569,2.2331],[102.2506,2.2358],[102.2502,2.2415],[102.2459,2.2441],[102.2425,2.2421],[102.2422,2.2376],[102.2284,2.2299],[102.2342,2.2243],[102.2426,2.222],[102.2432,2.2158],[102.2623,2.209],[102.2631,2.2037],[102.2682,2.2015],[102.2746,2.2022],[102.2785,2.2082],[102.2753,2.2092],[102.2752,2.2147],[102.2656,2.2132],[102.2619,2.2225],[102.2655,2.2252],[102.2696,2.2248],[102.2718,2.2296],[102.2679,2.238]]]}},{"type":"Feature","properties":{"c":"N.16","n":"Ayer Keroh","w":"PH","p":"DAP","cand":"Kerk Chee Yee","pct":60.0,"maj":5624,"nc":3,"tv":15773,"unc":false,"rw":"BN","rp":"MCA","rcand":"Yong Fun Juan","rpct":24.3},"geometry":{"type":"Polygon","coordinates":[[[102.2571,2.2688],[102.2534,2.2547],[102.2612,2.2341],[102.2612,2.2374],[102.2659,2.241],[102.2698,2.2352],[102.2778,2.2418],[102.281,2.2392],[102.2906,2.2415],[102.2924,2.2452],[102.2964,2.2428],[102.3156,2.2411],[102.3205,2.2459],[102.3292,2.2624],[102.3285,2.2776],[102.3316,2.281],[102.3133,2.2828],[102.3066,2.2878],[102.2959,2.2873],[102.2782,2.2817],[102.2762,2.2779],[102.27,2.2794],[102.2683,2.2736],[102.2571,2.2688]]]}},{"type":"Feature","properties":{"c":"N.17","n":"Bukit Katil","w":"PH","p":"AMANAH","cand":"Adly bin Zahari","pct":41.6,"maj":1057,"nc":4,"tv":16377,"unc":false,"rw":"BN","rp":"UMNO","rcand":"Hasnoor bin Sdg Husin","rpct":35.1},"geometry":{"type":"Polygon","coordinates":[[[102.2785,2.2082],[102.2801,2.2076],[102.2835,2.2141],[102.2982,2.2112],[102.3003,2.2088],[102.3149,2.2108],[102.3109,2.2182],[102.3136,2.2355],[102.3168,2.2366],[102.3156,2.2411],[102.2964,2.2428],[102.2924,2.2452],[102.2906,2.2415],[102.281,2.2392],[102.2778,2.2418],[102.2698,2.2352],[102.2679,2.238],[102.2718,2.2296],[102.2696,2.2248],[102.2655,2.2252],[102.2619,2.2225],[102.2656,2.2132],[102.2737,2.2157],[102.2753,2.2092],[102.2785,2.2082]]]}},{"type":"Feature","properties":{"c":"N.18","n":"Ayer Molek","w":"BN","p":"UMNO","cand":"Rahmad bin Mariman","pct":51.1,"maj":2802,"nc":4,"tv":12430,"unc":false,"rw":"PN","rp":"BERSATU","rcand":"Mohd Fadly bin Samin","rpct":28.5},"geometry":{"type":"Polygon","coordinates":[[[102.3149,2.2108],[102.3124,2.2066],[102.3142,2.2007],[102.3111,2.1908],[102.3052,2.1904],[102.3011,2.1969],[102.2977,2.1963],[102.2926,2.188],[102.2968,2.1834],[102.3085,2.1838],[102.3078,2.1818],[102.3128,2.1818],[102.3176,2.1844],[102.3193,2.1821],[102.3294,2.189],[102.3358,2.1819],[102.339,2.1833],[102.345,2.1789],[102.347,2.1818],[102.3579,2.1778],[102.3573,2.1808],[102.3593,2.1816],[102.361,2.1719],[102.364,2.1759],[102.3739,2.1731],[102.3728,2.1766],[102.3781,2.1812],[102.3807,2.1906],[102.3865,2.1926],[102.386,2.1964],[102.3906,2.1973],[102.3902,2.1998],[102.3993,2.2098],[102.3919,2.2213],[102.3955,2.2383],[102.3942,2.2401],[102.3906,2.2383],[102.3916,2.2418],[102.3883,2.2423],[102.3877,2.2445],[102.3779,2.2342],[102.3713,2.2334],[102.3647,2.2366],[102.3531,2.2335],[102.3413,2.2254],[102.3367,2.2338],[102.3295,2.2337],[102.3226,2.2295],[102.3217,2.2265],[102.3135,2.2271],[102.3109,2.2182],[102.3149,2.2108]]]}},{"type":"Feature","properties":{"c":"N.19","n":"Kesidang","w":"PH","p":"DAP","cand":"Seah Shoo Chin (Allex Seah)","pct":65.9,"maj":10237,"nc":3,"tv":22425,"unc":false,"rw":"BN","rp":"MCA","rcand":"Leong Hui Ying","rpct":20.2},"geometry":{"type":"Polygon","coordinates":[[[102.242,2.2766],[102.2393,2.2739],[102.238,2.2624],[102.236,2.2613],[102.2361,2.2538],[102.231,2.2451],[102.2281,2.2448],[102.2271,2.2548],[102.2162,2.2556],[102.206,2.2534],[102.2112,2.2331],[102.215,2.2301],[102.2096,2.2239],[102.2088,2.2192],[102.2192,2.2159],[102.216,2.2055],[102.221,2.2027],[102.2248,2.2021],[102.2338,2.221],[102.2432,2.2158],[102.2426,2.222],[102.2342,2.2243],[102.2284,2.2299],[102.2422,2.2376],[102.2425,2.2421],[102.2459,2.2441],[102.2502,2.2415],[102.2517,2.235],[102.2612,2.2341],[102.2534,2.2547],[102.2571,2.2688],[102.242,2.2766]]]}},{"type":"Feature","properties":{"c":"N.20","n":"Kota Laksamana","w":"PH","p":"DAP","cand":"Low Chee Leong","pct":80.8,"maj":11494,"nc":3,"tv":16712,"unc":false,"rw":"BN","rp":"MCA","rcand":"Benjamin Low Chin Hong","rpct":12.1},"geometry":{"type":"Polygon","coordinates":[[[102.2432,2.2158],[102.2338,2.221],[102.2248,2.2021],[102.2355,2.1995],[102.2356,2.1911],[102.2429,2.1876],[102.2506,2.1938],[102.2477,2.1984],[102.2524,2.1977],[102.2528,2.2054],[102.2568,2.2111],[102.2432,2.2158]]]}},{"type":"Feature","properties":{"c":"N.21","n":"Duyong","w":"BN","p":"UMNO","cand":"Mohd Noor Helmy bin Abdul Halem","pct":38.4,"maj":200,"nc":6,"tv":12211,"unc":false,"rw":"PH","rp":"DAP","rcand":"Damian Yeo Shen Li","rpct":36.7},"geometry":{"type":"Polygon","coordinates":[[[102.2568,2.2111],[102.2528,2.2054],[102.2529,2.2016],[102.257,2.2004],[102.2611,2.2027],[102.2646,2.1938],[102.2781,2.1933],[102.2749,2.1894],[102.2858,2.1881],[102.2881,2.1856],[102.2908,2.1854],[102.2977,2.1963],[102.3011,2.1969],[102.3052,2.1904],[102.3111,2.1908],[102.3142,2.2007],[102.3124,2.2066],[102.3149,2.2108],[102.3003,2.2088],[102.2895,2.2137],[102.2819,2.2139],[102.2761,2.2031],[102.2682,2.2015],[102.2631,2.2037],[102.2631,2.2084],[102.2568,2.2111]]]}},{"type":"Feature","properties":{"c":"N.22","n":"Bandar Hilir","w":"PH","p":"DAP","cand":"Leng Chau Yen","pct":81.2,"maj":7778,"nc":4,"tv":11197,"unc":false,"rw":"BN","rp":"MCA","rcand":"Lee Kah Sean","rpct":11.7},"geometry":{"type":"MultiPolygon","coordinates":[[[[102.2478,2.1921],[102.2437,2.1854],[102.2615,2.1794],[102.2657,2.1836],[102.2731,2.179],[102.2742,2.1841],[102.2634,2.1861],[102.2636,2.1899],[102.2671,2.1932],[102.2646,2.1938],[102.2611,2.2027],[102.257,2.2004],[102.2529,2.2016],[102.2524,2.1977],[102.2477,2.1984],[102.2506,2.1938],[102.2478,2.1921]]]]}},{"type":"Feature","properties":{"c":"N.23","n":"Telok Mas","w":"BN","p":"UMNO","cand":"Abdul Razak bin Abdul Rahman","pct":43.0,"maj":2076,"nc":4,"tv":14072,"unc":false,"rw":"PN","rp":"BERSATU","rcand":"Mohd Rafiq bin Naizamohideen","rpct":28.3},"geometry":{"type":"MultiPolygon","coordinates":[[[[102.2926,2.188],[102.2881,2.1856],[102.2858,2.1881],[102.2749,2.1894],[102.2781,2.1933],[102.2682,2.1937],[102.2642,2.1909],[102.2634,2.1861],[102.2742,2.1841],[102.2731,2.179],[102.2846,2.1732],[102.3027,2.1703],[102.3136,2.1639],[102.3189,2.1574],[102.3368,2.1568],[102.3373,2.155],[102.3385,2.1566],[102.338,2.1687],[102.3445,2.18],[102.339,2.1833],[102.3358,2.1819],[102.3294,2.189],[102.3242,2.1838],[102.3219,2.1848],[102.3187,2.1821],[102.3176,2.1844],[102.3095,2.1817],[102.3085,2.1838],[102.2968,2.1834],[102.2926,2.188]]],[[[102.3344,2.1134],[102.325,2.115],[102.3211,2.1117],[102.3253,2.109],[102.3254,2.1032],[102.3279,2.103],[102.3344,2.1134]]]]}},{"type":"Feature","properties":{"c":"N.24","n":"Bemban","w":"PN","p":"BERSATU","cand":"Mohd Yadzil bin Yaakub","pct":34.6,"maj":328,"nc":5,"tv":12169,"unc":false,"rw":"BN","rp":"MCA","rcand":"Koh Chin Han","rpct":31.9},"geometry":{"type":"Polygon","coordinates":[[[102.3442,2.324],[102.3435,2.3128],[102.34,2.3066],[102.3354,2.2845],[102.3285,2.2776],[102.3292,2.2624],[102.3205,2.2459],[102.3157,2.2418],[102.3168,2.2366],[102.3136,2.2355],[102.3135,2.2271],[102.3217,2.2265],[102.3265,2.2323],[102.3367,2.2338],[102.3413,2.2254],[102.3531,2.2335],[102.3647,2.2366],[102.3713,2.2334],[102.3779,2.2342],[102.384,2.2422],[102.3877,2.2445],[102.3883,2.2423],[102.3918,2.2438],[102.3933,2.2486],[102.3975,2.2454],[102.3988,2.2478],[102.394,2.2614],[102.402,2.2711],[102.3979,2.2763],[102.3993,2.2831],[102.4085,2.2829],[102.441,2.3063],[102.4353,2.3067],[102.4288,2.3128],[102.4184,2.3117],[102.413,2.3147],[102.4082,2.3127],[102.4072,2.3156],[102.4122,2.3278],[102.405,2.3335],[102.3983,2.3356],[102.3967,2.3698],[102.392,2.3849],[102.3874,2.3798],[102.3812,2.3788],[102.3674,2.3805],[102.3639,2.3841],[102.3571,2.3821],[102.3594,2.3666],[102.3516,2.3638],[102.3495,2.3569],[102.3533,2.3529],[102.3456,2.3369],[102.3442,2.324]]]}},{"type":"Feature","properties":{"c":"N.25","n":"Rim","w":"BN","p":"UMNO","cand":"Khaidhirah binti Abu Zahar","pct":45.3,"maj":1327,"nc":3,"tv":8910,"unc":false,"rw":"PN","rp":"BERSATU","rcand":"Azalina binti Abdul Rahman","rpct":30.4},"geometry":{"type":"Polygon","coordinates":[[[102.3946,2.3759],[102.3983,2.3356],[102.405,2.3335],[102.4122,2.3278],[102.4072,2.3156],[102.4082,2.3127],[102.413,2.3147],[102.4184,2.3117],[102.4288,2.3128],[102.4353,2.3067],[102.441,2.3063],[102.4151,2.2876],[102.4297,2.2775],[102.4408,2.2748],[102.4467,2.2674],[102.4456,2.2626],[102.438,2.2598],[102.4456,2.2444],[102.4452,2.238],[102.4953,2.2329],[102.4954,2.237],[102.4874,2.2459],[102.4939,2.2474],[102.4915,2.2568],[102.502,2.2941],[102.5093,2.306],[102.5065,2.3105],[102.51,2.3202],[102.5139,2.3219],[102.5141,2.3295],[102.5087,2.3409],[102.513,2.3551],[102.5253,2.3594],[102.5242,2.3652],[102.5352,2.371],[102.5355,2.3752],[102.5212,2.3659],[102.516,2.3688],[102.5137,2.3749],[102.5079,2.3792],[102.5005,2.3772],[102.4979,2.3787],[102.4968,2.3742],[102.4845,2.3711],[102.487,2.3602],[102.4245,2.3659],[102.4122,2.3729],[102.3946,2.3759]]]}},{"type":"Feature","properties":{"c":"N.26","n":"Serkam","w":"BN","p":"UMNO","cand":"Zaidi bin Attan","pct":43.3,"maj":79,"nc":4,"tv":11631,"unc":false,"rw":"PN","rp":"PAS","rcand":"Ahmad Bilal bin Rahudin","rpct":42.6},"geometry":{"type":"Polygon","coordinates":[[[102.345,2.1789],[102.3415,2.1771],[102.338,2.1687],[102.3376,2.1545],[102.3494,2.1493],[102.3524,2.1433],[102.354,2.1448],[102.3712,2.1341],[102.4002,2.1332],[102.4,2.1462],[102.4023,2.1484],[102.3994,2.1528],[102.3997,2.1611],[102.4034,2.1654],[102.4006,2.1712],[102.4039,2.1724],[102.4056,2.1822],[102.4093,2.1838],[102.4073,2.1915],[102.4101,2.1919],[102.4116,2.1956],[102.4125,2.1934],[102.4161,2.195],[102.4165,2.2109],[102.4147,2.2104],[102.412,2.2174],[102.4091,2.2124],[102.4083,2.2029],[102.3955,2.2041],[102.3902,2.1998],[102.3906,2.1973],[102.386,2.1964],[102.3865,2.1926],[102.3807,2.1906],[102.3781,2.1812],[102.3728,2.1766],[102.3739,2.1731],[102.364,2.1759],[102.3603,2.1722],[102.3609,2.1766],[102.3579,2.182],[102.3579,2.1778],[102.347,2.1818],[102.345,2.1789]]]}},{"type":"Feature","properties":{"c":"N.27","n":"Merlimau","w":"BN","p":"UMNO","cand":"Muhamad Akmal bin Saleh","pct":58.4,"maj":3248,"nc":3,"tv":9640,"unc":false,"rw":"PH","rp":"AMANAH","rcand":"Azrin bin Ab Majid","rpct":24.7},"geometry":{"type":"Polygon","coordinates":[[[102.3955,2.2041],[102.4083,2.2029],[102.4091,2.2124],[102.412,2.2174],[102.4147,2.2104],[102.4165,2.2109],[102.4161,2.195],[102.4125,2.1934],[102.4116,2.1956],[102.4101,2.1919],[102.4073,2.1915],[102.4093,2.1838],[102.4056,2.1822],[102.4039,2.1724],[102.4006,2.1712],[102.4034,2.1654],[102.3997,2.1611],[102.3994,2.1528],[102.4023,2.1484],[102.4,2.1462],[102.4002,2.1332],[102.4135,2.1286],[102.4328,2.1151],[102.44,2.1122],[102.4449,2.1133],[102.4449,2.1205],[102.4538,2.1463],[102.4606,2.1488],[102.4556,2.1505],[102.4604,2.1513],[102.4605,2.1534],[102.4658,2.1515],[102.4649,2.1562],[102.4687,2.1571],[102.4703,2.1616],[102.4666,2.1587],[102.4587,2.1591],[102.4537,2.1563],[102.4501,2.1577],[102.4489,2.163],[102.4455,2.1632],[102.4351,2.1714],[102.4413,2.1869],[102.4425,2.2183],[102.4481,2.2287],[102.449,2.2379],[102.4446,2.2388],[102.4456,2.2444],[102.438,2.2598],[102.4473,2.2648],[102.4408,2.2748],[102.4297,2.2775],[102.4151,2.2876],[102.4085,2.2829],[102.3993,2.2831],[102.3979,2.2763],[102.402,2.2711],[102.394,2.2614],[102.3988,2.2478],[102.3975,2.2454],[102.3933,2.2486],[102.3902,2.2431],[102.3906,2.2383],[102.3942,2.2401],[102.3955,2.2383],[102.3919,2.2213],[102.3993,2.2098],[102.3955,2.2041]]]}},{"type":"Feature","properties":{"c":"N.28","n":"Sungai Rambai","w":"BN","p":"UMNO","cand":"Siti Faizah binti Abdul Azis","pct":48.1,"maj":1137,"nc":4,"tv":7905,"unc":false,"rw":"PN","rp":"BERSATU","rcand":"Muhammad Jefri bin Safry","rpct":33.7},"geometry":{"type":"Polygon","coordinates":[[[102.4953,2.2329],[102.449,2.2384],[102.4481,2.2287],[102.4425,2.2183],[102.4413,2.1869],[102.4351,2.1714],[102.4455,2.1632],[102.4489,2.163],[102.4501,2.1577],[102.4537,2.1563],[102.4587,2.1591],[102.4666,2.1587],[102.4703,2.1616],[102.4687,2.1571],[102.4649,2.1562],[102.4658,2.1515],[102.4605,2.1534],[102.4604,2.1513],[102.4556,2.1505],[102.4606,2.1488],[102.4538,2.1463],[102.4449,2.1205],[102.4449,2.1133],[102.4639,2.1093],[102.4877,2.0974],[102.4891,2.0988],[102.4869,2.1075],[102.4814,2.1119],[102.4812,2.1168],[102.4887,2.1211],[102.5027,2.1194],[102.4992,2.1261],[102.5044,2.1274],[102.5068,2.122],[102.5167,2.1198],[102.5223,2.1214],[102.5227,2.1261],[102.5345,2.1345],[102.5373,2.1446],[102.5309,2.1547],[102.5345,2.1586],[102.5292,2.1608],[102.5307,2.1683],[102.5248,2.1648],[102.525,2.1679],[102.5165,2.1648],[102.5164,2.17],[102.5123,2.1672],[102.5046,2.1679],[102.5025,2.1728],[102.4954,2.173],[102.4904,2.1806],[102.4855,2.1782],[102.4783,2.1804],[102.4749,2.184],[102.4773,2.1871],[102.4728,2.1976],[102.4678,2.1967],[102.4689,2.2039],[102.4947,2.2207],[102.4953,2.2329]]]}}]}